{"updated": "2026-06-05T11:34:38.961324Z", "count": 229, "stations": {"LFRN": {"icaoId": "LFRN", "receiptTime": "2026-06-05T10:36:09.656Z", "obsTime": 1780655400, "reportTime": "2026-06-05T10:30:00.000Z", "temp": 16, "dewp": 6, "wdir": 210, "wspd": 8, "visib": "6+", "altim": 1016, "qcField": 2, "metarType": "METAR", "rawOb": "METAR LFRN 051030Z AUTO 21008KT 180V260 9999 FEW046 BKN052 OVC070 16/06 Q1016 TEMPO 4000 SHRA BKN020TCU", "lat": 48.069, "lon": -1.734, "elev": 35, "name": "Rennes/St Jacques Arpt, BR, FR", "cover": "OVC", "clouds": [{"cover": "FEW", "base": 4600}, {"cover": "BKN", "base": 5200}, {"cover": "OVC", "base": 7000}], "fltCat": "VFR"}, "LKPR": {"icaoId": "LKPR", "receiptTime": "2026-06-05T10:32:29.731Z", "obsTime": 1780655400, "reportTime": "2026-06-05T10:30:00.000Z", "temp": 15, "dewp": 12, "wdir": 230, "wspd": 10, "visib": "6+", "altim": 1014, "qcField": 16, "metarType": "METAR", "rawOb": "METAR LKPR 051030Z 23010KT 210V270 9999 SCT014 15/12 Q1014 NOSIG", "lat": 50.101, "lon": 14.26, "elev": 364, "name": "Prague/Havel Arpt, ST, CZ", "cover": "SCT", "clouds": [{"cover": "SCT", "base": 1400}], "fltCat": "VFR"}, "EPKK": {"icaoId": "EPKK", "receiptTime": "2026-06-05T10:32:27.200Z", "obsTime": 1780655400, "reportTime": "2026-06-05T10:30:00.000Z", "temp": 23, "dewp": 14, "wdir": "VRB", "wspd": 3, "visib": "6+", "altim": 1011, "qcField": 0, "metarType": "METAR", "rawOb": "METAR EPKK 051030Z VRB03KT 9999 FEW040 23/14 Q1011", "lat": 50.078, "lon": 19.797, "elev": 237, "name": "Krak\u00f3w/Paul II Arpt, ML, PL", "cover": "FEW", "clouds": [{"cover": "FEW", "base": 4000}], "fltCat": "VFR"}, "LFSN": {"icaoId": "LFSN", "receiptTime": "2026-06-05T10:32:37.197Z", "obsTime": 1780655400, "reportTime": "2026-06-05T10:30:00.000Z", "temp": 19, "dewp": 8, "wdir": 240, "wspd": 8, "visib": "6+", "altim": 1016, "qcField": 2, "metarType": "METAR", "rawOb": "METAR LFSN 051030Z AUTO 24008KT 200V300 9999 FEW040 SCT080 19/08 Q1016", "lat": 48.692, "lon": 6.231, "elev": 214, "name": "Nancy/Essey Arpt, GE, FR", "cover": "SCT", "clouds": [{"cover": "FEW", "base": 4000}, {"cover": "SCT", "base": 8000}], "fltCat": "VFR"}, "LFKB": {"icaoId": "LFKB", "receiptTime": "2026-06-05T10:36:05.650Z", "obsTime": 1780655400, "reportTime": "2026-06-05T10:30:00.000Z", "temp": 25, "dewp": 18, "wdir": 20, "wspd": 8, "visib": "6+", "altim": 1012, "qcField": 2, "metarType": "METAR", "rawOb": "METAR LFKB 051030Z AUTO 02008KT 350V060 9999 FEW017 25/18 Q1012 TEMPO 4000 -SHRA BKN030TCU", "lat": 42.553, "lon": 9.484, "elev": 7, "name": "Bastia/Poretta Arpt, OC, FR", "cover": "FEW", "clouds": [{"cover": "FEW", "base": 1700}], "fltCat": "VFR"}, "LFML": {"icaoId": "LFML", "receiptTime": "2026-06-05T10:36:09.356Z", "obsTime": 1780655400, "reportTime": "2026-06-05T10:30:00.000Z", "temp": 22, "dewp": 10, "wdir": 320, "wspd": 17, "visib": "6+", "altim": 1014, "qcField": 2, "metarType": "METAR", "rawOb": "METAR LFML 051030Z AUTO 32017KT 290V350 9999 FEW015 22/10 Q1014 TEMPO 32020G30KT", "lat": 43.438, "lon": 5.216, "elev": 20, "name": "Marseille Arpt, PA, FR", "cover": "FEW", "clouds": [{"cover": "FEW", "base": 1500}], "fltCat": "VFR"}, "LFLC": {"icaoId": "LFLC", "receiptTime": "2026-06-05T10:32:12.649Z", "obsTime": 1780655400, "reportTime": "2026-06-05T10:30:00.000Z", "temp": 17, "dewp": 5, "wdir": 360, "wspd": 4, "visib": "6+", "altim": 1018, "qcField": 18, "metarType": "METAR", "rawOb": "METAR LFLC 051030Z AUTO 36004KT 320V030 9999 BKN050 OVC062 17/05 Q1018 NOSIG", "lat": 45.787, "lon": 3.169, "elev": 325, "name": "Clermont-Ferrand/Auvergne Arpt, AR, FR", "cover": "OVC", "clouds": [{"cover": "BKN", "base": 5000}, {"cover": "OVC", "base": 6200}], "fltCat": "VFR"}, "GMMN": {"icaoId": "GMMN", "receiptTime": "2026-06-05T10:32:33.695Z", "obsTime": 1780655400, "reportTime": "2026-06-05T10:30:00.000Z", "temp": 23, "dewp": 16, "wdir": 340, "wspd": 11, "visib": "6+", "altim": 1016, "qcField": 16, "metarType": "METAR", "rawOb": "METAR GMMN 051030Z 34011KT 310V020 9999 SCT020 23/16 Q1016 NOSIG", "lat": 33.367, "lon": -7.59, "elev": 196, "name": "Casablanca Intl, ME, MA", "cover": "SCT", "clouds": [{"cover": "SCT", "base": 2000}], "fltCat": "VFR"}, "GMMX": {"icaoId": "GMMX", "receiptTime": "2026-06-05T10:32:33.806Z", "obsTime": 1780655400, "reportTime": "2026-06-05T10:30:00.000Z", "temp": 25, "dewp": 15, "wdir": 360, "wspd": 4, "visib": 4.97, "altim": 1015, "qcField": 16, "metarType": "METAR", "rawOb": "METAR GMMX 051030Z 36004KT 8000 SCT020 25/15 Q1015 NOSIG", "lat": 31.607, "lon": -8.036, "elev": 465, "name": "Marrakesh/Menara Intl, ME, MA", "cover": "SCT", "clouds": [{"cover": "SCT", "base": 2000}], "fltCat": "MVFR"}, "EPGD": {"icaoId": "EPGD", "receiptTime": "2026-06-05T10:32:27.100Z", "obsTime": 1780655400, "reportTime": "2026-06-05T10:30:00.000Z", "temp": 14, "dewp": 13, "wdir": 310, "wspd": 7, "visib": "6+", "altim": 1011, "qcField": 0, "metarType": "METAR", "rawOb": "METAR EPGD 051030Z 31007KT 9999 FEW008 14/13 Q1011", "lat": 54.379, "lon": 18.466, "elev": 136, "name": "Gda\u0144sk/Wa\u0142\u0119sa Arpt, PM, PL", "cover": "FEW", "clouds": [{"cover": "FEW", "base": 800}], "fltCat": "VFR"}, "EPPO": {"icaoId": "EPPO", "receiptTime": "2026-06-05T10:32:27.402Z", "obsTime": 1780655400, "reportTime": "2026-06-05T10:30:00.000Z", "temp": 15, "dewp": 13, "wdir": 280, "wspd": 7, "visib": "6+", "altim": 1012, "qcField": 0, "wxString": "-RA", "metarType": "METAR", "rawOb": "METAR EPPO 051030Z 28007KT 9999 -RA FEW007 15/13 Q1012", "lat": 52.417, "lon": 16.835, "elev": 87, "name": "Pozna\u0144/\u0141awica Arpt, WP, PL", "cover": "FEW", "clouds": [{"cover": "FEW", "base": 700}], "fltCat": "VFR"}, "EPWA": {"icaoId": "EPWA", "receiptTime": "2026-06-05T10:32:27.640Z", "obsTime": 1780655400, "reportTime": "2026-06-05T10:30:00.000Z", "temp": 24, "dewp": 15, "wdir": 160, "wspd": 8, "visib": "6+", "altim": 1010, "qcField": 16, "metarType": "METAR", "rawOb": "METAR EPWA 051030Z 16008KT 100V210 9999 FEW038 24/15 Q1010 NOSIG", "lat": 52.163, "lon": 20.961, "elev": 107, "name": "Warsaw/Chopin Arpt, MZ, PL", "cover": "FEW", "clouds": [{"cover": "FEW", "base": 3800}], "fltCat": "VFR"}, "LQSA": {"icaoId": "LQSA", "receiptTime": "2026-06-05T10:33:24.955Z", "obsTime": 1780655400, "reportTime": "2026-06-05T10:30:00.000Z", "temp": 24, "dewp": 10, "wdir": "VRB", "wspd": 3, "visib": "6+", "altim": 1014, "qcField": 16, "metarType": "METAR", "rawOb": "METAR LQSA 051030Z VRB03KT 9999 FEW060 24/10 Q1014 NOSIG", "lat": 43.825, "lon": 18.331, "elev": 505, "name": "Sarajevo Intl, BI, BA", "cover": "FEW", "clouds": [{"cover": "FEW", "base": 6000}], "fltCat": "VFR"}, "HECA": {"icaoId": "HECA", "receiptTime": "2026-06-05T10:35:03.846Z", "obsTime": 1780655400, "reportTime": "2026-06-05T10:30:00.000Z", "temp": 34, "dewp": 5, "wdir": 10, "wspd": 8, "visib": "6+", "altim": 1013, "qcField": 16, "metarType": "METAR", "rawOb": "METAR HECA 051030Z 01008KT CAVOK 34/05 Q1013 NOSIG", "lat": 30.133, "lon": 31.405, "elev": 142, "name": "Cairo Intl, QH, EG", "cover": "CAVOK", "clouds": [], "fltCat": "VFR"}, "ULAA": {"icaoId": "ULAA", "receiptTime": "2026-06-05T10:36:10.325Z", "obsTime": 1780655400, "reportTime": "2026-06-05T10:30:00.000Z", "temp": 20, "dewp": 5, "wdir": 200, "wspd": 8, "visib": "6+", "altim": 1019, "qcField": 16, "metarType": "METAR", "rawOb": "METAR ULAA 051030Z 20004MPS 130V260 9999 SCT030 20/05 Q1019 R26/CLRD70 NOSIG RMK QFE763/1017", "lat": 64.599, "lon": 40.712, "elev": 10, "name": "Arhangelsk/Talagi Arpt, AR, RU", "cover": "SCT", "clouds": [{"cover": "SCT", "base": 3000}], "fltCat": "VFR"}, "ULMM": {"icaoId": "ULMM", "receiptTime": "2026-06-05T10:36:09.875Z", "obsTime": 1780655400, "reportTime": "2026-06-05T10:30:00.000Z", "temp": 25, "dewp": 8, "wdir": 250, "wspd": 10, "visib": "6+", "altim": 1010, "qcField": 16, "metarType": "METAR", "rawOb": "METAR ULMM 051030Z 25005MPS CAVOK 25/08 Q1010 R31/090070 NOSIG RMK QFE750", "lat": 68.781, "lon": 32.749, "elev": 79, "name": "Murmansk Arpt, MU, RU", "cover": "CAVOK", "clouds": [], "fltCat": "VFR"}, "ULOO": {"icaoId": "ULOO", "receiptTime": "2026-06-05T10:36:10.631Z", "obsTime": 1780655400, "reportTime": "2026-06-05T10:30:00.000Z", "temp": 24, "dewp": 13, "wdir": 150, "wspd": 14, "visib": "6+", "altim": 1015, "qcField": 16, "metarType": "METAR", "rawOb": "METAR ULOO 051030Z 15007MPS 9999 FEW051TCU 24/13 Q1015 R19/010062 NOSIG RMK QFE757", "lat": 57.79, "lon": 28.397, "elev": 46, "name": "Pskov Arpt, PS, RU", "cover": "FEW", "clouds": [{"cover": "FEW", "base": 5100}], "fltCat": "VFR"}, "ULPB": {"icaoId": "ULPB", "receiptTime": "2026-06-05T10:34:34.823Z", "obsTime": 1780655400, "reportTime": "2026-06-05T10:30:00.000Z", "temp": 20, "dewp": 11, "wdir": 170, "wspd": 6, "visib": "6+", "altim": 1018, "qcField": 16, "metarType": "METAR", "rawOb": "METAR ULPB 051030Z 17003MPS CAVOK 20/11 Q1018 R19/090065 NOSIG RMK QFE760/1013", "lat": 61.885, "lon": 34.155, "elev": 41, "name": "Petrozavodsk Arpt, KR, RU", "cover": "CAVOK", "clouds": [], "fltCat": "VFR"}, "UUOO": {"icaoId": "UUOO", "receiptTime": "2026-06-05T10:36:24.014Z", "obsTime": 1780655400, "reportTime": "2026-06-05T10:30:00.000Z", "temp": 25, "dewp": 9, "wdir": 280, "wspd": 6, "visib": "6+", "altim": 1017, "qcField": 16, "metarType": "METAR", "rawOb": "METAR UUOO 051030Z 28003MPS 210V320 CAVOK 25/09 Q1017 R12/010070 NOSIG RMK QFE749", "lat": 51.814, "lon": 39.228, "elev": 154, "name": "Voronez Intl, VO, RU", "cover": "CAVOK", "clouds": [], "fltCat": "VFR"}, "UUYY": {"icaoId": "UUYY", "receiptTime": "2026-06-05T10:36:24.057Z", "obsTime": 1780655400, "reportTime": "2026-06-05T10:30:00.000Z", "temp": 17, "dewp": 3, "wdir": 20, "wspd": 6, "visib": "6+", "altim": 1019, "qcField": 16, "metarType": "METAR", "rawOb": "METAR UUYY 051030Z 02003MPS 340V060 CAVOK 17/03 Q1019 R36/CLRD61 NOSIG RMK QFE755/1007", "lat": 61.647, "lon": 50.845, "elev": 107, "name": "Syktyvkar Arpt, KO, RU", "cover": "CAVOK", "clouds": [], "fltCat": "VFR"}, "URKK": {"icaoId": "URKK", "receiptTime": "2026-06-05T10:36:24.362Z", "obsTime": 1780655400, "reportTime": "2026-06-05T10:30:00.000Z", "temp": 26, "dewp": 15, "wdir": 10, "wspd": 4, "visib": "6+", "altim": 1015, "qcField": 16, "metarType": "METAR", "rawOb": "METAR URKK 051030Z 01002MPS 320V120 9999 SCT049 26/15 Q1015 R05R/CLRD70 NOSIG RMK QFE758", "lat": 45.033, "lon": 39.15, "elev": 29, "name": "Krasnodar Arpt, KD, RU", "cover": "SCT", "clouds": [{"cover": "SCT", "base": 4900}], "fltCat": "VFR"}, "URML": {"icaoId": "URML", "receiptTime": "2026-06-05T10:36:10.785Z", "obsTime": 1780655400, "reportTime": "2026-06-05T10:30:00.000Z", "temp": 20, "dewp": 15, "wdir": 140, "wspd": 8, "visib": "6+", "altim": 1015, "qcField": 16, "metarType": "METAR", "rawOb": "METAR URML 051030Z 14004MPS 100V190 9999 FEW011 20/15 Q1015 R14/CLRD// NOSIG RMK QFE761/1015", "lat": 42.817, "lon": 47.652, "elev": 4, "name": "Makhachkala/Uytash Arpt, DA, RU", "cover": "FEW", "clouds": [{"cover": "FEW", "base": 1100}], "fltCat": "VFR"}, "URMM": {"icaoId": "URMM", "receiptTime": "2026-06-05T10:36:24.387Z", "obsTime": 1780655400, "reportTime": "2026-06-05T10:30:00.000Z", "temp": 27, "dewp": 12, "wdir": 110, "wspd": 10, "visib": "6+", "altim": 1014, "qcField": 16, "metarType": "METAR", "rawOb": "METAR URMM 051030Z 11005MPS 9999 NSC 27/12 Q1014 R11/010070 NOSIG RMK QFE733/0977", "lat": 44.225, "lon": 43.082, "elev": 318, "name": "Mineralyne Vody Arpt, ST, RU", "cover": "CLR", "clouds": [], "fltCat": "VFR"}, "URWA": {"icaoId": "URWA", "receiptTime": "2026-06-05T10:36:24.462Z", "obsTime": 1780655400, "reportTime": "2026-06-05T10:30:00.000Z", "temp": 28, "dewp": 6, "wdir": 280, "wspd": 10, "visib": "6+", "altim": 1015, "qcField": 16, "metarType": "METAR", "rawOb": "METAR URWA 051030Z 28005MPS 250V320 CAVOK 28/06 Q1015 R27/CLRD70 NOSIG RMK QFE763/1017", "lat": 46.286, "lon": 47.995, "elev": -19, "name": "Astrakhan Arpt, AS, RU", "cover": "CAVOK", "clouds": [], "fltCat": "VFR"}, "URWI": {"icaoId": "URWI", "receiptTime": "2026-06-05T10:36:24.481Z", "obsTime": 1780655400, "reportTime": "2026-06-05T10:30:00.000Z", "temp": 26, "dewp": 12, "wdir": 30, "wspd": 10, "visib": "6+", "altim": 1015, "qcField": 16, "metarType": "METAR", "rawOb": "METAR URWI 051030Z 03005MPS 360V060 CAVOK 26/12 Q1015 R09/010065 NOSIG", "lat": 46.374, "lon": 44.331, "elev": 145, "name": "Elista Arpt, KL, RU", "cover": "CAVOK", "clouds": [], "fltCat": "VFR"}, "URWW": {"icaoId": "URWW", "receiptTime": "2026-06-05T10:36:24.500Z", "obsTime": 1780655400, "reportTime": "2026-06-05T10:30:00.000Z", "temp": 25, "dewp": 6, "wdir": "VRB", "wspd": 2, "visib": "6+", "altim": 1015, "qcField": 0, "metarType": "METAR", "rawOb": "METAR URWW 051030Z VRB01MPS CAVOK 25/06 Q1015 R23/010070 TEMPO -TSRAGR BKN030CB", "lat": 48.788, "lon": 44.336, "elev": 131, "name": "Volgograd Intl, VG, RU", "cover": "CAVOK", "clouds": [], "fltCat": "VFR"}, "LPPR": {"icaoId": "LPPR", "receiptTime": "2026-06-05T10:34:30.923Z", "obsTime": 1780655400, "reportTime": "2026-06-05T10:30:00.000Z", "temp": 17, "dewp": 9, "wdir": 280, "wspd": 6, "visib": "6+", "altim": 1018, "qcField": 0, "metarType": "METAR", "rawOb": "METAR LPPR 051030Z 28006KT 250V320 9999 FEW020 17/09 Q1018", "lat": 41.235, "lon": -8.684, "elev": 64, "name": "Porto/Cameriro Arpt, PT, PT", "cover": "FEW", "clouds": [{"cover": "FEW", "base": 2000}], "fltCat": "VFR"}, "LPPS": {"icaoId": "LPPS", "receiptTime": "2026-06-05T10:34:30.998Z", "obsTime": 1780655400, "reportTime": "2026-06-05T10:30:00.000Z", "temp": 20, "dewp": 15, "wdir": 10, "wspd": 13, "visib": "6+", "altim": 1024, "qcField": 0, "metarType": "METAR", "rawOb": "METAR LPPS 051030Z 01013KT 340V050 9999 SCT015 20/15 Q1024", "lat": 33.073, "lon": -16.35, "elev": 89, "name": "Porto Santo Isl Arpt, MD, PT", "cover": "SCT", "clouds": [{"cover": "SCT", "base": 1500}], "fltCat": "VFR"}, "LPPT": {"icaoId": "LPPT", "receiptTime": "2026-06-05T10:34:31.058Z", "obsTime": 1780655400, "reportTime": "2026-06-05T10:30:00.000Z", "temp": 20, "dewp": 8, "wdir": 340, "wspd": 7, "visib": "6+", "altim": 1018, "qcField": 0, "metarType": "METAR", "rawOb": "METAR LPPT 051030Z 34007KT 300V040 CAVOK 20/08 Q1018", "lat": 38.781, "lon": -9.136, "elev": 98, "name": "Lisbon Arpt, LI, PT", "cover": "CAVOK", "clouds": [], "fltCat": "VFR"}, "LRCV": {"icaoId": "LRCV", "receiptTime": "2026-06-05T10:34:27.053Z", "obsTime": 1780655400, "reportTime": "2026-06-05T10:30:00.000Z", "temp": 23, "dewp": 17, "wdir": 120, "wspd": 5, "visib": "6+", "altim": 1015, "qcField": 0, "metarType": "METAR", "rawOb": "METAR LRCV 051030Z 12005KT 070V190 9999 BKN030 23/17 Q1015", "lat": 44.31, "lon": 23.867, "elev": 192, "name": "Craiova Arpt, DO, RO", "cover": "BKN", "clouds": [{"cover": "BKN", "base": 3000}], "fltCat": "MVFR"}, "LRSV": {"icaoId": "LRSV", "receiptTime": "2026-06-05T10:34:27.203Z", "obsTime": 1780655400, "reportTime": "2026-06-05T10:30:00.000Z", "temp": 24, "dewp": 17, "wdir": 120, "wspd": 11, "visib": "6+", "altim": 1014, "qcField": 0, "metarType": "METAR", "rawOb": "METAR LRSV 051030Z 12011KT 090V160 CAVOK 24/17 Q1014", "lat": 47.686, "lon": 26.354, "elev": 406, "name": "Suceava/Salcea Arpt, BV, RO", "cover": "CAVOK", "clouds": [], "fltCat": "VFR"}, "LRCL": {"icaoId": "LRCL", "receiptTime": "2026-06-05T10:34:11.730Z", "obsTime": 1780655400, "reportTime": "2026-06-05T10:30:00.000Z", "temp": 26, "dewp": 16, "wdir": 120, "wspd": 9, "visib": "6+", "altim": 1013, "qcField": 0, "metarType": "METAR", "rawOb": "METAR LRCL 051030Z 12009KT 080V160 9999 FEW030 FEW032TCU 26/16 Q1013", "lat": 46.783, "lon": 23.676, "elev": 313, "name": "Cluj-Napoca Intl, CJ, RO", "cover": "FEW", "clouds": [{"cover": "FEW", "base": 3000}, {"cover": "FEW", "base": 3200}], "fltCat": "VFR"}, "LRSM": {"icaoId": "LRSM", "receiptTime": "2026-06-05T10:34:11.875Z", "obsTime": 1780655400, "reportTime": "2026-06-05T10:30:00.000Z", "temp": 24, "dewp": 16, "wdir": 310, "wspd": 3, "visib": "6+", "altim": 1013, "qcField": 0, "metarType": "METAR", "rawOb": "METAR LRSM 051030Z 31003KT 270V010 9999 FEW040 24/16 Q1013", "lat": 47.703, "lon": 22.886, "elev": 123, "name": "Satu Mare Arpt, SM, RO", "cover": "FEW", "clouds": [{"cover": "FEW", "base": 4000}], "fltCat": "VFR"}, "LROP": {"icaoId": "LROP", "receiptTime": "2026-06-05T10:34:26.362Z", "obsTime": 1780655400, "reportTime": "2026-06-05T10:30:00.000Z", "temp": 24, "dewp": 17, "wdir": "VRB", "wspd": 2, "visib": "6+", "altim": 1015, "qcField": 16, "metarType": "METAR", "rawOb": "METAR LROP 051030Z VRB02KT 9999 BKN026 24/17 Q1015 NOSIG", "lat": 44.572, "lon": 26.102, "elev": 92, "name": "Bucharest/Coand\u0103 Intl, B, RO", "cover": "BKN", "clouds": [{"cover": "BKN", "base": 2600}], "fltCat": "MVFR"}, "UZNN": {"icaoId": "UZNN", "receiptTime": "2026-06-05T10:34:28.000Z", "obsTime": 1780655400, "reportTime": "2026-06-05T10:30:00.000Z", "temp": 28, "dewp": 4, "wdir": 290, "wspd": 10, "visib": "6+", "altim": 1015, "qcField": 16, "metarType": "METAR", "rawOb": "METAR UZNN 051030Z 29010KT CAVOK 28/04 Q1015 NOSIG", "lat": 42.488, "lon": 59.623, "elev": 76, "name": "Nukus Arpt, QR, UZ", "cover": "CAVOK", "clouds": [], "fltCat": "VFR"}, "USPP": {"icaoId": "USPP", "receiptTime": "2026-06-05T10:36:24.257Z", "obsTime": 1780655400, "reportTime": "2026-06-05T10:30:00.000Z", "temp": 16, "dewp": 14, "wdir": 10, "wspd": 8, "visib": "6+", "altim": 1010, "qcField": 0, "metarType": "METAR", "rawOb": "METAR USPP 051030Z 01004MPS 9999 FEW013 BKN018 16/14 Q1010 R03/090070 TEMPO 0900 +TSRA BKN005 BKN011CB RMK QFE747", "lat": 57.914, "lon": 56.021, "elev": 120, "name": "Perm/Savino Arpt, PE, RU", "cover": "BKN", "clouds": [{"cover": "FEW", "base": 1300}, {"cover": "BKN", "base": 1800}], "fltCat": "MVFR"}, "UWKD": {"icaoId": "UWKD", "receiptTime": "2026-06-05T10:36:24.099Z", "obsTime": 1780655400, "reportTime": "2026-06-05T10:30:00.000Z", "temp": 19, "dewp": 11, "wdir": 350, "wspd": 12, "visib": "6+", "altim": 1014, "qcField": 16, "metarType": "METAR", "rawOb": "METAR UWKD 051030Z 35006MPS 320V020 9999 BKN041 19/11 Q1014 R29/CLRD70 NOSIG RMK QFE749/0999", "lat": 55.61, "lon": 49.275, "elev": 114, "name": "Kazan Intl, TA, RU", "cover": "BKN", "clouds": [{"cover": "BKN", "base": 4100}], "fltCat": "VFR"}, "UWKE": {"icaoId": "UWKE", "receiptTime": "2026-06-05T10:36:24.117Z", "obsTime": 1780655400, "reportTime": "2026-06-05T10:30:00.000Z", "temp": 22, "dewp": 12, "wdir": 320, "wspd": 12, "visib": "6+", "altim": 1011, "qcField": 16, "wxString": "TS", "metarType": "METAR", "rawOb": "METAR UWKE 051030Z 32006MPS 9999 TS SCT040CB 22/12 Q1011 R03/090070 NOSIG RMK QFE742/0989", "lat": 55.566, "lon": 52.1, "elev": 193, "name": "Begishevo Arpt, TA, RU", "cover": "SCT", "clouds": [{"cover": "SCT", "base": 4000}], "fltCat": "VFR"}, "UWOO": {"icaoId": "UWOO", "receiptTime": "2026-06-05T10:36:24.138Z", "obsTime": 1780655400, "reportTime": "2026-06-05T10:30:00.000Z", "temp": 23, "dewp": 12, "wdir": 330, "wspd": 10, "visib": "6+", "altim": 1009, "qcField": 16, "metarType": "METAR", "rawOb": "METAR UWOO 051030Z 33005MPS 9999 BKN040CB 23/12 Q1009 R26/CLRD60 NOSIG RMK QFE746/0995", "lat": 51.795, "lon": 55.457, "elev": 90, "name": "Orenburg Arpt, OR, RU", "cover": "BKN", "clouds": [{"cover": "BKN", "base": 4000}], "fltCat": "VFR"}, "UWSG": {"icaoId": "UWSG", "receiptTime": "2026-06-05T10:34:31.669Z", "obsTime": 1780655400, "reportTime": "2026-06-05T10:30:00.000Z", "temp": 16, "dewp": 13, "wdir": 60, "wspd": 8, "visib": "6+", "altim": 1014, "qcField": 16, "wxString": "-TSRA", "metarType": "METAR", "rawOb": "METAR UWSG 051030Z 06004MPS 040V100 9999 -TSRA SCT017 BKN033CB 16/13 Q1014 R26/290250 NOSIG RMK QFE757/1010", "lat": 51.713, "lon": 46.171, "elev": 31, "name": "Saratov/Gagarin Arpt, SA, RU", "cover": "BKN", "clouds": [{"cover": "SCT", "base": 1700}, {"cover": "BKN", "base": 3300}], "fltCat": "VFR"}, "USCM": {"icaoId": "USCM", "receiptTime": "2026-06-05T10:34:35.091Z", "obsTime": 1780655400, "reportTime": "2026-06-05T10:30:00.000Z", "temp": 19, "dewp": 9, "wdir": 280, "wspd": 6, "visib": "6+", "altim": 1006, "qcField": 0, "metarType": "METAR", "rawOb": "METAR USCM 051030Z 28003MPS 9999 BKN030CB 19/09 Q1006 R36/090060 TEMPO 32012MPS 1000 TSRA VV003 RMK QFE716", "lat": 53.393, "lon": 58.756, "elev": 425, "name": "Magnitogorsk Intl, BA, RU", "cover": "BKN", "clouds": [{"cover": "BKN", "base": 3000}], "fltCat": "MVFR"}, "ULWC": {"icaoId": "ULWC", "receiptTime": "2026-06-05T10:34:35.449Z", "obsTime": 1780655400, "reportTime": "2026-06-05T10:30:00.000Z", "temp": 21, "dewp": 8, "wdir": 80, "wspd": 4, "visib": "6+", "altim": 1020, "qcField": 16, "metarType": "METAR", "rawOb": "METAR ULWC 051030Z 08002MPS 9999 FEW033 21/08 Q1020 R21/010060 NOSIG RMK QFE755/1006", "lat": 59.281, "lon": 38.019, "elev": 113, "name": "Botovo/Cherepovets Arpt, VL, RU", "cover": "FEW", "clouds": [{"cover": "FEW", "base": 3300}], "fltCat": "VFR"}, "UWGG": {"icaoId": "UWGG", "receiptTime": "2026-06-05T10:36:24.079Z", "obsTime": 1780655400, "reportTime": "2026-06-05T10:30:00.000Z", "temp": 21, "dewp": 7, "wdir": 350, "wspd": 10, "visib": "6+", "altim": 1017, "qcField": 16, "metarType": "METAR", "rawOb": "METAR UWGG 051030Z 35005MPS CAVOK 21/07 Q1017 R36R/090070 NOSIG", "lat": 56.225, "lon": 43.786, "elev": 73, "name": "Nizhny Novgorod Intl, NI, RU", "cover": "CAVOK", "clouds": [], "fltCat": "VFR"}, "ULLI": {"icaoId": "ULLI", "receiptTime": "2026-06-05T10:36:09.853Z", "obsTime": 1780655400, "reportTime": "2026-06-05T10:30:00.000Z", "temp": 27, "dewp": 14, "wdir": 170, "wspd": 10, "visib": "6+", "altim": 1015, "qcField": 16, "metarType": "METAR", "rawOb": "METAR ULLI 051030Z 17005MPS 130V200 9999 SCT033 27/14 Q1015 R88/090065 NOSIG", "lat": 59.798, "lon": 30.267, "elev": 25, "name": "St Petersburg/Pulkovo Arpt, LE, RU", "cover": "SCT", "clouds": [{"cover": "SCT", "base": 3300}], "fltCat": "VFR"}, "UUEE": {"icaoId": "UUEE", "receiptTime": "2026-06-05T10:36:23.985Z", "obsTime": 1780655400, "reportTime": "2026-06-05T10:30:00.000Z", "temp": 23, "dewp": 8, "wdir": 320, "wspd": 6, "visib": "6+", "altim": 1018, "qcField": 16, "metarType": "METAR", "rawOb": "METAR UUEE 051030Z 32003MPS CAVOK 23/08 Q1018 R06R/CLRD62 R06C/CLRD62 NOSIG", "lat": 55.973, "lon": 37.415, "elev": 186, "name": "Moscow/Sheremetyevo Intl, MO, RU", "cover": "CAVOK", "clouds": [], "fltCat": "VFR"}, "LPAZ": {"icaoId": "LPAZ", "receiptTime": "2026-06-05T10:34:36.169Z", "obsTime": 1780655400, "reportTime": "2026-06-05T10:30:00.000Z", "temp": 20, "dewp": 18, "wdir": 280, "wspd": 16, "visib": "6+", "altim": 1025, "qcField": 0, "metarType": "METAR", "rawOb": "METAR LPAZ 051030Z 28016KT 9999 BKN007 20/18 Q1025", "lat": 36.971, "lon": -25.171, "elev": 96, "name": "Santa Maria Island Arpt, AZ, PT", "cover": "BKN", "clouds": [{"cover": "BKN", "base": 700}], "fltCat": "IFR"}, "LBSF": {"icaoId": "LBSF", "receiptTime": "2026-06-05T10:31:02.265Z", "obsTime": 1780655400, "reportTime": "2026-06-05T10:30:00.000Z", "temp": 23, "dewp": 14, "wdir": 100, "wspd": 5, "visib": "6+", "altim": 1015, "qcField": 16, "metarType": "METAR", "rawOb": "METAR LBSF 051030Z 10005KT 020V140 9999 SCT083 23/14 Q1015 NOSIG", "lat": 42.694, "lon": 23.414, "elev": 531, "name": "Sofia Intl, SO, BG", "cover": "SCT", "clouds": [{"cover": "SCT", "base": 8300}], "fltCat": "VFR"}, "LCLK": {"icaoId": "LCLK", "receiptTime": "2026-06-05T10:31:45.719Z", "obsTime": 1780655400, "reportTime": "2026-06-05T10:30:00.000Z", "temp": 29, "dewp": 19, "wdir": 190, "wspd": 13, "visib": "6+", "altim": 1013, "qcField": 16, "metarType": "METAR", "rawOb": "METAR LCLK 051030Z 19013KT 9999 FEW020 29/19 Q1013 NOSIG", "lat": 34.874, "lon": 33.617, "elev": 2, "name": "Larnaca Intl, LA, CY", "cover": "FEW", "clouds": [{"cover": "FEW", "base": 2000}], "fltCat": "VFR"}, "UBBB": {"icaoId": "UBBB", "receiptTime": "2026-06-05T10:31:14.629Z", "obsTime": 1780655400, "reportTime": "2026-06-05T10:30:00.000Z", "temp": 25, "dewp": 7, "wdir": 170, "wspd": 12, "visib": "6+", "altim": 1015, "qcField": 16, "metarType": "METAR", "rawOb": "METAR UBBB 051030Z 17012KT CAVOK 25/07 Q1015 NOSIG", "lat": 40.469, "lon": 50.061, "elev": 94, "name": "Baku/Aliyev Intl, BA, AZ", "cover": "CAVOK", "clouds": [], "fltCat": "VFR"}, "LDSP": {"icaoId": "LDSP", "receiptTime": "2026-06-05T10:36:05.741Z", "obsTime": 1780655400, "reportTime": "2026-06-05T10:30:00.000Z", "temp": 25, "dewp": 15, "wdir": 110, "wspd": 8, "visib": "6+", "altim": 1013, "qcField": 0, "minT": 0.8, "metarType": "METAR", "rawOb": "METAR LDSP 051030Z 11008KT 070V140 CAVOK 25/15 Q1013 BECMG 20008KT", "lat": 43.539, "lon": 16.301, "elev": 16, "name": "Split Arpt, SP, HR", "cover": "CAVOK", "clouds": [], "fltCat": "VFR"}, "LDZA": {"icaoId": "LDZA", "receiptTime": "2026-06-05T10:36:05.760Z", "obsTime": 1780655400, "reportTime": "2026-06-05T10:30:00.000Z", "temp": 22, "dewp": 13, "wdir": 300, "wspd": 6, "visib": "6+", "altim": 1013, "qcField": 0, "wxString": "-RA", "metarType": "METAR", "rawOb": "METAR LDZA 051030Z 30006KT 9999 -RA NSC 22/13 Q1013 BECMG 02010KT TEMPO RA", "lat": 45.729, "lon": 16.054, "elev": 103, "name": "Zagreb/Tu\u0111man Intl, ZA, HR", "cover": "CLR", "clouds": [], "fltCat": "VFR"}, "OIAW": {"icaoId": "OIAW", "receiptTime": "2026-06-05T10:31:15.048Z", "obsTime": 1780655400, "reportTime": "2026-06-05T10:30:00.000Z", "temp": 44, "dewp": -2, "wdir": 320, "wspd": 10, "wgst": 23, "visib": 4.35, "altim": 1003, "qcField": 0, "metarType": "METAR", "rawOb": "METAR OIAW 051030Z 32010G23KT 7000 NSC 44/M02 Q1003", "lat": 31.343, "lon": 48.751, "elev": 25, "name": "Ahwaz Arpt, KZ, IR", "cover": "CLR", "clouds": [], "fltCat": "MVFR"}, "OIFM": {"icaoId": "OIFM", "receiptTime": "2026-06-05T10:31:15.066Z", "obsTime": 1780655400, "reportTime": "2026-06-05T10:30:00.000Z", "temp": 35, "dewp": -6, "wdir": 340, "wspd": 4, "visib": "6+", "altim": 1014, "qcField": 0, "metarType": "METAR", "rawOb": "METAR OIFM 051030Z 34004KT 9999 FEW040 35/M06 Q1014 A2997", "lat": 32.752, "lon": 51.866, "elev": 1539, "name": "Esfahan Intl, EF, IR", "cover": "FEW", "clouds": [{"cover": "FEW", "base": 4000}], "fltCat": "VFR"}, "OISS": {"icaoId": "OISS", "receiptTime": "2026-06-05T10:31:15.131Z", "obsTime": 1780655400, "reportTime": "2026-06-05T10:30:00.000Z", "temp": 36, "dewp": 0, "wdir": 280, "wspd": 8, "visib": "6+", "altim": 1014, "qcField": 0, "metarType": "METAR", "rawOb": "METAR OISS 051030Z 28008KT CAVOK 36/M00 Q1014 A2995", "lat": 29.539, "lon": 52.59, "elev": 1484, "name": "Shiraz Intl, FA, IR", "cover": "CAVOK", "clouds": [], "fltCat": "VFR"}, "OITT": {"icaoId": "OITT", "receiptTime": "2026-06-05T10:31:15.155Z", "obsTime": 1780655400, "reportTime": "2026-06-05T10:30:00.000Z", "temp": 28, "dewp": 6, "wdir": 340, "wspd": 10, "visib": "6+", "altim": 1018, "qcField": 0, "metarType": "METAR", "rawOb": "METAR OITT 051030Z 34010KT 280V070 9999 SCT030TCU FEW032CB 28/06 Q1018 A3009", "lat": 38.13, "lon": 46.24, "elev": 1353, "name": "Tabriz Intl, EA, IR", "cover": "FEW", "clouds": [{"cover": "SCT", "base": 3000}, {"cover": "FEW", "base": 3200}], "fltCat": "VFR"}, "LHBP": {"icaoId": "LHBP", "receiptTime": "2026-06-05T10:31:19.549Z", "obsTime": 1780655400, "reportTime": "2026-06-05T10:30:00.000Z", "temp": 25, "dewp": 12, "wdir": 220, "wspd": 8, "visib": "6+", "altim": 1013, "qcField": 16, "metarType": "METAR", "rawOb": "METAR LHBP 051030Z 22008KT 160V260 CAVOK 25/12 Q1013 NOSIG", "lat": 47.437, "lon": 19.256, "elev": 141, "name": "Budapest/Liszt Intl, BU, HU", "cover": "CAVOK", "clouds": [], "fltCat": "VFR"}, "LFBD": {"icaoId": "LFBD", "receiptTime": "2026-06-05T10:36:05.607Z", "obsTime": 1780655400, "reportTime": "2026-06-05T10:30:00.000Z", "temp": 18, "dewp": 9, "wdir": 10, "wspd": 5, "visib": "6+", "altim": 1018, "qcField": 2, "metarType": "METAR", "rawOb": "METAR LFBD 051030Z AUTO 01005KT 310V100 9999 FEW032 BKN049 BKN060 18/09 Q1018 TEMPO 4000 -SHRA BKN030TCU", "lat": 44.831, "lon": -0.691, "elev": 48, "name": "Bordeaux/M\u00e9rignac Arpt, NA, FR", "cover": "BKN", "clouds": [{"cover": "FEW", "base": 3200}, {"cover": "BKN", "base": 4900}, {"cover": "BKN", "base": 6000}], "fltCat": "VFR"}, "LFPO": {"icaoId": "LFPO", "receiptTime": "2026-06-05T10:36:09.494Z", "obsTime": 1780655400, "reportTime": "2026-06-05T10:30:00.000Z", "temp": 17, "dewp": 9, "wdir": 230, "wspd": 10, "visib": "6+", "altim": 1016, "qcField": 0, "metarType": "METAR", "rawOb": "METAR LFPO 051030Z 23010KT 190V280 9999 SCT040 BKN066 17/09 Q1016 TEMPO -SHRA SCT020TCU", "lat": 48.717, "lon": 2.384, "elev": 88, "name": "Paris/Orly Fld, ID, FR", "cover": "BKN", "clouds": [{"cover": "SCT", "base": 4000}, {"cover": "BKN", "base": 6600}], "fltCat": "VFR"}, "LFRB": {"icaoId": "LFRB", "receiptTime": "2026-06-05T10:36:09.549Z", "obsTime": 1780655400, "reportTime": "2026-06-05T10:30:00.000Z", "temp": 16, "dewp": 9, "wdir": 220, "wspd": 13, "visib": "6+", "altim": 1014, "qcField": 2, "metarType": "METAR", "rawOb": "METAR LFRB 051030Z AUTO 22013KT 9999 FEW030 BKN064 16/09 Q1014 TEMPO 4000 SHRA BKN020TCU", "lat": 48.444, "lon": -4.412, "elev": 91, "name": "Brest/Guipavas Arpt, BR, FR", "cover": "BKN", "clouds": [{"cover": "FEW", "base": 3000}, {"cover": "BKN", "base": 6400}], "fltCat": "VFR"}, "LYBE": {"icaoId": "LYBE", "receiptTime": "2026-06-05T10:33:25.662Z", "obsTime": 1780655400, "reportTime": "2026-06-05T10:30:00.000Z", "temp": 25, "dewp": 13, "wdir": "VRB", "wspd": 4, "visib": "6+", "altim": 1013, "qcField": 16, "metarType": "METAR", "rawOb": "METAR LYBE 051030Z VRB04KT CAVOK 25/13 Q1013 NOSIG", "lat": 44.824, "lon": 20.291, "elev": 93, "name": "Belgrade/Tesla Arpt, BE, RS", "cover": "CAVOK", "clouds": [], "fltCat": "VFR"}, "LYTV": {"icaoId": "LYTV", "receiptTime": "2026-06-05T10:33:26.191Z", "obsTime": 1780655400, "reportTime": "2026-06-05T10:30:00.000Z", "temp": 24, "dewp": 19, "wdir": 240, "wspd": 5, "visib": "6+", "altim": 1014, "qcField": 16, "metarType": "METAR", "rawOb": "METAR LYTV 051030Z 24005KT 190V300 9999 FEW027 24/19 Q1014 NOSIG", "lat": 42.405, "lon": 18.723, "elev": 3, "name": "Tivat Arpt, TI, ME", "cover": "FEW", "clouds": [{"cover": "FEW", "base": 2700}], "fltCat": "VFR"}, "BIKF": {"icaoId": "BIKF", "receiptTime": "2026-06-05T10:33:12.526Z", "obsTime": 1780655400, "reportTime": "2026-06-05T10:30:00.000Z", "temp": 10, "dewp": 10, "wdir": 140, "wspd": 10, "visib": "6+", "altim": 985, "qcField": 0, "wxString": "-RA", "metarType": "METAR", "rawOb": "METAR BIKF 051030Z 14010KT 9999 -RA BKN013 OVC039 10/10 Q0985", "lat": 63.987, "lon": -22.614, "elev": 49, "name": "Keflavik Intl, SP, IS", "cover": "OVC", "clouds": [{"cover": "BKN", "base": 1300}, {"cover": "OVC", "base": 3900}], "fltCat": "MVFR"}, "EIDW": {"icaoId": "EIDW", "receiptTime": "2026-06-05T10:33:30.392Z", "obsTime": 1780655400, "reportTime": "2026-06-05T10:30:00.000Z", "temp": 14, "dewp": 6, "wdir": 210, "wspd": 11, "visib": "6+", "altim": 1007, "qcField": 16, "metarType": "METAR", "rawOb": "METAR EIDW 051030Z 21011KT 180V250 9999 FEW018 14/06 Q1007 NOSIG", "lat": 53.422, "lon": -6.298, "elev": 75, "name": "Dublin Arpt, L, IE", "cover": "FEW", "clouds": [{"cover": "FEW", "base": 1800}], "fltCat": "VFR"}, "EIKN": {"icaoId": "EIKN", "receiptTime": "2026-06-05T10:33:30.660Z", "obsTime": 1780655400, "reportTime": "2026-06-05T10:30:00.000Z", "temp": 11, "dewp": 9, "wdir": 200, "wspd": 8, "visib": "6+", "altim": 1004, "qcField": 16, "metarType": "METAR", "rawOb": "METAR EIKN 051030Z 20008KT 9999 FEW009 BKN028 11/09 Q1004 NOSIG", "lat": 53.913, "lon": -8.811, "elev": 201, "name": "Knock/Ireland West Arpt, C, IE", "cover": "BKN", "clouds": [{"cover": "FEW", "base": 900}, {"cover": "BKN", "base": 2800}], "fltCat": "MVFR"}, "UMMS": {"icaoId": "UMMS", "receiptTime": "2026-06-05T10:33:53.601Z", "obsTime": 1780655400, "reportTime": "2026-06-05T10:30:00.000Z", "temp": 23, "dewp": 12, "wdir": 160, "wspd": 6, "wgst": 12, "visib": "6+", "altim": 1016, "qcField": 16, "metarType": "METAR", "rawOb": "METAR UMMS 051030Z 16003G06MPS 130V210 9999 BKN044 23/12 Q1016 NOSIG", "lat": 53.883, "lon": 28.031, "elev": 196, "name": "Minsk Arpt, MI, BY", "cover": "BKN", "clouds": [{"cover": "BKN", "base": 4400}], "fltCat": "VFR"}, "GCTS": {"icaoId": "GCTS", "receiptTime": "2026-06-05T10:34:33.182Z", "obsTime": 1780655400, "reportTime": "2026-06-05T10:30:00.000Z", "temp": 24, "dewp": 17, "wdir": 100, "wspd": 15, "visib": "6+", "altim": 1019, "qcField": 16, "metarType": "METAR", "rawOb": "METAR GCTS 051030Z 10015KT 080V140 9999 SCT030 24/17 Q1019 NOSIG", "lat": 28.047, "lon": -16.561, "elev": 59, "name": "Tenerife/South Arpt, CR, ES", "cover": "SCT", "clouds": [{"cover": "SCT", "base": 3000}], "fltCat": "VFR"}, "LEBB": {"icaoId": "LEBB", "receiptTime": "2026-06-05T10:34:32.320Z", "obsTime": 1780655400, "reportTime": "2026-06-05T10:30:00.000Z", "temp": 20, "dewp": 9, "wdir": "VRB", "wspd": 2, "visib": "6+", "altim": 1018, "qcField": 16, "metarType": "METAR", "rawOb": "METAR LEBB 051030Z VRB02KT 9999 FEW042 BKN060 20/09 Q1018 NOSIG", "lat": 43.298, "lon": -2.906, "elev": 38, "name": "Bilbao Arpt, PV, ES", "cover": "BKN", "clouds": [{"cover": "FEW", "base": 4200}, {"cover": "BKN", "base": 6000}], "fltCat": "VFR"}, "LECO": {"icaoId": "LECO", "receiptTime": "2026-06-05T10:34:32.377Z", "obsTime": 1780655400, "reportTime": "2026-06-05T10:30:00.000Z", "temp": 16, "dewp": 7, "wdir": 170, "wspd": 9, "visib": "6+", "altim": 1017, "qcField": 16, "metarType": "METAR", "rawOb": "METAR LECO 051030Z 17009KT 140V210 CAVOK 16/07 Q1017 NOSIG", "lat": 43.307, "lon": -8.372, "elev": 80, "name": "A Coru\u00f1a Arpt, GA, ES", "cover": "CAVOK", "clouds": [], "fltCat": "VFR"}, "LEAL": {"icaoId": "LEAL", "receiptTime": "2026-06-05T10:34:33.663Z", "obsTime": 1780655400, "reportTime": "2026-06-05T10:30:00.000Z", "temp": 24, "dewp": 19, "wdir": 90, "wspd": 16, "visib": "6+", "altim": 1014, "qcField": 16, "wxString": "-RA", "metarType": "METAR", "rawOb": "METAR LEAL 051030Z 09016KT 9999 -RA SCT029 BKN037 24/19 Q1014 NOSIG", "lat": 38.282, "lon": -0.558, "elev": 26, "name": "Alicante Arpt, VC, ES", "cover": "BKN", "clouds": [{"cover": "SCT", "base": 2900}, {"cover": "BKN", "base": 3700}], "fltCat": "VFR"}, "LEBL": {"icaoId": "LEBL", "receiptTime": "2026-06-05T10:34:33.719Z", "obsTime": 1780655400, "reportTime": "2026-06-05T10:30:00.000Z", "temp": 21, "dewp": 14, "wdir": 230, "wspd": 10, "visib": 4.97, "altim": 1017, "qcField": 16, "metarType": "METAR", "rawOb": "METAR LEBL 051030Z 23010KT 210V270 8000 FEW015 BKN035 21/14 Q1017 NOSIG", "lat": 41.293, "lon": 2.07, "elev": 2, "name": "Barcelona/Prat Arpt, CT, ES", "cover": "BKN", "clouds": [{"cover": "FEW", "base": 1500}, {"cover": "BKN", "base": 3500}], "fltCat": "MVFR"}, "LEMD": {"icaoId": "LEMD", "receiptTime": "2026-06-05T10:34:33.839Z", "obsTime": 1780655400, "reportTime": "2026-06-05T10:30:00.000Z", "temp": 22, "dewp": 10, "wdir": 110, "wspd": 4, "visib": "6+", "altim": 1016, "qcField": 16, "metarType": "METAR", "rawOb": "METAR LEMD 051030Z 11004KT 9999 FEW040 22/10 Q1016 NOSIG", "lat": 40.466, "lon": -3.555, "elev": 589, "name": "Madrid/Barajas Arpt, M, ES", "cover": "FEW", "clouds": [{"cover": "FEW", "base": 4000}], "fltCat": "VFR"}, "LEPA": {"icaoId": "LEPA", "receiptTime": "2026-06-05T10:34:33.958Z", "obsTime": 1780655400, "reportTime": "2026-06-05T10:30:00.000Z", "temp": 23, "dewp": 13, "wdir": 70, "wspd": 14, "visib": "6+", "altim": 1016, "qcField": 16, "metarType": "METAR", "rawOb": "METAR LEPA 051030Z 07014KT 030V090 9999 FEW025 SCT039 23/13 Q1016 NOSIG", "lat": 39.561, "lon": 2.737, "elev": 8, "name": "Palma De Mallorca Arpr, IB, ES", "cover": "SCT", "clouds": [{"cover": "FEW", "base": 2500}, {"cover": "SCT", "base": 3900}], "fltCat": "VFR"}, "EHAM": {"icaoId": "EHAM", "receiptTime": "2026-06-05T10:57:28.452Z", "obsTime": 1780656900, "reportTime": "2026-06-05T11:00:00.000Z", "temp": 18, "dewp": 10, "wdir": 260, "wspd": 11, "visib": "6+", "altim": 1011, "qcField": 16, "metarType": "METAR", "rawOb": "METAR EHAM 051055Z 26011KT 230V300 9999 FEW022 18/10 Q1011 NOSIG", "lat": 52.315, "lon": 4.79, "elev": -2, "name": "Amsterdam/Schiphol Arpt, NH, NL", "cover": "FEW", "clouds": [{"cover": "FEW", "base": 2200}], "fltCat": "VFR"}, "LTFM": {"icaoId": "LTFM", "receiptTime": "2026-06-05T10:58:02.834Z", "obsTime": 1780656600, "reportTime": "2026-06-05T11:00:00.000Z", "temp": 22, "dewp": 17, "wdir": 20, "wspd": 11, "visib": "6+", "altim": 1014, "qcField": 16, "metarType": "METAR", "rawOb": "METAR LTFM 051050Z 02011KT 9999 FEW035 SCT100 22/17 Q1014 NOSIG RMK RWY17L 02011KT RWY34L 01011KT 340V040 RWY16R 01010KT RWY36 03011KT 350V050 RWY18 03009KT", "lat": 41.262, "lon": 28.74, "elev": 99, "name": "Istanbul Arpt, IS, TR", "cover": "SCT", "clouds": [{"cover": "FEW", "base": 3500}, {"cover": "SCT", "base": 10000}], "fltCat": "VFR"}, "LTAT": {"icaoId": "LTAT", "receiptTime": "2026-06-05T11:00:09.352Z", "obsTime": 1780656600, "reportTime": "2026-06-05T11:00:00.000Z", "temp": 29, "dewp": 8, "wdir": 10, "wspd": 6, "visib": "6+", "altim": 1014, "qcField": 16, "metarType": "METAR", "rawOb": "METAR LTAT 051050Z 01006KT 290V080 9999 FEW040 29/08 Q1014 NOSIG RMK RWY03 VRB03KT", "lat": 38.435, "lon": 38.092, "elev": 850, "name": "Malatya Arpt, MA, TR", "cover": "FEW", "clouds": [{"cover": "FEW", "base": 4000}], "fltCat": "VFR"}, "LTCG": {"icaoId": "LTCG", "receiptTime": "2026-06-05T11:00:09.469Z", "obsTime": 1780656600, "reportTime": "2026-06-05T11:00:00.000Z", "temp": 23, "dewp": 18, "wdir": 80, "wspd": 6, "visib": "6+", "altim": 1014, "qcField": 16, "metarType": "METAR", "rawOb": "METAR LTCG 051050Z 08006KT 030V130 CAVOK 23/18 Q1014 NOSIG RMK RWY29 07005KT", "lat": 40.995, "lon": 39.782, "elev": 28, "name": "Trabzon Arpt, TR, TR", "cover": "CAVOK", "clouds": [], "fltCat": "VFR"}, "EBBR": {"icaoId": "EBBR", "receiptTime": "2026-06-05T10:56:20.369Z", "obsTime": 1780656600, "reportTime": "2026-06-05T11:00:00.000Z", "temp": 14, "dewp": 11, "wdir": 270, "wspd": 13, "visib": 4.35, "altim": 1014, "qcField": 0, "wxString": "-SHRA", "metarType": "METAR", "rawOb": "METAR EBBR 051050Z 27013KT 7000 -SHRA FEW030CB 14/11 Q1014 TEMPO 4500 SHRA BKN014CB", "lat": 50.896, "lon": 4.526, "elev": 49, "name": "Brussels Intl, VL, BE", "cover": "FEW", "clouds": [{"cover": "FEW", "base": 3000}], "fltCat": "MVFR"}, "LSGG": {"icaoId": "LSGG", "receiptTime": "2026-06-05T10:52:13.429Z", "obsTime": 1780656600, "reportTime": "2026-06-05T11:00:00.000Z", "temp": 16, "dewp": 8, "wdir": 100, "wspd": 5, "visib": "6+", "altim": 1017, "qcField": 18, "wxString": "VCSH", "metarType": "METAR", "rawOb": "METAR LSGG 051050Z AUTO 10005KT 070V140 9999 VCSH SCT034 16/08 Q1017 NOSIG", "lat": 46.248, "lon": 6.128, "elev": 411, "name": "Geneva/Cointrin Arpt, GE, CH", "cover": "SCT", "clouds": [{"cover": "SCT", "base": 3400}], "fltCat": "VFR"}, "EKBI": {"icaoId": "EKBI", "receiptTime": "2026-06-05T10:53:15.500Z", "obsTime": 1780656600, "reportTime": "2026-06-05T11:00:00.000Z", "temp": 16, "dewp": 11, "wdir": 230, "wspd": 12, "visib": "6+", "altim": 1007, "qcField": 0, "metarType": "METAR", "rawOb": "METAR EKBI 051050Z 23012KT 200V260 9999 FEW019TCU SCT022 SCT052 16/11 Q1007", "lat": 55.74, "lon": 9.152, "elev": 67, "name": "Billund Arpt, SY, DK", "cover": "SCT", "clouds": [{"cover": "FEW", "base": 1900}, {"cover": "SCT", "base": 2200}, {"cover": "SCT", "base": 5200}], "fltCat": "VFR"}, "EFKU": {"icaoId": "EFKU", "receiptTime": "2026-06-05T10:53:26.785Z", "obsTime": 1780656600, "reportTime": "2026-06-05T11:00:00.000Z", "temp": 25, "dewp": 10, "wdir": 180, "wspd": 14, "visib": "6+", "altim": 1013, "qcField": 2, "metarType": "METAR", "rawOb": "METAR EFKU 051050Z AUTO 18014KT CAVOK 25/10 Q1013", "lat": 63.008, "lon": 27.799, "elev": 92, "name": "Kuopio Arpt, PS, FI", "cover": "CAVOK", "clouds": [], "fltCat": "VFR"}, "EFET": {"icaoId": "EFET", "receiptTime": "2026-06-05T10:53:27.854Z", "obsTime": 1780656600, "reportTime": "2026-06-05T11:00:00.000Z", "temp": 22, "dewp": 8, "wdir": 180, "wspd": 12, "visib": "6+", "altim": 1008, "qcField": 2, "metarType": "METAR", "rawOb": "METAR EFET 051050Z AUTO 18012KT 150V210 CAVOK 22/08 Q1008", "lat": 68.363, "lon": 23.424, "elev": 300, "name": "Enontekio Arpt, LL, FI", "cover": "CAVOK", "clouds": [], "fltCat": "VFR"}, "EFKS": {"icaoId": "EFKS", "receiptTime": "2026-06-05T10:53:28.188Z", "obsTime": 1780656600, "reportTime": "2026-06-05T11:00:00.000Z", "temp": 24, "dewp": 10, "wdir": 190, "wspd": 9, "visib": "6+", "altim": 1013, "qcField": 2, "metarType": "METAR", "rawOb": "METAR EFKS 051050Z AUTO 19009KT CAVOK 24/10 Q1013", "lat": 65.992, "lon": 29.236, "elev": 270, "name": "Kuusamo Arpt, PP, FI", "cover": "CAVOK", "clouds": [], "fltCat": "VFR"}, "EYVI": {"icaoId": "EYVI", "receiptTime": "2026-06-05T10:50:15.206Z", "obsTime": 1780656600, "reportTime": "2026-06-05T11:00:00.000Z", "temp": 19, "dewp": 17, "wdir": 130, "wspd": 8, "visib": "6+", "altim": 1014, "qcField": 16, "metarType": "METAR", "rawOb": "METAR EYVI 051050Z 13008KT 9999 FEW007 BKN084CB 19/17 Q1014 NOSIG", "lat": 54.634, "lon": 25.286, "elev": 180, "name": "Vilnius Intl, VL, LT", "cover": "BKN", "clouds": [{"cover": "FEW", "base": 700}, {"cover": "BKN", "base": 8400}], "fltCat": "VFR"}, "EVRA": {"icaoId": "EVRA", "receiptTime": "2026-06-05T10:50:15.287Z", "obsTime": 1780656600, "reportTime": "2026-06-05T11:00:00.000Z", "temp": 22, "dewp": 16, "wdir": 160, "wspd": 9, "visib": "6+", "altim": 1012, "qcField": 16, "metarType": "METAR", "rawOb": "METAR EVRA 051050Z 16009KT 120V180 9999 SCT023 22/16 Q1012 NOSIG", "lat": 56.924, "lon": 23.968, "elev": 7, "name": "Riga Intl, RG, LV", "cover": "SCT", "clouds": [{"cover": "SCT", "base": 2300}], "fltCat": "VFR"}, "EKVG": {"icaoId": "EKVG", "receiptTime": "2026-06-05T10:56:24.871Z", "obsTime": 1780656600, "reportTime": "2026-06-05T11:00:00.000Z", "temp": 10, "dewp": 8, "wdir": 180, "wspd": 8, "visib": "6+", "altim": 993, "qcField": 2, "wxString": "RA", "metarType": "METAR", "rawOb": "METAR EKVG 051050Z AUTO 18008KT 140V210 9999 OVC010/// 10/08 Q0993 REDZRA RMK FEW008/// SCT009/// BKN023/// BKN046/// WIND SKEID 18005KT 150V210", "lat": 62.065, "lon": -7.282, "elev": 89, "name": "S\u00f8rv\u00e1gur/V\u00e1gar Arpt, VG, FO", "cover": "OVC", "clouds": [{"cover": "OVC", "base": 1000}], "fltCat": "MVFR"}, "LLBG": {"icaoId": "LLBG", "receiptTime": "2026-06-05T10:51:33.910Z", "obsTime": 1780656600, "reportTime": "2026-06-05T11:00:00.000Z", "temp": 31, "dewp": 9, "wdir": 300, "wspd": 10, "visib": "6+", "altim": 1014, "qcField": 16, "metarType": "METAR", "rawOb": "METAR LLBG 051050Z 30010KT 260V350 CAVOK 31/09 Q1014 NOSIG", "lat": 32.011, "lon": 34.887, "elev": 35, "name": "Tel Aviv/Ben Gurion Arpt, C, IL", "cover": "CAVOK", "clouds": [], "fltCat": "VFR"}, "LIPZ": {"icaoId": "LIPZ", "receiptTime": "2026-06-05T10:55:45.041Z", "obsTime": 1780656600, "reportTime": "2026-06-05T11:00:00.000Z", "temp": 22, "dewp": 15, "wdir": 50, "wspd": 10, "visib": "6+", "altim": 1012, "qcField": 16, "metarType": "METAR", "rawOb": "METAR LIPZ 051050Z 05010KT 9999 FEW060 22/15 Q1012 NOSIG", "lat": 45.505, "lon": 12.352, "elev": 3, "name": "Venice/Polo Arpt, VE, IT", "cover": "FEW", "clouds": [{"cover": "FEW", "base": 6000}], "fltCat": "VFR"}, "LIEE": {"icaoId": "LIEE", "receiptTime": "2026-06-05T10:55:45.097Z", "obsTime": 1780656600, "reportTime": "2026-06-05T11:00:00.000Z", "temp": 30, "dewp": 12, "wdir": 320, "wspd": 6, "visib": "6+", "altim": 1013, "qcField": 0, "metarType": "METAR", "rawOb": "METAR LIEE 051050Z 32006KT 260V040 CAVOK 30/12 Q1013", "lat": 39.243, "lon": 9.06, "elev": 1, "name": "Cagliari/Elmas Arpt, CA, IT", "cover": "CAVOK", "clouds": [], "fltCat": "VFR"}, "LIMC": {"icaoId": "LIMC", "receiptTime": "2026-06-05T10:55:45.151Z", "obsTime": 1780656600, "reportTime": "2026-06-05T11:00:00.000Z", "temp": 23, "dewp": 10, "wdir": "VRB", "wspd": 3, "visib": "6+", "altim": 1011, "qcField": 16, "metarType": "METAR", "rawOb": "METAR LIMC 051050Z VRB03KT CAVOK 23/10 Q1011 NOSIG", "lat": 45.631, "lon": 8.728, "elev": 221, "name": "Milan/Malpensa Arpt, MI, IT", "cover": "CAVOK", "clouds": [], "fltCat": "VFR"}, "LIRF": {"icaoId": "LIRF", "receiptTime": "2026-06-05T10:55:45.338Z", "obsTime": 1780656600, "reportTime": "2026-06-05T11:00:00.000Z", "temp": 25, "dewp": 17, "wdir": 210, "wspd": 10, "visib": "6+", "altim": 1013, "qcField": 16, "metarType": "METAR", "rawOb": "METAR LIRF 051050Z 21010KT 9999 FEW025 25/17 Q1013 NOSIG", "lat": 41.8, "lon": 12.239, "elev": 2, "name": "Rome/Fiumicino, RM, IT", "cover": "FEW", "clouds": [{"cover": "FEW", "base": 2500}], "fltCat": "VFR"}, "LIRN": {"icaoId": "LIRN", "receiptTime": "2026-06-05T10:55:45.365Z", "obsTime": 1780656600, "reportTime": "2026-06-05T11:00:00.000Z", "temp": 25, "dewp": 13, "wdir": 180, "wspd": 9, "visib": "6+", "altim": 1014, "qcField": 16, "metarType": "METAR", "rawOb": "METAR LIRN 051050Z 18009KT 150V220 9999 FEW030 25/13 Q1014 NOSIG", "lat": 40.885, "lon": 14.292, "elev": 76, "name": "Naples Intl, NA, IT", "cover": "FEW", "clouds": [{"cover": "FEW", "base": 3000}], "fltCat": "VFR"}, "ENNE": {"icaoId": "ENNE", "receiptTime": "2026-06-05T10:55:46.631Z", "obsTime": 1780656600, "reportTime": "2026-06-05T11:00:00.000Z", "temp": 11, "dewp": 10, "wdir": 160, "wspd": 13, "visib": "6+", "altim": 998, "qcField": 0, "metarType": "METAR", "rawOb": "METAR ENNE 051050Z 16013KT 9999 FEW025 11/10 Q0998 W///S3", "lat": 66.03, "lon": 8.08, "elev": 10, "name": "Norne, , NO", "cover": "FEW", "clouds": [{"cover": "FEW", "base": 2500}], "fltCat": "VFR"}, "ENBO": {"icaoId": "ENBO", "receiptTime": "2026-06-05T10:55:46.049Z", "obsTime": 1780656600, "reportTime": "2026-06-05T11:00:00.000Z", "temp": 18, "dewp": 10, "wdir": 100, "wspd": 8, "visib": "6+", "altim": 1002, "qcField": 16, "metarType": "METAR", "rawOb": "METAR ENBO 051050Z 10008KT 060V140 9999 BKN043 18/10 Q1002 NOSIG", "lat": 67.267, "lon": 14.359, "elev": 13, "name": "Bod\u00f8 Arpt, NO, NO", "cover": "BKN", "clouds": [{"cover": "BKN", "base": 4300}], "fltCat": "VFR"}, "ENBR": {"icaoId": "ENBR", "receiptTime": "2026-06-05T10:56:25.131Z", "obsTime": 1780656600, "reportTime": "2026-06-05T11:00:00.000Z", "temp": 11, "dewp": 11, "wdir": 200, "wspd": 10, "visib": 3.11, "altim": 999, "qcField": 0, "wxString": "SHRA", "metarType": "METAR", "rawOb": "METAR ENBR 051050Z 20010KT 5000 SHRA SCT002CB BKN004 11/11 Q0999 TEMPO 3000 SHRA BKN015 BKN020CB RMK WIND 1200FT 22013KT", "lat": 60.29, "lon": 5.222, "elev": 49, "name": "Bergen/Flesland Arpt, HO, NO", "cover": "BKN", "clouds": [{"cover": "SCT", "base": 200}, {"cover": "BKN", "base": 400}], "fltCat": "LIFR"}, "ENGM": {"icaoId": "ENGM", "receiptTime": "2026-06-05T10:55:46.228Z", "obsTime": 1780656600, "reportTime": "2026-06-05T11:00:00.000Z", "temp": 14, "dewp": 12, "wdir": 200, "wspd": 11, "visib": "6+", "altim": 1001, "qcField": 17, "wxString": "-SHRA", "metarType": "METAR", "rawOb": "METAR ENGM 051050Z COR 20011KT 9999 -SHRA FEW011 FEW020CB SCT024 BKN049 14/12 Q1001 NOSIG", "lat": 60.201, "lon": 11.08, "elev": 204, "name": "Oslo/Gardermoen Arpt, AK, NO", "cover": "BKN", "clouds": [{"cover": "FEW", "base": 1100}, {"cover": "FEW", "base": 2000}, {"cover": "SCT", "base": 2400}, {"cover": "BKN", "base": 4900}], "fltCat": "VFR"}, "ENKR": {"icaoId": "ENKR", "receiptTime": "2026-06-05T10:56:25.179Z", "obsTime": 1780656600, "reportTime": "2026-06-05T11:00:00.000Z", "temp": 24, "dewp": 12, "wdir": 70, "wspd": 7, "visib": "6+", "altim": 1009, "qcField": 0, "metarType": "METAR", "rawOb": "METAR ENKR 051050Z 07007KT 040V100 CAVOK 24/12 Q1009 RMK WIND 731FT VRB03KT", "lat": 69.725, "lon": 29.898, "elev": 86, "name": "Kirkenes/H\u00f8ybuktmoen Arpt, FI, NO", "cover": "CAVOK", "clouds": [], "fltCat": "VFR"}, "ENVA": {"icaoId": "ENVA", "receiptTime": "2026-06-05T10:56:25.242Z", "obsTime": 1780656600, "reportTime": "2026-06-05T11:00:00.000Z", "temp": 19, "dewp": 10, "wdir": 150, "wspd": 5, "visib": "6+", "altim": 996, "qcField": 16, "metarType": "METAR", "rawOb": "METAR ENVA 051050Z 15005KT 100V180 9999 SCT052 19/10 Q0996 NOSIG RMK WIND 670FT 17012KT", "lat": 63.46, "lon": 10.931, "elev": 12, "name": "Trondheim Arpt, TR, NO", "cover": "SCT", "clouds": [{"cover": "SCT", "base": 5200}], "fltCat": "VFR"}, "EKCH": {"icaoId": "EKCH", "receiptTime": "2026-06-05T10:56:24.778Z", "obsTime": 1780656600, "reportTime": "2026-06-05T11:00:00.000Z", "temp": 19, "dewp": 13, "wdir": 190, "wspd": 8, "visib": "6+", "altim": 1008, "qcField": 0, "metarType": "METAR", "rawOb": "METAR EKCH 051050Z 19008KT 160V220 9999 FEW029 BKN087 19/13 Q1008 TEMPO FEW030CB", "lat": 55.618, "lon": 12.656, "elev": 4, "name": "Kobenhavn Intl, HO, DK", "cover": "BKN", "clouds": [{"cover": "FEW", "base": 2900}, {"cover": "BKN", "base": 8700}], "fltCat": "VFR"}, "EDDF": {"icaoId": "EDDF", "receiptTime": "2026-06-05T10:56:25.721Z", "obsTime": 1780656600, "reportTime": "2026-06-05T11:00:00.000Z", "temp": 17, "dewp": 10, "wdir": 280, "wspd": 7, "visib": "6+", "altim": 1015, "qcField": 2, "wxString": "-SHRA", "metarType": "METAR", "rawOb": "METAR EDDF 051050Z AUTO 28007KT 220V330 9999 -SHRA FEW030 FEW///TCU 17/10 Q1015 RESHRA TEMPO SHRA", "lat": 50.045, "lon": 8.598, "elev": 113, "name": "Frankfurt/Main Arpt, HE, DE", "cover": "FEW", "clouds": [{"cover": "FEW", "base": 3000}], "fltCat": "VFR"}, "EDDH": {"icaoId": "EDDH", "receiptTime": "2026-06-05T10:56:25.748Z", "obsTime": 1780656600, "reportTime": "2026-06-05T11:00:00.000Z", "temp": 20, "dewp": 13, "wdir": 230, "wspd": 11, "visib": "6+", "altim": 1009, "qcField": 2, "wxString": "VCSH", "metarType": "METAR", "rawOb": "METAR EDDH 051050Z AUTO 23011KT 200V260 9999 VCSH SCT029 FEW///TCU 20/13 Q1009 TEMPO SHRA", "lat": 53.633, "lon": 9.988, "elev": 8, "name": "Hamburg Arpt, HH, DE", "cover": "SCT", "clouds": [{"cover": "SCT", "base": 2900}], "fltCat": "VFR"}, "EDDM": {"icaoId": "EDDM", "receiptTime": "2026-06-05T10:56:25.824Z", "obsTime": 1780656600, "reportTime": "2026-06-05T11:00:00.000Z", "temp": 16, "dewp": 9, "wdir": 270, "wspd": 9, "visib": "6+", "altim": 1016, "qcField": 2, "metarType": "METAR", "rawOb": "METAR EDDM 051050Z AUTO 27009KT 230V320 9999 FEW029 16/09 Q1016 TEMPO SHRA BKN040TCU", "lat": 48.348, "lon": 11.813, "elev": 445, "name": "Munich Intl, BY, DE", "cover": "FEW", "clouds": [{"cover": "FEW", "base": 2900}], "fltCat": "VFR"}, "ENHE": {"icaoId": "ENHE", "receiptTime": "2026-06-05T11:26:04.617Z", "obsTime": 1780658400, "reportTime": "2026-06-05T11:20:00.000Z", "temp": 12, "dewp": 10, "wdir": 80, "wspd": 11, "visib": "6+", "altim": 997, "qcField": 0, "metarType": "METAR", "rawOb": "METAR ENHE 051120Z 08011KT CAVOK 12/10 Q0997 W08/S3", "lat": 65.325, "lon": 2.327, "elev": 10, "name": "Heidrun, , NO", "cover": "CAVOK", "clouds": [], "fltCat": "VFR"}, "ENTC": {"icaoId": "ENTC", "receiptTime": "2026-06-05T10:56:25.219Z", "obsTime": 1780656600, "reportTime": "2026-06-05T11:00:00.000Z", "temp": 21, "dewp": 9, "wdir": 180, "wspd": 17, "visib": "6+", "altim": 1004, "qcField": 16, "metarType": "METAR", "rawOb": "METAR ENTC 051050Z 18017KT CAVOK 21/09 Q1004 NOSIG RMK WIND 2600FT 17046KT", "lat": 69.675, "lon": 18.916, "elev": 9, "name": "Troms\u00f8 Arpt, TR, NO", "cover": "CAVOK", "clouds": [], "fltCat": "VFR"}, "EDDB": {"icaoId": "EDDB", "receiptTime": "2026-06-05T10:53:35.630Z", "obsTime": 1780656600, "reportTime": "2026-06-05T11:00:00.000Z", "temp": 19, "dewp": 10, "wdir": 260, "wspd": 9, "visib": "6+", "altim": 1012, "qcField": 18, "metarType": "METAR", "rawOb": "METAR EDDB 051050Z AUTO 26009KT 230V290 9999 SCT040 SCT046 19/10 Q1012 NOSIG", "lat": 52.3807, "lon": 13.5306, "elev": 48, "name": "Berlin/Brandenburg Intl, BR, DE", "cover": "SCT", "clouds": [{"cover": "SCT", "base": 4000}, {"cover": "SCT", "base": 4600}], "fltCat": "VFR"}, "EDDE": {"icaoId": "EDDE", "receiptTime": "2026-06-05T10:53:35.796Z", "obsTime": 1780656600, "reportTime": "2026-06-05T11:00:00.000Z", "temp": 16, "dewp": 9, "wdir": 280, "wspd": 13, "visib": "6+", "altim": 1014, "qcField": 18, "metarType": "METAR", "rawOb": "METAR EDDE 051050Z AUTO 28013KT 9999 FEW038 SCT048 16/09 Q1014 NOSIG", "lat": 50.983, "lon": 10.961, "elev": 314, "name": "Erfurt Arpt, TH, DE", "cover": "SCT", "clouds": [{"cover": "FEW", "base": 3800}, {"cover": "SCT", "base": 4800}], "fltCat": "VFR"}, "LXGB": {"icaoId": "LXGB", "receiptTime": "2026-06-05T11:04:04.669Z", "obsTime": 1780656600, "reportTime": "2026-06-05T11:00:00.000Z", "temp": 24, "dewp": 13, "wdir": 230, "wspd": 11, "visib": "6+", "altim": 1014, "qcField": 0, "minT": -1.2, "metarType": "METAR", "rawOb": "METAR LXGB 051050Z 23011KT CAVOK 24/13 Q1014 TEMPO 21012KT", "lat": 36.151, "lon": -5.35, "elev": 5, "name": "Gibraltar Arpt, , GI", "cover": "CAVOK", "clouds": [], "fltCat": "VFR"}, "EDDG": {"icaoId": "EDDG", "receiptTime": "2026-06-05T10:54:04.759Z", "obsTime": 1780656600, "reportTime": "2026-06-05T11:00:00.000Z", "temp": 17, "dewp": 12, "wdir": 230, "wspd": 10, "visib": "6+", "altim": 1011, "qcField": 2, "wxString": "SHRA", "metarType": "METAR", "rawOb": "METAR EDDG 051050Z AUTO 23010KT 200V260 9999 SHRA FEW022 SCT032 FEW///TCU 17/12 Q1011 TEMPO NSW", "lat": 52.135, "lon": 7.697, "elev": 46, "name": "M\u00fcnster/Osnabr\u00fcck Arpt, NT, DE", "cover": "SCT", "clouds": [{"cover": "FEW", "base": 2200}, {"cover": "SCT", "base": 3200}], "fltCat": "VFR"}, "EFHK": {"icaoId": "EFHK", "receiptTime": "2026-06-05T10:51:12.881Z", "obsTime": 1780656600, "reportTime": "2026-06-05T11:00:00.000Z", "temp": 18, "dewp": 13, "wdir": 120, "wspd": 7, "visib": "6+", "altim": 1013, "qcField": 16, "metarType": "METAR", "rawOb": "METAR EFHK 051050Z 12007KT 9999 BKN039 18/13 Q1013 NOSIG", "lat": 60.327, "lon": 24.957, "elev": 56, "name": "Helsinki/Vantaa Arpt, UU, FI", "cover": "BKN", "clouds": [{"cover": "BKN", "base": 3900}], "fltCat": "VFR"}, "EFVA": {"icaoId": "EFVA", "receiptTime": "2026-06-05T10:51:12.951Z", "obsTime": 1780656600, "reportTime": "2026-06-05T11:00:00.000Z", "temp": 20, "dewp": 13, "wdir": 170, "wspd": 13, "visib": "6+", "altim": 1008, "qcField": 2, "metarType": "METAR", "rawOb": "METAR EFVA 051050Z AUTO 17013KT 150V210 9999 BKN028 20/13 Q1008", "lat": 63.051, "lon": 21.762, "elev": 4, "name": "Vaasa Arpt, PO, FI", "cover": "BKN", "clouds": [{"cover": "BKN", "base": 2800}], "fltCat": "MVFR"}, "ESNN": {"icaoId": "ESNN", "receiptTime": "2026-06-05T10:54:23.557Z", "obsTime": 1780656600, "reportTime": "2026-06-05T11:00:00.000Z", "temp": 12, "dewp": 12, "wdir": 120, "wspd": 10, "visib": 2.36, "altim": 1004, "qcField": 0, "wxString": "BR", "metarType": "METAR", "rawOb": "METAR ESNN 051050Z 12010KT 3800 BR OVC002 12/12 Q1004", "lat": 62.532, "lon": 17.436, "elev": 4, "name": "Sundsvall-Timra Arpt, Y, SE", "cover": "OVC", "clouds": [{"cover": "OVC", "base": 200}], "fltCat": "LIFR"}, "ESGG": {"icaoId": "ESGG", "receiptTime": "2026-06-05T10:54:19.178Z", "obsTime": 1780656600, "reportTime": "2026-06-05T11:00:00.000Z", "temp": 15, "dewp": 12, "wdir": 210, "wspd": 13, "visib": "6+", "altim": 1005, "qcField": 0, "metarType": "METAR", "rawOb": "METAR ESGG 051050Z 21013KT 9999 BKN016 BKN024 15/12 Q1005", "lat": 57.667, "lon": 12.285, "elev": 152, "name": "G\u00f6teborg/Landvetter Arpt, O, SE", "cover": "BKN", "clouds": [{"cover": "BKN", "base": 1600}, {"cover": "BKN", "base": 2400}], "fltCat": "MVFR"}, "ESPA": {"icaoId": "ESPA", "receiptTime": "2026-06-05T10:54:24.159Z", "obsTime": 1780656600, "reportTime": "2026-06-05T11:00:00.000Z", "temp": 17, "dewp": 12, "wdir": 120, "wspd": 5, "visib": "6+", "altim": 1009, "qcField": 0, "wxString": "-RA", "metarType": "METAR", "rawOb": "METAR ESPA 051050Z 12005KT 9999 -RA NSC 17/12 Q1009", "lat": 65.541, "lon": 22.126, "elev": 12, "name": "Lule\u00e5 Arpt, BD, SE", "cover": "CLR", "clouds": [], "fltCat": "VFR"}, "EGCC": {"icaoId": "EGCC", "receiptTime": "2026-06-05T10:54:20.269Z", "obsTime": 1780656600, "reportTime": "2026-06-05T11:00:00.000Z", "temp": 14, "dewp": 6, "wdir": 220, "wspd": 9, "visib": "6+", "altim": 1009, "qcField": 0, "metarType": "METAR", "rawOb": "METAR EGCC 051050Z 22009KT 9999 BKN036 14/06 Q1009", "lat": 53.354, "lon": -2.275, "elev": 78, "name": "Manchester Intl, EN, GB", "cover": "BKN", "clouds": [{"cover": "BKN", "base": 3600}], "fltCat": "VFR"}, "EGLL": {"icaoId": "EGLL", "receiptTime": "2026-06-05T10:54:20.399Z", "obsTime": 1780656600, "reportTime": "2026-06-05T11:00:00.000Z", "temp": 17, "dewp": 5, "wdir": 270, "wspd": 12, "visib": "6+", "altim": 1012, "qcField": 2, "metarType": "METAR", "rawOb": "METAR EGLL 051050Z AUTO 27012KT 230V300 9999 FEW047 17/05 Q1012", "lat": 51.477, "lon": -0.461, "elev": 26, "name": "London/Heathrow Intl, EN, GB", "cover": "FEW", "clouds": [{"cover": "FEW", "base": 4700}], "fltCat": "VFR"}, "EGPF": {"icaoId": "EGPF", "receiptTime": "2026-06-05T10:54:20.473Z", "obsTime": 1780656600, "reportTime": "2026-06-05T11:00:00.000Z", "temp": 14, "dewp": 8, "wdir": 220, "wspd": 14, "visib": "6+", "altim": 1005, "qcField": 2, "metarType": "METAR", "rawOb": "METAR EGPF 051050Z AUTO 22014KT 190V250 9999 SCT027 14/08 Q1005", "lat": 55.867, "lon": -4.433, "elev": 8, "name": "Glasgow Arpt, SC, GB", "cover": "SCT", "clouds": [{"cover": "SCT", "base": 2700}], "fltCat": "VFR"}, "ESSA": {"icaoId": "ESSA", "receiptTime": "2026-06-05T10:54:22.961Z", "obsTime": 1780656600, "reportTime": "2026-06-05T11:00:00.000Z", "temp": 17, "dewp": 12, "wdir": 190, "wspd": 10, "visib": "6+", "altim": 1006, "qcField": 16, "metarType": "METAR", "rawOb": "METAR ESSA 051050Z 19010KT 9999 BKN019 17/12 Q1006 NOSIG", "lat": 59.664, "lon": 17.92, "elev": 36, "name": "Stockholm/Arlanda Arpt, AB, SE", "cover": "BKN", "clouds": [{"cover": "BKN", "base": 1900}], "fltCat": "MVFR"}, "ESSV": {"icaoId": "ESSV", "receiptTime": "2026-06-05T10:54:23.233Z", "obsTime": 1780656600, "reportTime": "2026-06-05T11:00:00.000Z", "temp": 17, "dewp": 12, "wdir": 200, "wspd": 12, "visib": "6+", "altim": 1009, "qcField": 0, "metarType": "METAR", "rawOb": "METAR ESSV 051050Z 20012KT CAVOK 17/12 Q1009", "lat": 57.662, "lon": 18.348, "elev": 38, "name": "Visby Arpt, I, SE", "cover": "CAVOK", "clouds": [], "fltCat": "VFR"}, "EGPO": {"icaoId": "EGPO", "receiptTime": "2026-06-05T10:54:20.940Z", "obsTime": 1780656600, "reportTime": "2026-06-05T11:00:00.000Z", "temp": 14, "dewp": 7, "wdir": 250, "wspd": 14, "visib": "6+", "altim": 1000, "qcField": 0, "wxString": "VCSH", "metarType": "METAR", "rawOb": "METAR EGPO 051050Z 25014KT 220V280 9999 VCSH FEW021CB SCT035 14/07 Q1000", "lat": 58.215, "lon": -6.329, "elev": 10, "name": "Stornoway Arpt, SC, GB", "cover": "SCT", "clouds": [{"cover": "FEW", "base": 2100}, {"cover": "SCT", "base": 3500}], "fltCat": "VFR"}, "EGHC": {"icaoId": "EGHC", "receiptTime": "2026-06-05T10:54:18.346Z", "obsTime": 1780656600, "reportTime": "2026-06-05T11:00:00.000Z", "temp": 14, "dewp": 8, "wdir": 210, "wspd": 13, "visib": "6+", "altim": 1012, "qcField": 0, "metarType": "METAR", "rawOb": "METAR EGHC 051050Z 21013KT 180V240 9999 FEW014 SCT040 14/08 Q1012", "lat": 50.103, "lon": -5.671, "elev": 117, "name": "Penzance/Lands End Arpt, EN, GB", "cover": "SCT", "clouds": [{"cover": "FEW", "base": 1400}, {"cover": "SCT", "base": 4000}], "fltCat": "VFR"}, "LGAV": {"icaoId": "LGAV", "receiptTime": "2026-06-05T10:54:28.643Z", "obsTime": 1780656600, "reportTime": "2026-06-05T11:00:00.000Z", "temp": 26, "dewp": 14, "wdir": 80, "wspd": 6, "visib": "6+", "altim": 1014, "qcField": 16, "metarType": "METAR", "rawOb": "METAR LGAV 051050Z 08006KT 9999 FEW030 SCT040 26/14 Q1014 NOSIG", "lat": 37.936, "lon": 23.945, "elev": 83, "name": "Athens/Venizelos Intl, I, GR", "cover": "SCT", "clouds": [{"cover": "FEW", "base": 3000}, {"cover": "SCT", "base": 4000}], "fltCat": "VFR"}, "LGIR": {"icaoId": "LGIR", "receiptTime": "2026-06-05T10:54:28.714Z", "obsTime": 1780656600, "reportTime": "2026-06-05T11:00:00.000Z", "temp": 26, "dewp": 17, "wdir": 360, "wspd": 6, "visib": "6+", "altim": 1014, "qcField": 16, "metarType": "METAR", "rawOb": "METAR LGIR 051050Z 36006KT 9999 FEW020 26/17 Q1014 NOSIG", "lat": 35.337, "lon": 25.173, "elev": 37, "name": "Iraklion Intl, M, GR", "cover": "FEW", "clouds": [{"cover": "FEW", "base": 2000}], "fltCat": "VFR"}, "LGKR": {"icaoId": "LGKR", "receiptTime": "2026-06-05T10:54:28.785Z", "obsTime": 1780656600, "reportTime": "2026-06-05T11:00:00.000Z", "temp": 27, "dewp": 16, "wdir": 140, "wspd": 7, "visib": "6+", "altim": 1013, "qcField": 16, "metarType": "METAR", "rawOb": "METAR LGKR 051050Z 14007KT 9999 FEW025 27/16 Q1013 NOSIG", "lat": 39.61, "lon": 19.913, "elev": 2, "name": "Corfu/Kapodistinas Arpt, L, GR", "cover": "FEW", "clouds": [{"cover": "FEW", "base": 2500}], "fltCat": "VFR"}, "LGRP": {"icaoId": "LGRP", "receiptTime": "2026-06-05T10:54:28.847Z", "obsTime": 1780656600, "reportTime": "2026-06-05T11:00:00.000Z", "temp": 26, "dewp": 20, "wdir": "VRB", "wspd": 3, "visib": "6+", "altim": 1012, "qcField": 16, "metarType": "METAR", "rawOb": "METAR LGRP 051050Z VRB03KT 9999 FEW016TCU SCT020 26/20 Q1012 NOSIG", "lat": 36.405, "lon": 28.086, "elev": 3, "name": "Rhodes/Diagoras Arpt, K, GR", "cover": "SCT", "clouds": [{"cover": "FEW", "base": 1600}, {"cover": "SCT", "base": 2000}], "fltCat": "VFR"}, "LTAC": {"icaoId": "LTAC", "receiptTime": "2026-06-05T11:06:09.501Z", "obsTime": 1780656600, "reportTime": "2026-06-05T11:00:00.000Z", "temp": 26, "dewp": 12, "wdir": 260, "wspd": 3, "visib": "6+", "altim": 1015, "qcField": 16, "metarType": "METAR", "rawOb": "METAR LTAC 051050Z 26003KT 200V330 9999 SCT035TCU SCT100 26/12 Q1015 NOSIG RMK RWY21C VRB02KT RWY03L 29004KT 230V010 RWY21R 04003KT 290V080 RWY03R 28003KT 190V360 RWY21L 32004KT 260V350", "lat": 40.128, "lon": 32.995, "elev": 952, "name": "Ankara/Esenbo\u011fa Intl, AN, TR", "cover": "SCT", "clouds": [{"cover": "SCT", "base": 3500}, {"cover": "SCT", "base": 10000}], "fltCat": "VFR"}, "LTAI": {"icaoId": "LTAI", "receiptTime": "2026-06-05T11:00:12.207Z", "obsTime": 1780656600, "reportTime": "2026-06-05T11:00:00.000Z", "temp": 26, "dewp": 18, "wdir": 140, "wspd": 8, "visib": "6+", "altim": 1014, "qcField": 16, "metarType": "METAR", "rawOb": "METAR LTAI 051050Z 14008KT 110V170 9999 SCT030 26/18 Q1014 NOSIG RMK RWY18C 15009KT 090V210 RWY36R 13009KT 100V160 RWY18L 17008KT 140V220", "lat": 36.9, "lon": 30.798, "elev": 50, "name": "Antalya Arpt, AN, TR", "cover": "SCT", "clouds": [{"cover": "SCT", "base": 3000}], "fltCat": "VFR"}, "LTBJ": {"icaoId": "LTBJ", "receiptTime": "2026-06-05T11:00:12.276Z", "obsTime": 1780656600, "reportTime": "2026-06-05T11:00:00.000Z", "temp": 28, "dewp": 13, "wdir": 340, "wspd": 15, "visib": "6+", "altim": 1012, "qcField": 16, "metarType": "METAR", "rawOb": "METAR LTBJ 051050Z 34015KT 9999 FEW030 SCT100 BKN180 28/13 Q1012 NOSIG RMK RWY16 35013KT", "lat": 38.285, "lon": 27.155, "elev": 123, "name": "Izmir/Menderes Arpt, IZ, TR", "cover": "BKN", "clouds": [{"cover": "FEW", "base": 3000}, {"cover": "SCT", "base": 10000}, {"cover": "BKN", "base": 18000}], "fltCat": "VFR"}, "LTDB": {"icaoId": "LTDB", "receiptTime": "2026-06-05T10:55:21.339Z", "obsTime": 1780656600, "reportTime": "2026-06-05T11:00:00.000Z", "temp": 27, "dewp": 19, "wdir": 220, "wspd": 10, "visib": "6+", "altim": 1013, "qcField": 16, "metarType": "METAR", "rawOb": "METAR LTDB 051050Z 22010KT 9999 FEW030 27/19 Q1013 NOSIG", "lat": 36.8939, "lon": 35.07, "elev": 6, "name": "Tarsus/\u00c7ukurova Intl, ME, TR", "cover": "FEW", "clouds": [{"cover": "FEW", "base": 3000}], "fltCat": "VFR"}, "LIBR": {"icaoId": "LIBR", "receiptTime": "2026-06-05T10:55:44.721Z", "obsTime": 1780656600, "reportTime": "2026-06-05T11:00:00.000Z", "temp": 24, "dewp": 17, "wdir": 120, "wspd": 9, "visib": "6+", "altim": 1013, "qcField": 0, "metarType": "METAR", "rawOb": "METAR LIBR 051050Z 12009KT 100V160 CAVOK 24/17 Q1013", "lat": 40.658, "lon": 17.951, "elev": 5, "name": "Brindisi/Casale Arpt, PU, IT", "cover": "CAVOK", "clouds": [], "fltCat": "VFR"}, "LICA": {"icaoId": "LICA", "receiptTime": "2026-06-05T10:55:45.756Z", "obsTime": 1780656600, "reportTime": "2026-06-05T11:00:00.000Z", "temp": 28, "dewp": 12, "wdir": 280, "wspd": 12, "visib": "6+", "altim": 1013, "qcField": 2, "metarType": "METAR", "rawOb": "METAR LICA 051050Z AUTO 28012KT 9999 NCD 28/12 Q1013", "lat": 38.908, "lon": 16.242, "elev": 7, "name": "Lamezia Terme Arpt, CA, IT", "cover": "CLR", "clouds": [], "fltCat": "VFR"}, "LICJ": {"icaoId": "LICJ", "receiptTime": "2026-06-05T10:55:44.789Z", "obsTime": 1780656600, "reportTime": "2026-06-05T11:00:00.000Z", "temp": 25, "dewp": 20, "wdir": 40, "wspd": 14, "visib": "6+", "altim": 1013, "qcField": 0, "metarType": "METAR", "rawOb": "METAR LICJ 051050Z 04014KT CAVOK 25/20 Q1013", "lat": 38.176, "lon": 13.091, "elev": 20, "name": "Palermo Arpt, PA, IT", "cover": "CAVOK", "clouds": [], "fltCat": "VFR"}, "LOWW": {"icaoId": "LOWW", "receiptTime": "2026-06-05T10:55:15.024Z", "obsTime": 1780656600, "reportTime": "2026-06-05T11:00:00.000Z", "temp": 15, "dewp": 12, "wdir": 320, "wspd": 10, "visib": "6+", "altim": 1016, "qcField": 16, "wxString": "-DZ", "metarType": "METAR", "rawOb": "METAR LOWW 051050Z 32010KT 9999 -DZ FEW017 SCT022 15/12 Q1016 NOSIG", "lat": 48.117, "lon": 16.582, "elev": 179, "name": "Vienna Intl, NE, AT", "cover": "SCT", "clouds": [{"cover": "FEW", "base": 1700}, {"cover": "SCT", "base": 2200}], "fltCat": "VFR"}, "ESND": {"icaoId": "ESND", "receiptTime": "2026-06-05T10:55:17.027Z", "obsTime": 1780656600, "reportTime": "2026-06-05T11:00:00.000Z", "temp": 13, "dewp": 12, "wdir": 200, "wspd": 6, "visib": "6+", "altim": 1001, "qcField": 2, "wxString": "-RA", "metarType": "METAR", "rawOb": "METAR ESND 051050Z AUTO 20006KT 140V230 9999 -RA SCT026/// BKN037/// OVC057/// 13/12 Q1001", "lat": 62.047, "lon": 14.416, "elev": 352, "name": "Sveg Arpt, Z, SE", "cover": "OVC", "clouds": [{"cover": "SCT", "base": 2600}, {"cover": "BKN", "base": 3700}, {"cover": "OVC", "base": 5700}], "fltCat": "VFR"}, "LGTS": {"icaoId": "LGTS", "receiptTime": "2026-06-05T10:55:21.662Z", "obsTime": 1780656600, "reportTime": "2026-06-05T11:00:00.000Z", "temp": 27, "dewp": 18, "wdir": 290, "wspd": 9, "visib": "6+", "altim": 1013, "qcField": 16, "metarType": "METAR", "rawOb": "METAR LGTS 051050Z 29009KT 9999 SCT030 27/18 Q1013 NOSIG", "lat": 40.52, "lon": 22.971, "elev": 4, "name": "Thessaloniki Intl, A, GR", "cover": "SCT", "clouds": [{"cover": "SCT", "base": 3000}], "fltCat": "VFR"}, "LHPP": {"icaoId": "LHPP", "receiptTime": "2026-06-05T11:02:38.852Z", "obsTime": 1780656300, "reportTime": "2026-06-05T11:00:00.000Z", "temp": 24, "dewp": 12, "wdir": "VRB", "wspd": 4, "visib": "6+", "altim": 1013, "qcField": 2, "metarType": "METAR", "rawOb": "METAR LHPP 051045Z AUTO VRB04KT CAVOK 24/12 Q1013", "lat": 45.991, "lon": 18.241, "elev": 193, "name": "P\u00e9cs/Pog\u00e1ny Intl, BA, HU", "cover": "CAVOK", "clouds": [], "fltCat": "VFR"}, "LMML": {"icaoId": "LMML", "receiptTime": "2026-06-05T10:45:33.945Z", "obsTime": 1780656300, "reportTime": "2026-06-05T11:00:00.000Z", "temp": 27, "dewp": 20, "wdir": 70, "wspd": 12, "visib": "6+", "altim": 1012, "qcField": 16, "metarType": "METAR", "rawOb": "METAR LMML 051045Z 07012KT 9999 FEW012 27/20 Q1012 NOSIG", "lat": 35.858, "lon": 14.477, "elev": 78, "name": "Malta Intl, LU, MT", "cover": "FEW", "clouds": [{"cover": "FEW", "base": 1200}], "fltCat": "VFR"}, "OIMB": {"icaoId": "OIMB", "receiptTime": "2026-06-05T10:33:09.020Z", "obsTime": 1780655400, "reportTime": "2026-06-05T10:30:00.000Z", "temp": 34, "dewp": 0, "wdir": 10, "wspd": 7, "visib": "6+", "altim": 1014, "qcField": 0, "metarType": "METAR", "rawOb": "METAR OIMB 051030Z 01007KT 260V070 CAVOK 34/00 Q1014 A2995", "lat": 32.894, "lon": 59.29, "elev": 1512, "name": "Birjand Intl, KR, IR", "cover": "CAVOK", "clouds": [], "fltCat": "VFR"}, "ORBI": {"icaoId": "ORBI", "receiptTime": "2026-06-05T10:58:36.497Z", "obsTime": 1780657200, "reportTime": "2026-06-05T11:00:00.000Z", "temp": 40, "dewp": 6, "wdir": 310, "wspd": 9, "visib": "6+", "altim": 1008, "qcField": 0, "metarType": "METAR", "rawOb": "METAR ORBI 051100Z 31009KT 270V340 CAVOK 40/06 Q1008", "lat": 33.263, "lon": 44.235, "elev": 37, "name": "Baghdad Intl, BG, IQ", "cover": "CAVOK", "clouds": [], "fltCat": "VFR"}, "OICS": {"icaoId": "OICS", "receiptTime": "2026-06-05T11:03:24.113Z", "obsTime": 1780657200, "reportTime": "2026-06-05T11:00:00.000Z", "temp": 31, "dewp": -2, "wdir": 170, "wspd": 6, "visib": "6+", "altim": 1016, "qcField": 0, "metarType": "METAR", "rawOb": "METAR OICS 051100Z 17006KT 9999 SCT045 31/M02 Q1016 A3001", "lat": 35.245, "lon": 47.009, "elev": 1369, "name": "Sanandaj Arpt, KR, IR", "cover": "SCT", "clouds": [{"cover": "SCT", "base": 4500}], "fltCat": "VFR"}, "BIEG": {"icaoId": "BIEG", "receiptTime": "2026-06-05T11:03:11.575Z", "obsTime": 1780657200, "reportTime": "2026-06-05T11:00:00.000Z", "temp": 8, "dewp": 5, "wdir": "VRB", "wspd": 2, "visib": "6+", "altim": 989, "qcField": 0, "metarType": "METAR", "rawOb": "METAR BIEG 051100Z VRB02KT 9999 SCT011 OVC034 08/05 Q0989", "lat": 65.275, "lon": -14.409, "elev": 20, "name": "Egilssta\u00f0ir Arpt, E, IS", "cover": "OVC", "clouds": [{"cover": "SCT", "base": 1100}, {"cover": "OVC", "base": 3400}], "fltCat": "VFR"}, "OIII": {"icaoId": "OIII", "receiptTime": "2026-06-05T11:03:23.354Z", "obsTime": 1780657200, "reportTime": "2026-06-05T11:00:00.000Z", "temp": 24, "dewp": 8, "wdir": 270, "wspd": 24, "visib": 3.11, "altim": 1016, "qcField": 16, "wxString": "-SHRA SA", "metarType": "METAR", "rawOb": "METAR OIII 051100Z 27024KT 5000 -SHRA SA SCT030CB SCT035 24/08 Q1016 A3001 NOSIG", "lat": 35.686, "lon": 51.304, "elev": 1182, "name": "Tehran/Mehrabad Intl, TH, IR", "cover": "SCT", "clouds": [{"cover": "SCT", "base": 3000}, {"cover": "SCT", "base": 3500}], "fltCat": "MVFR"}, "OIKK": {"icaoId": "OIKK", "receiptTime": "2026-06-05T11:03:23.376Z", "obsTime": 1780657200, "reportTime": "2026-06-05T11:00:00.000Z", "temp": 36, "dewp": -3, "wdir": 240, "wspd": 8, "visib": "6+", "altim": 1014, "qcField": 0, "metarType": "METAR", "rawOb": "METAR OIKK 051100Z 24008KT 9999 FEW045 36/M03 Q1014 A2996", "lat": 30.251, "lon": 56.964, "elev": 1749, "name": "Kerman Arpt, KR, IR", "cover": "FEW", "clouds": [{"cover": "FEW", "base": 4500}], "fltCat": "VFR"}, "OETB": {"icaoId": "OETB", "receiptTime": "2026-06-05T11:00:33.694Z", "obsTime": 1780657200, "reportTime": "2026-06-05T11:00:00.000Z", "temp": 34, "dewp": 2, "wdir": 270, "wspd": 5, "visib": "6+", "altim": 1013, "qcField": 16, "metarType": "METAR", "rawOb": "METAR OETB 051100Z 27005KT CAVOK 34/02 Q1013 NOSIG", "lat": 28.366, "lon": 36.619, "elev": 770, "name": "Tabuk Arpt, TB, SA", "cover": "CAVOK", "clouds": [], "fltCat": "VFR"}, "DAUA": {"icaoId": "DAUA", "receiptTime": "2026-06-05T11:08:05.857Z", "obsTime": 1780657200, "reportTime": "2026-06-05T11:00:00.000Z", "wdir": 320, "wspd": 10, "visib": "6+", "altim": 1010, "qcField": 0, "metarType": "METAR", "rawOb": "METAR DAUA 051100Z 32010KT CAVOK 43/// Q1010", "lat": 27.839, "lon": -0.186, "elev": 278, "name": "Adrar/Belkebir Arpt, AD, DZ", "cover": "CAVOK", "clouds": [], "fltCat": "VFR"}, "DAUZ": {"icaoId": "DAUZ", "receiptTime": "2026-06-05T11:08:05.883Z", "obsTime": 1780657200, "reportTime": "2026-06-05T11:00:00.000Z", "wdir": 170, "wspd": 10, "visib": "6+", "altim": 1014, "qcField": 0, "metarType": "METAR", "rawOb": "METAR DAUZ 051100Z 17010KT CAVOK 40/// Q1014", "lat": 28.052, "lon": 9.643, "elev": 567, "name": "In Am\u00e9nas Arpt, IL, DZ", "cover": "CAVOK", "clouds": [], "fltCat": "VFR"}, "OESK": {"icaoId": "OESK", "receiptTime": "2026-06-05T11:00:33.668Z", "obsTime": 1780657200, "reportTime": "2026-06-05T11:00:00.000Z", "temp": 38, "dewp": -1, "wdir": 190, "wspd": 10, "visib": "6+", "altim": 1014, "qcField": 16, "metarType": "METAR", "rawOb": "METAR OESK 051100Z 19010KT CAVOK 38/M01 Q1014 NOSIG", "lat": 29.785, "lon": 40.1, "elev": 671, "name": "Al-Jouf Arpt, AJ, SA", "cover": "CAVOK", "clouds": [], "fltCat": "VFR"}, "OEPA": {"icaoId": "OEPA", "receiptTime": "2026-06-05T11:00:33.532Z", "obsTime": 1780657200, "reportTime": "2026-06-05T11:00:00.000Z", "temp": 42, "dewp": -7, "wdir": 30, "wspd": 7, "visib": "6+", "altim": 1010, "qcField": 16, "metarType": "METAR", "rawOb": "METAR OEPA 051100Z 03007KT CAVOK 42/M07 Q1010 NOSIG", "lat": 28.335, "lon": 46.125, "elev": 361, "name": "Al Qaisumah/Hafr Al-Batin Arpt, AS, SA", "cover": "CAVOK", "clouds": [], "fltCat": "VFR"}, "OJAQ": {"icaoId": "OJAQ", "receiptTime": "2026-06-05T11:07:47.193Z", "obsTime": 1780657200, "reportTime": "2026-06-05T11:00:00.000Z", "temp": 37, "dewp": 5, "wdir": 220, "wspd": 21, "visib": 3.11, "altim": 1012, "qcField": 16, "wxString": "BLDU", "metarType": "METAR", "rawOb": "METAR OJAQ 051100Z 22021KT 5000 BLDU NSC 37/05 Q1012 NOSIG", "lat": 29.612, "lon": 35.018, "elev": 45, "name": "Aqaba/Hussein Intl, MN, JO", "cover": "CLR", "clouds": [], "fltCat": "MVFR"}, "OEDR": {"icaoId": "OEDR", "receiptTime": "2026-06-05T11:00:31.644Z", "obsTime": 1780657200, "reportTime": "2026-06-05T11:00:00.000Z", "temp": 42, "dewp": 7, "wdir": 350, "wspd": 19, "visib": 4.97, "altim": 1004, "qcField": 0, "metarType": "METAR", "rawOb": "METAR OEDR 051100Z 35019KT 8000 NSC 42/07 Q1004", "lat": 26.265, "lon": 50.152, "elev": 17, "name": "Dhahran, AS, SA", "cover": "CLR", "clouds": [], "fltCat": "MVFR"}, "OEHL": {"icaoId": "OEHL", "receiptTime": "2026-06-05T11:00:31.731Z", "obsTime": 1780657200, "reportTime": "2026-06-05T11:00:00.000Z", "temp": 39, "dewp": -3, "wdir": 200, "wspd": 8, "visib": "6+", "altim": 1014, "qcField": 16, "metarType": "METAR", "rawOb": "METAR OEHL 051100Z 20008KT CAVOK 39/M03 Q1014 NOSIG", "lat": 27.438, "lon": 41.686, "elev": 1002, "name": "Hail Arpt, HL, SA", "cover": "CAVOK", "clouds": [], "fltCat": "VFR"}, "HEAT": {"icaoId": "HEAT", "receiptTime": "2026-06-05T11:06:59.061Z", "obsTime": 1780657200, "reportTime": "2026-06-05T11:00:00.000Z", "temp": 36, "dewp": 9, "wdir": 350, "wspd": 10, "visib": "6+", "altim": 1016, "qcField": 16, "metarType": "METAR", "rawOb": "METAR HEAT 051100Z 35010KT CAVOK 36/09 Q1016 NOSIG", "lat": 27.049, "lon": 31.014, "elev": 229, "name": "Assiut Arpt, WJ, EG", "cover": "CAVOK", "clouds": [], "fltCat": "VFR"}, "OING": {"icaoId": "OING", "receiptTime": "2026-06-05T11:07:18.241Z", "obsTime": 1780657200, "reportTime": "2026-06-05T11:00:00.000Z", "temp": 27, "dewp": 17, "wdir": 250, "wspd": 12, "visib": "6+", "altim": 1016, "qcField": 0, "metarType": "METAR", "rawOb": "METAR OING 051100Z 25012KT 9999 FEW035CB SCT040 BKN160 27/17 Q1016 TEMPO TS RA", "lat": 36.908, "lon": 54.404, "elev": 0, "name": "Gorgan Arpt, MZ, IR", "cover": "BKN", "clouds": [{"cover": "FEW", "base": 3500}, {"cover": "SCT", "base": 4000}, {"cover": "BKN", "base": 16000}], "fltCat": "VFR"}, "DTTG": {"icaoId": "DTTG", "receiptTime": "2026-06-05T11:07:21.782Z", "obsTime": 1780657200, "reportTime": "2026-06-05T11:00:00.000Z", "temp": 31, "dewp": 16, "wdir": 70, "wspd": 11, "visib": "6+", "altim": 1012, "qcField": 1, "metarType": "METAR", "rawOb": "METAR DTTG 051100Z COR 07011KT 040V100 9999 FEW030 31/16 Q1012", "lat": 33.733, "lon": 9.918, "elev": 120, "name": "Gabes/Matmata Intl, GB, TN", "cover": "FEW", "clouds": [{"cover": "FEW", "base": 3000}], "fltCat": "VFR"}, "DTTA": {"icaoId": "DTTA", "receiptTime": "2026-06-05T10:37:34.313Z", "obsTime": 1780655400, "reportTime": "2026-06-05T10:30:00.000Z", "temp": 30, "dewp": 15, "wdir": 360, "wspd": 5, "visib": "6+", "altim": 1013, "qcField": 0, "metarType": "METAR", "rawOb": "METAR DTTA 051030Z 36005KT 290V070 9999 FEW030 30/15 Q1013", "lat": 36.851, "lon": 10.227, "elev": 4, "name": "Tunis/Carthage Intl, AR, TN", "cover": "FEW", "clouds": [{"cover": "FEW", "base": 3000}], "fltCat": "VFR"}, "HEMM": {"icaoId": "HEMM", "receiptTime": "2026-06-05T11:06:58.882Z", "obsTime": 1780657200, "reportTime": "2026-06-05T11:00:00.000Z", "temp": 35, "dewp": 8, "wdir": 20, "wspd": 8, "visib": "6+", "altim": 1014, "qcField": 16, "metarType": "METAR", "rawOb": "METAR HEMM 051100Z 02008KT CAVOK 35/08 Q1014 NOSIG", "lat": 31.325, "lon": 27.222, "elev": 26, "name": "Mersa Matruh Intl, MA, EG", "cover": "CAVOK", "clouds": [], "fltCat": "VFR"}, "DAUG": {"icaoId": "DAUG", "receiptTime": "2026-06-05T11:06:52.064Z", "obsTime": 1780657200, "reportTime": "2026-06-05T11:00:00.000Z", "temp": 37, "dewp": 2, "wdir": 140, "wspd": 6, "visib": 5.59, "altim": 1013, "qcField": 0, "metarType": "METAR", "rawOb": "METAR DAUG 051100Z 14006KT 100V180 9000 NSC 37/02 Q1013", "lat": 32.384, "lon": 3.794, "elev": 444, "name": "Gharda\u00efa/Noum\u00e9rat Arpt, GH, DZ", "cover": "CLR", "clouds": [], "fltCat": "VFR"}, "DAOB": {"icaoId": "DAOB", "receiptTime": "2026-06-05T11:06:51.958Z", "obsTime": 1780657200, "reportTime": "2026-06-05T11:00:00.000Z", "temp": 29, "dewp": 6, "wdir": 220, "wspd": 4, "visib": "6+", "altim": 1019, "qcField": 0, "metarType": "METAR", "rawOb": "METAR DAOB 051100Z 22004KT CAVOK 29/06 Q1019", "lat": 35.345, "lon": 1.476, "elev": 976, "name": "Tiaret/Bou Arpt, TI, DZ", "cover": "CAVOK", "clouds": [], "fltCat": "VFR"}, "UWOR": {"icaoId": "UWOR", "receiptTime": "2026-06-05T11:06:11.002Z", "obsTime": 1780657200, "reportTime": "2026-06-05T11:00:00.000Z", "temp": 21, "dewp": 12, "wdir": 300, "wspd": 17, "visib": "6+", "altim": 1007, "qcField": 16, "metarType": "METAR", "rawOb": "METAR UWOR 051100Z 30009MPS 9999 BKN040CB 21/12 Q1007 R25/290158 NOSIG RMK QFE732/0976", "lat": 51.07, "lon": 58.597, "elev": 270, "name": "Orsk Arpt, OR, RU", "cover": "BKN", "clouds": [{"cover": "BKN", "base": 4000}], "fltCat": "VFR"}, "DAUE": {"icaoId": "DAUE", "receiptTime": "2026-06-05T11:06:38.050Z", "obsTime": 1780657200, "reportTime": "2026-06-05T11:00:00.000Z", "temp": 41, "dewp": 2, "wdir": 180, "wspd": 3, "visib": "6+", "altim": 1012, "qcField": 0, "metarType": "METAR", "rawOb": "METAR DAUE 051100Z 18003KT CAVOK 41/02 Q1012", "lat": 30.571, "lon": 2.86, "elev": 396, "name": "El Golea Intl, GH, DZ", "cover": "CAVOK", "clouds": [], "fltCat": "VFR"}, "DAUO": {"icaoId": "DAUO", "receiptTime": "2026-06-05T11:06:38.135Z", "obsTime": 1780657200, "reportTime": "2026-06-05T11:00:00.000Z", "temp": 35, "dewp": 16, "wdir": 120, "wspd": 5, "visib": "6+", "altim": 1011, "qcField": 0, "metarType": "METAR", "rawOb": "METAR DAUO 051100Z 12005KT 070V170 CAVOK 35/16 Q1011", "lat": 33.513, "lon": 6.782, "elev": 55, "name": "El Oued/Guemar Arpt, EO, DZ", "cover": "CAVOK", "clouds": [], "fltCat": "VFR"}, "DAAY": {"icaoId": "DAAY", "receiptTime": "2026-06-05T11:06:38.235Z", "obsTime": 1780657200, "reportTime": "2026-06-05T11:00:00.000Z", "temp": 30, "dewp": 3, "wdir": 80, "wspd": 4, "visib": "6+", "altim": 1020, "qcField": 0, "metarType": "METAR", "rawOb": "METAR DAAY 051100Z 08004KT CAVOK 30/03 Q1020", "lat": 33.532, "lon": -0.248, "elev": 1116, "name": "Mecheria/Bouamama Arpt, SB, DZ", "cover": "CAVOK", "clouds": [], "fltCat": "VFR"}, "DAOF": {"icaoId": "DAOF", "receiptTime": "2026-06-05T11:06:38.277Z", "obsTime": 1780657200, "reportTime": "2026-06-05T11:00:00.000Z", "temp": 28, "dewp": 12, "wdir": 270, "wspd": 10, "visib": "6+", "altim": 1011, "qcField": 0, "metarType": "METAR", "rawOb": "METAR DAOF 051100Z 27010KT CAVOK 28/12 Q1011", "lat": 27.7, "lon": -8.167, "elev": 441, "name": "Tindouf Arpt, TI, DZ", "cover": "CAVOK", "clouds": [], "fltCat": "VFR"}, "DAOR": {"icaoId": "DAOR", "receiptTime": "2026-06-05T11:06:38.320Z", "obsTime": 1780657200, "reportTime": "2026-06-05T11:00:00.000Z", "temp": 36, "dewp": -1, "wdir": 220, "wspd": 8, "visib": 4.97, "altim": 1015, "qcField": 0, "metarType": "METAR", "rawOb": "METAR DAOR 051100Z 22008KT 8000 FEW033 SCT233 36/M01 Q1015", "lat": 31.65, "lon": -2.261, "elev": 809, "name": "B\u00e9cha/Ali Lolfi Arpt, BE, DZ", "cover": "SCT", "clouds": [{"cover": "FEW", "base": 3300}, {"cover": "SCT", "base": 23300}], "fltCat": "MVFR"}, "UARR": {"icaoId": "UARR", "receiptTime": "2026-06-05T10:36:10.110Z", "obsTime": 1780655400, "reportTime": "2026-06-05T10:30:00.000Z", "temp": 24, "dewp": 10, "wdir": 300, "wspd": 8, "visib": "6+", "altim": 1012, "qcField": 0, "metarType": "METAR", "rawOb": "METAR UARR 051030Z 30004MPS 260V350 9999 BKN046CB 24/10 Q1012 TEMPO 32015MPS RMK QFE755/1007", "lat": 51.151, "lon": 51.541, "elev": 33, "name": "Uralsk Arpt, ZA, KZ", "cover": "BKN", "clouds": [{"cover": "BKN", "base": 4600}], "fltCat": "VFR"}, "UATE": {"icaoId": "UATE", "receiptTime": "2026-06-05T10:36:10.143Z", "obsTime": 1780655400, "reportTime": "2026-06-05T10:30:00.000Z", "temp": 25, "dewp": 7, "wdir": 260, "wspd": 10, "visib": "6+", "altim": 1016, "qcField": 16, "metarType": "METAR", "rawOb": "METAR UATE 051030Z 26005MPS 230V290 CAVOK 25/07 Q1016 NOSIG RMK QFE760/1014", "lat": 43.86, "lon": 51.092, "elev": 21, "name": "Aktau Arpt, MA, KZ", "cover": "CAVOK", "clouds": [], "fltCat": "VFR"}, "UATG": {"icaoId": "UATG", "receiptTime": "2026-06-05T10:36:10.175Z", "obsTime": 1780655400, "reportTime": "2026-06-05T10:30:00.000Z", "temp": 28, "dewp": 5, "wdir": 290, "wspd": 4, "visib": "6+", "altim": 1014, "qcField": 16, "metarType": "METAR", "rawOb": "METAR UATG 051030Z 29002MPS CAVOK 28/05 Q1014 NOSIG RMK QFE762/1016", "lat": 47.122, "lon": 51.829, "elev": -23, "name": "Atyrau Arpt, AT, KZ", "cover": "CAVOK", "clouds": [], "fltCat": "VFR"}, "UTAK": {"icaoId": "UTAK", "receiptTime": "2026-06-05T11:06:07.464Z", "obsTime": 1780657200, "reportTime": "2026-06-05T11:00:00.000Z", "temp": 28, "dewp": 8, "wdir": 290, "wspd": 12, "visib": "6+", "altim": 1015, "qcField": 16, "metarType": "METAR", "rawOb": "METAR UTAK 051100Z 29012KT CAVOK 28/08 Q1015 R34L/CLRD70 NOSIG", "lat": 40.054, "lon": 53.007, "elev": 83, "name": "Turkmenbashi Arpt, B, TM", "cover": "CAVOK", "clouds": [], "fltCat": "VFR"}, "UTAA": {"icaoId": "UTAA", "receiptTime": "2026-06-05T11:06:07.446Z", "obsTime": 1780657200, "reportTime": "2026-06-05T11:00:00.000Z", "temp": 33, "dewp": 5, "wdir": 20, "wspd": 8, "visib": "6+", "altim": 1012, "qcField": 16, "metarType": "METAR", "rawOb": "METAR UTAA 051100Z 02008KT 300V090 9999 FEW050 SCT100 33/05 Q1012 R88/CLRD70 NOSIG", "lat": 37.975, "lon": 58.371, "elev": 207, "name": "Ashgabat Intl, S, TM", "cover": "SCT", "clouds": [{"cover": "FEW", "base": 5000}, {"cover": "SCT", "base": 10000}], "fltCat": "VFR"}, "GMML": {"icaoId": "GMML", "receiptTime": "2026-06-05T10:31:14.579Z", "obsTime": 1780655400, "reportTime": "2026-06-05T10:30:00.000Z", "temp": 21, "dewp": 15, "wdir": 10, "wspd": 16, "visib": 4.97, "altim": 1018, "qcField": 16, "metarType": "SPECI", "rawOb": "SPECI GMML 051030Z 01016KT 8000 OVC015 21/15 Q1018 NOSIG", "lat": 27.141, "lon": -13.23, "elev": 63, "name": "La\u00e2youne/Hassan Arpt, LA, EH", "cover": "OVC", "clouds": [{"cover": "OVC", "base": 1500}], "fltCat": "MVFR"}, "DAAG": {"icaoId": "DAAG", "receiptTime": "2026-06-05T10:35:33.808Z", "obsTime": 1780655400, "reportTime": "2026-06-05T10:30:00.000Z", "temp": 30, "dewp": 18, "wdir": "VRB", "wspd": 3, "visib": "6+", "altim": 1013, "qcField": 0, "metarType": "METAR", "rawOb": "METAR DAAG 051030Z VRB03KT CAVOK 30/18 Q1013", "lat": 36.691, "lon": 3.215, "elev": 18, "name": "Algiers Intl, BM, DZ", "cover": "CAVOK", "clouds": [], "fltCat": "VFR"}, "DABC": {"icaoId": "DABC", "receiptTime": "2026-06-05T10:35:33.932Z", "obsTime": 1780655400, "reportTime": "2026-06-05T10:30:00.000Z", "temp": 30, "dewp": 10, "wdir": 360, "wspd": 4, "visib": "6+", "altim": 1016, "qcField": 0, "metarType": "METAR", "rawOb": "METAR DABC 051030Z 36004KT CAVOK 30/10 Q1016", "lat": 36.278, "lon": 6.629, "elev": 686, "name": "Constantine/Boudiaf Arpt, CO, DZ", "cover": "CAVOK", "clouds": [], "fltCat": "VFR"}, "GMFO": {"icaoId": "GMFO", "receiptTime": "2026-06-05T10:36:25.346Z", "obsTime": 1780655400, "reportTime": "2026-06-05T10:30:00.000Z", "temp": 30, "dewp": 7, "wdir": 360, "wspd": 12, "visib": "6+", "altim": 1015, "qcField": 16, "metarType": "METAR", "rawOb": "METAR GMFO 051030Z 36012KT CAVOK 30/07 Q1015 NOSIG", "lat": 34.787, "lon": -1.924, "elev": 452, "name": "Oujda/Angads Arpt, RA, MA", "cover": "CAVOK", "clouds": [], "fltCat": "VFR"}, "OSDI": {"icaoId": "OSDI", "receiptTime": "2026-06-05T10:51:30.991Z", "obsTime": 1780657200, "reportTime": "2026-06-05T11:00:00.000Z", "temp": 32, "dewp": -5, "wdir": 210, "wspd": 6, "visib": "6+", "altim": 1014, "qcField": 0, "metarType": "METAR", "rawOb": "METAR OSDI 051100Z 21006KT CAVOK 32/M05 Q1014", "lat": 33.411, "lon": 36.516, "elev": 614, "name": "Damascus Intl, DI, SY", "cover": "CAVOK", "clouds": [], "fltCat": "VFR"}, "LPLA": {"icaoId": "LPLA", "receiptTime": "2026-06-05T11:04:54.221Z", "obsTime": 1780657200, "reportTime": "2026-06-05T11:00:00.000Z", "temp": 19, "dewp": 15, "wdir": 290, "wspd": 17, "visib": "6+", "altim": 1023, "qcField": 0, "wxString": "-SHRA", "metarType": "METAR", "rawOb": "METAR LPLA 051100Z 29017KT 9999 -SHRA FEW020 19/15 Q1023", "lat": 38.762, "lon": -27.091, "elev": 60, "name": "Lajes Acores Arpt, AZ, PT", "cover": "FEW", "clouds": [{"cover": "FEW", "base": 2000}], "fltCat": "VFR"}, "HESW": {"icaoId": "HESW", "receiptTime": "2026-06-05T11:04:59.060Z", "obsTime": 1780657200, "reportTime": "2026-06-05T11:00:00.000Z", "temp": 35, "dewp": 7, "wdir": 170, "wspd": 12, "visib": "6+", "altim": 1014, "qcField": 0, "metarType": "METAR", "rawOb": "METAR HESW 051100Z 17012KT CAVOK 35/07 Q1014", "lat": 29.346, "lon": 25.507, "elev": 101, "name": "Siwa Oasis Arpt, , EG", "cover": "CAVOK", "clouds": [], "fltCat": "VFR"}, "ORER": {"icaoId": "ORER", "receiptTime": "2026-06-05T10:50:15.415Z", "obsTime": 1780657200, "reportTime": "2026-06-05T11:00:00.000Z", "temp": 37, "dewp": 1, "wdir": 170, "wspd": 9, "wgst": 20, "visib": "6+", "altim": 1010, "qcField": 0, "metarType": "METAR", "rawOb": "METAR ORER 051100Z 17009G20KT 100V260 9999 FEW035 37/01 Q1010", "lat": 36.232, "lon": 43.951, "elev": 399, "name": "Erbil Intl, AR, IQ", "cover": "FEW", "clouds": [{"cover": "FEW", "base": 3500}], "fltCat": "VFR"}, "UGTB": {"icaoId": "UGTB", "receiptTime": "2026-06-05T10:34:42.498Z", "obsTime": 1780655400, "reportTime": "2026-06-05T10:30:00.000Z", "temp": 25, "dewp": 13, "wdir": "VRB", "wspd": 2, "visib": "6+", "altim": 1015, "qcField": 16, "metarType": "METAR", "rawOb": "METAR UGTB 051030Z VRB02KT 9999 SCT044CB 25/13 Q1015 NOSIG", "lat": 41.669, "lon": 44.955, "elev": 468, "name": "Tbilisi Intl, TB, GE", "cover": "SCT", "clouds": [{"cover": "SCT", "base": 4400}], "fltCat": "VFR"}, "OKKK": {"icaoId": "OKKK", "receiptTime": "2026-06-05T11:10:10.345Z", "obsTime": 1780657200, "reportTime": "2026-06-05T11:00:00.000Z", "temp": 43, "dewp": 8, "wdir": 350, "wspd": 14, "visib": "6+", "altim": 1006, "qcField": 16, "metarType": "METAR", "rawOb": "METAR OKKK 051100Z 35014KT CAVOK 43/08 Q1006 NOSIG", "lat": 29.227, "lon": 47.969, "elev": 55, "name": "Kuwait Intl, KU, KW", "cover": "CAVOK", "clouds": [], "fltCat": "VFR"}, "LTAL": {"icaoId": "LTAL", "receiptTime": "2026-06-05T10:55:16.283Z", "obsTime": 1780656600, "reportTime": "2026-06-05T11:00:00.000Z", "temp": 23, "dewp": 11, "wdir": "VRB", "wspd": 2, "visib": "6+", "altim": 1017, "qcField": 0, "wxString": "TS", "metarType": "METAR", "rawOb": "METAR LTAL 051050Z VRB02KT 9999 TS FEW020CB BKN030 23/11 Q1017", "lat": 41.305, "lon": 33.792, "elev": 1074, "name": "Kastamonu Arpt, KA, TR", "cover": "BKN", "clouds": [{"cover": "FEW", "base": 2000}, {"cover": "BKN", "base": 3000}], "fltCat": "MVFR"}, "LTCI": {"icaoId": "LTCI", "receiptTime": "2026-06-05T10:55:17.710Z", "obsTime": 1780656600, "reportTime": "2026-06-05T11:00:00.000Z", "temp": 20, "dewp": 12, "wdir": 260, "wspd": 8, "visib": "6+", "altim": 1020, "qcField": 16, "metarType": "METAR", "rawOb": "METAR LTCI 051050Z 26008KT 230V290 9999 FEW040 20/12 Q1020 NOSIG", "lat": 38.469, "lon": 43.337, "elev": 1654, "name": "Van Arpt, VA, TR", "cover": "FEW", "clouds": [{"cover": "FEW", "base": 4000}], "fltCat": "VFR"}, "LTFH": {"icaoId": "LTFH", "receiptTime": "2026-06-05T10:55:17.965Z", "obsTime": 1780656600, "reportTime": "2026-06-05T11:00:00.000Z", "temp": 28, "dewp": 17, "wdir": 80, "wspd": 6, "visib": "6+", "altim": 1013, "qcField": 16, "metarType": "METAR", "rawOb": "METAR LTFH 051050Z 08006KT 040V130 9999 FEW036 SCT200 28/17 Q1013 NOSIG", "lat": 41.255, "lon": 36.567, "elev": 7, "name": "Samsun-\u00c7ar\u015famba Arpt, SA, TR", "cover": "SCT", "clouds": [{"cover": "FEW", "base": 3600}, {"cover": "SCT", "base": 20000}], "fltCat": "VFR"}, "USTR": {"icaoId": "USTR", "receiptTime": "2026-06-05T10:06:12.097Z", "obsTime": 1780653600, "reportTime": "2026-06-05T10:00:00.000Z", "temp": 22, "dewp": 15, "wdir": 60, "wspd": 10, "visib": "6+", "altim": 1008, "qcField": 0, "metarType": "METAR", "rawOb": "METAR USTR 051000Z 06005MPS 030V110 9999 FEW033CB 22/15 Q1008 R03/090065 R30/190060 TEMPO VRB16MPS 2100 -TSRAGR SQ FEW005 BKN016CB", "lat": 57.19, "lon": 65.324, "elev": 93, "name": "Tyumen/Roschino Intl, TY, RU", "cover": "FEW", "clouds": [{"cover": "FEW", "base": 3300}], "fltCat": "VFR"}, "UHMA": {"icaoId": "UHMA", "receiptTime": "2026-06-05T10:04:21.326Z", "obsTime": 1780653600, "reportTime": "2026-06-05T10:00:00.000Z", "temp": 12, "dewp": 5, "wdir": 160, "wspd": 4, "visib": "6+", "altim": 1021, "qcField": 16, "metarType": "METAR", "rawOb": "METAR UHMA 051000Z 16002MPS 110V190 CAVOK 12/05 Q1021 R02/////// NOSIG RMK MID 13003MPS END R02/13003MPS QFE762/1016", "lat": 64.733, "lon": 177.739, "elev": 53, "name": "Anadyr Arpt, CH, RU", "cover": "CAVOK", "clouds": [], "fltCat": "VFR"}, "USSS": {"icaoId": "USSS", "receiptTime": "2026-06-05T10:06:12.070Z", "obsTime": 1780653600, "reportTime": "2026-06-05T10:00:00.000Z", "temp": 22, "dewp": 13, "wdir": 110, "wspd": 6, "visib": "6+", "altim": 1007, "qcField": 0, "metarType": "METAR", "rawOb": "METAR USSS 051000Z 11003MPS 070V140 9999 SCT020CB 22/13 Q1007 R08R/210060 R08L/210060 TEMPO -TSRA RMK QFE736/0981", "lat": 56.745, "lon": 60.792, "elev": 222, "name": "Yekaterinburg/Koltsovo Arpt, SV, RU", "cover": "SCT", "clouds": [{"cover": "SCT", "base": 2000}], "fltCat": "VFR"}, "UIUU": {"icaoId": "UIUU", "receiptTime": "2026-06-05T10:06:09.879Z", "obsTime": 1780653600, "reportTime": "2026-06-05T10:00:00.000Z", "temp": 18, "dewp": 4, "wdir": 330, "wspd": 16, "visib": "6+", "altim": 1016, "qcField": 16, "metarType": "METAR", "rawOb": "METAR UIUU 051000Z 33008MPS 9999 SCT048CB 18/04 Q1016 R26/CLRD60 NOSIG RMK QFE718/0957", "lat": 51.808, "lon": 107.443, "elev": 508, "name": "Ulan-Ude Arpt, BU, RU", "cover": "SCT", "clouds": [{"cover": "SCT", "base": 4800}], "fltCat": "VFR"}, "UEEE": {"icaoId": "UEEE", "receiptTime": "2026-06-05T10:04:23.057Z", "obsTime": 1780653600, "reportTime": "2026-06-05T10:00:00.000Z", "temp": 18, "dewp": 4, "wdir": 130, "wspd": 6, "visib": "6+", "altim": 1023, "qcField": 16, "metarType": "METAR", "rawOb": "METAR UEEE 051000Z 13003MPS CAVOK 18/04 Q1023 R23/09//66 NOSIG RMK QFE758", "lat": 62.093, "lon": 129.774, "elev": 106, "name": "Yakutsk Arpt, SA, RU", "cover": "CAVOK", "clouds": [], "fltCat": "VFR"}, "UNOO": {"icaoId": "UNOO", "receiptTime": "2026-06-05T10:06:09.181Z", "obsTime": 1780653600, "reportTime": "2026-06-05T10:00:00.000Z", "temp": 31, "dewp": 8, "wdir": 110, "wspd": 16, "visib": "6+", "altim": 1007, "qcField": 16, "metarType": "METAR", "rawOb": "METAR UNOO 051000Z 11008MPS 9999 SCT033CB 31/08 Q1007 R07/CLRD63 NOSIG RMK QFE747", "lat": 54.964, "lon": 73.32, "elev": 85, "name": "Omsk Arpt, OM, RU", "cover": "SCT", "clouds": [{"cover": "SCT", "base": 3300}], "fltCat": "VFR"}, "USHH": {"icaoId": "USHH", "receiptTime": "2026-06-05T10:04:22.335Z", "obsTime": 1780653600, "reportTime": "2026-06-05T10:00:00.000Z", "temp": 26, "dewp": 12, "wdir": 120, "wspd": 6, "visib": "6+", "altim": 1012, "qcField": 16, "metarType": "METAR", "rawOb": "METAR USHH 051000Z 12003MPS 090V170 9999 FEW033 26/12 Q1012 R06/010063 NOSIG", "lat": 61.029, "lon": 69.086, "elev": 46, "name": "Khanty-Mansijsk Arpt, KH, RU", "cover": "FEW", "clouds": [{"cover": "FEW", "base": 3300}], "fltCat": "VFR"}, "UHWW": {"icaoId": "UHWW", "receiptTime": "2026-06-05T10:04:21.283Z", "obsTime": 1780653600, "reportTime": "2026-06-05T10:00:00.000Z", "temp": 13, "dewp": 13, "wdir": 0, "wspd": 0, "visib": "6+", "altim": 1006, "qcField": 16, "wxString": "-SHRA", "metarType": "METAR", "rawOb": "METAR UHWW 051000Z 00000MPS 9999 -SHRA BKN033CB 13/13 Q1006 R25L/290163 NOSIG RMK QFE753", "lat": 43.399, "lon": 132.146, "elev": 11, "name": "Vladivostok Intl, PR, RU", "cover": "BKN", "clouds": [{"cover": "BKN", "base": 3300}], "fltCat": "VFR"}, "UHBB": {"icaoId": "UHBB", "receiptTime": "2026-06-05T10:04:21.190Z", "obsTime": 1780653600, "reportTime": "2026-06-05T10:00:00.000Z", "temp": 9, "dewp": 9, "wdir": 340, "wspd": 8, "visib": 4.35, "altim": 1006, "qcField": 16, "wxString": "-SHRA", "metarType": "METAR", "rawOb": "METAR UHBB 051000Z 34004MPS 7000 -SHRA BKN003 BKN026CB 09/09 Q1006 R36/290161 NOSIG RMK QBB090 QFE737/0982", "lat": 50.425, "lon": 127.412, "elev": 185, "name": "Blagoveshchensk Arpt, AM, RU", "cover": "BKN", "clouds": [{"cover": "BKN", "base": 300}, {"cover": "BKN", "base": 2600}], "fltCat": "LIFR"}, "UHSS": {"icaoId": "UHSS", "receiptTime": "2026-06-05T10:04:21.385Z", "obsTime": 1780653600, "reportTime": "2026-06-05T10:00:00.000Z", "temp": 7, "dewp": 3, "wdir": 60, "wspd": 4, "visib": "6+", "altim": 1024, "qcField": 16, "metarType": "METAR", "rawOb": "METAR UHSS 051000Z 06002MPS 9999 SCT040 07/03 Q1024 R19/CLRD70 NOSIG RMK QFE767/1022", "lat": 46.887, "lon": 142.719, "elev": 14, "name": "Yuzhno-Sakhalinsk Arpt, SA, RU", "cover": "SCT", "clouds": [{"cover": "SCT", "base": 4000}], "fltCat": "VFR"}, "UIII": {"icaoId": "UIII", "receiptTime": "2026-06-05T10:00:19.084Z", "obsTime": 1780653540, "reportTime": "2026-06-05T09:59:00.000Z", "temp": 17, "dewp": 4, "wdir": "VRB", "wspd": 2, "visib": "6+", "altim": 1018, "qcField": 16, "metarType": "SPECI", "rawOb": "SPECI UIII 050959Z VRB01MPS 9999 SCT040CB 17/04 Q1018 R30/CLRD65 NOSIG RMK QFE719/0959", "lat": 52.273, "lon": 104.38, "elev": 480, "name": "Irkutsk Intl, IR, RU", "cover": "SCT", "clouds": [{"cover": "SCT", "base": 4000}], "fltCat": "VFR"}, "UHHH": {"icaoId": "UHHH", "receiptTime": "2026-06-05T10:04:21.227Z", "obsTime": 1780653600, "reportTime": "2026-06-05T10:00:00.000Z", "temp": 11, "dewp": 10, "wdir": 40, "wspd": 16, "visib": "6+", "altim": 1014, "qcField": 16, "metarType": "METAR", "rawOb": "METAR UHHH 051000Z 04008MPS 9999 FEW007 SCT021CB 11/10 Q1014 R88/290045 NOSIG RMK QFE754/1005", "lat": 48.527, "lon": 135.184, "elev": 74, "name": "Khabarovsk/Novy Arpt, KH, RU", "cover": "SCT", "clouds": [{"cover": "FEW", "base": 700}, {"cover": "SCT", "base": 2100}], "fltCat": "VFR"}, "UNAA": {"icaoId": "UNAA", "receiptTime": "2026-06-05T10:06:09.937Z", "obsTime": 1780653600, "reportTime": "2026-06-05T10:00:00.000Z", "temp": 28, "dewp": 3, "wdir": 300, "wspd": 8, "visib": "6+", "altim": 1014, "qcField": 16, "metarType": "METAR", "rawOb": "METAR UNAA 051000Z 30004MPS CAVOK 28/03 Q1014 R02/CLRD63 NOSIG RMK QFE738", "lat": 53.74, "lon": 91.385, "elev": 249, "name": "Abakan Intl, KK, RU", "cover": "CAVOK", "clouds": [], "fltCat": "VFR"}, "UIBB": {"icaoId": "UIBB", "receiptTime": "2026-06-05T10:06:09.824Z", "obsTime": 1780653600, "reportTime": "2026-06-05T10:00:00.000Z", "temp": 23, "dewp": 5, "wdir": 70, "wspd": 8, "visib": "6+", "altim": 1019, "qcField": 16, "metarType": "METAR", "rawOb": "METAR UIBB 051000Z 07004MPS 350V140 9999 NSC 23/05 Q1019 R30/CLRD62 NOSIG RMK QFE721/0962", "lat": 56.365, "lon": 101.716, "elev": 485, "name": "Bratsk Arpt, IR, RU", "cover": "CLR", "clouds": [], "fltCat": "VFR"}, "UOOO": {"icaoId": "UOOO", "receiptTime": "2026-06-05T10:06:10.417Z", "obsTime": 1780653600, "reportTime": "2026-06-05T10:00:00.000Z", "temp": 2, "dewp": 2, "wdir": 30, "wspd": 8, "visib": "6+", "altim": 1026, "qcField": 16, "metarType": "METAR", "rawOb": "METAR UOOO 051000Z 03004MPS 9999 OVC008 02/02 Q1026 R01/12//61 NOSIG RMK QFE755/1007", "lat": 69.308, "lon": 87.322, "elev": 177, "name": "Norilsk/Alykel Arpt, TA, RU", "cover": "OVC", "clouds": [{"cover": "OVC", "base": 800}], "fltCat": "IFR"}, "USRR": {"icaoId": "USRR", "receiptTime": "2026-06-05T10:06:12.048Z", "obsTime": 1780653600, "reportTime": "2026-06-05T10:00:00.000Z", "temp": 29, "dewp": 14, "wdir": 120, "wspd": 10, "visib": "6+", "altim": 1014, "qcField": 0, "metarType": "METAR", "rawOb": "METAR USRR 051000Z 12005MPS CAVOK 29/14 Q1014 R07/CLRD// RMK QFE755", "lat": 61.342, "lon": 73.422, "elev": 52, "name": "Surgut Intl, KH, RU", "cover": "CAVOK", "clouds": [], "fltCat": "VFR"}, "UNBB": {"icaoId": "UNBB", "receiptTime": "2026-06-05T10:06:09.117Z", "obsTime": 1780653600, "reportTime": "2026-06-05T10:00:00.000Z", "temp": 28, "dewp": 8, "wdir": 80, "wspd": 8, "visib": "6+", "altim": 1012, "qcField": 16, "metarType": "METAR", "rawOb": "METAR UNBB 051000Z 08004MPS 050V120 CAVOK 28/08 Q1012 R06/CLRD66 NOSIG RMK QFE737", "lat": 53.362, "lon": 83.54, "elev": 249, "name": "Barnaul Arpt, AL, RU", "cover": "CAVOK", "clouds": [], "fltCat": "VFR"}, "USDA": {"icaoId": "USDA", "receiptTime": "2026-06-05T10:04:23.088Z", "obsTime": 1780653600, "reportTime": "2026-06-05T10:00:00.000Z", "temp": 4, "dewp": 3, "wdir": 170, "wspd": 8, "visib": "6+", "altim": 1022, "qcField": 16, "metarType": "METAR", "rawOb": "METAR USDA 051000Z 17004MPS 9999 BKN005 04/03 Q1022 R04/290551 NOSIG RMK QBB150 QFE765/1020", "lat": 71.216, "lon": 72.05, "elev": 5, "name": "Sabette Arpt, YA, RU", "cover": "BKN", "clouds": [{"cover": "BKN", "base": 500}], "fltCat": "IFR"}, "UNKL": {"icaoId": "UNKL", "receiptTime": "2026-06-05T10:06:09.162Z", "obsTime": 1780653600, "reportTime": "2026-06-05T10:00:00.000Z", "temp": 25, "dewp": 6, "wdir": 110, "wspd": 12, "visib": "6+", "altim": 1018, "qcField": 16, "metarType": "METAR", "rawOb": "METAR UNKL 051000Z 11006MPS CAVOK 25/06 Q1018 R11/CLRD// NOSIG RMK QFE738", "lat": 56.173, "lon": 92.493, "elev": 278, "name": "Krasnoyarsk Arpt, KY, RU", "cover": "CAVOK", "clouds": [], "fltCat": "VFR"}, "UNEE": {"icaoId": "UNEE", "receiptTime": "2026-06-05T10:06:09.139Z", "obsTime": 1780653600, "reportTime": "2026-06-05T10:00:00.000Z", "temp": 26, "dewp": 6, "wdir": 50, "wspd": 10, "visib": "6+", "altim": 1015, "qcField": 16, "metarType": "METAR", "rawOb": "METAR UNEE 051000Z 05005MPS CAVOK 26/06 Q1015 NOSIG RMK QFE737", "lat": 55.27, "lon": 86.107, "elev": 261, "name": "Kemerovo Intl, KE, RU", "cover": "CAVOK", "clouds": [], "fltCat": "VFR"}, "UZTT": {"icaoId": "UZTT", "receiptTime": "2026-06-05T10:05:23.534Z", "obsTime": 1780653600, "reportTime": "2026-06-05T10:00:00.000Z", "temp": 32, "dewp": 3, "wdir": 350, "wspd": 10, "visib": "6+", "altim": 1011, "qcField": 16, "metarType": "METAR", "rawOb": "METAR UZTT 051000Z 35010KT 300V040 CAVOK 32/03 Q1011 NOSIG", "lat": 41.258, "lon": 69.281, "elev": 429, "name": "Taskent Intl, TK, UZ", "cover": "CAVOK", "clouds": [], "fltCat": "VFR"}, "USDD": {"icaoId": "USDD", "receiptTime": "2026-06-05T10:06:11.973Z", "obsTime": 1780653600, "reportTime": "2026-06-05T10:00:00.000Z", "temp": 11, "dewp": 8, "wdir": 20, "wspd": 12, "visib": "6+", "altim": 1023, "qcField": 16, "metarType": "METAR", "rawOb": "METAR USDD 051000Z 02006MPS 9999 SCT015CB 11/08 Q1023 R04/CLRD60 NOSIG RMK QFE761/1015", "lat": 66.591, "lon": 66.611, "elev": 53, "name": "Salekhard Arpt, YA, RU", "cover": "SCT", "clouds": [{"cover": "SCT", "base": 1500}], "fltCat": "VFR"}, "UIAA": {"icaoId": "UIAA", "receiptTime": "2026-06-05T10:06:09.800Z", "obsTime": 1780653600, "reportTime": "2026-06-05T10:00:00.000Z", "temp": 15, "dewp": 7, "wdir": 360, "wspd": 4, "visib": "6+", "altim": 1014, "qcField": 16, "metarType": "METAR", "rawOb": "METAR UIAA 051000Z 36002MPS 9999 SCT050CB 15/07 Q1014 R29/290155 NOSIG RMK QFE702/0936", "lat": 52.026, "lon": 113.31, "elev": 650, "name": "Chita/Kadala Arpt, CH, RU", "cover": "SCT", "clouds": [{"cover": "SCT", "base": 5000}], "fltCat": "VFR"}, "UAAH": {"icaoId": "UAAH", "receiptTime": "2026-06-05T09:43:05.115Z", "obsTime": 1780652460, "reportTime": "2026-06-05T09:41:00.000Z", "temp": 32, "dewp": 5, "wdir": 320, "wspd": 10, "visib": "6+", "altim": 1010, "qcField": 16, "metarType": "SPECI", "rawOb": "SPECI UAAH 050941Z 32005MPS 290V350 9999 SCT040CB 32/05 Q1010 NOSIG RMK QFE719/0959", "lat": 46.893, "lon": 75.005, "elev": 427, "name": "Balkhash Arpt, KA, KZ", "cover": "SCT", "clouds": [{"cover": "SCT", "base": 4000}], "fltCat": "VFR"}, "UAKD": {"icaoId": "UAKD", "receiptTime": "2026-06-05T10:06:05.709Z", "obsTime": 1780653600, "reportTime": "2026-06-05T10:00:00.000Z", "temp": 26, "dewp": 6, "wdir": 220, "wspd": 19, "visib": "6+", "altim": 1010, "qcField": 16, "metarType": "METAR", "rawOb": "METAR UAKD 051000Z 22010MPS 9999 SCT050CB 26/06 Q1010 NOSIG RMK QFE725/0966", "lat": 47.711, "lon": 67.739, "elev": 379, "name": "Zhezkazgan Arpt, KA, KZ", "cover": "SCT", "clouds": [{"cover": "SCT", "base": 5000}], "fltCat": "VFR"}, "UAUU": {"icaoId": "UAUU", "receiptTime": "2026-06-05T09:50:06.331Z", "obsTime": 1780652880, "reportTime": "2026-06-05T09:48:00.000Z", "temp": 19, "dewp": 12, "wdir": 100, "wspd": 6, "visib": "6+", "altim": 1004, "qcField": 0, "wxString": "-SHRA VCTS", "metarType": "SPECI", "rawOb": "SPECI UAUU 050948Z 10003MPS 060V130 9999 -SHRA VCTS BKN029CB 19/12 Q1004 TEMPO -TSRA RMK QFE737/0982", "lat": 53.215, "lon": 63.553, "elev": 177, "name": "Kostanay Arpt, KU, KZ", "cover": "BKN", "clouds": [{"cover": "BKN", "base": 2900}], "fltCat": "MVFR"}, "ZMUB": {"icaoId": "ZMUB", "receiptTime": "2026-06-05T10:06:25.027Z", "obsTime": 1780653600, "reportTime": "2026-06-05T10:00:00.000Z", "temp": 15, "dewp": -3, "wdir": 350, "wspd": 14, "visib": "6+", "altim": 1015, "qcField": 16, "metarType": "METAR", "rawOb": "METAR ZMUB 051000Z 35007MPS 320V030 9999 FEW030CB SCT033 15/M03 Q1015 NOSIG RMK QFE654.3 29 MOP", "lat": 47.843, "lon": 106.766, "elev": 1300, "name": "Ulan-Bator/Khaan Arpt, 1, MN", "cover": "SCT", "clouds": [{"cover": "FEW", "base": 3000}, {"cover": "SCT", "base": 3300}], "fltCat": "VFR"}, "UHPP": {"icaoId": "UHPP", "receiptTime": "2026-06-05T10:04:21.255Z", "obsTime": 1780653600, "reportTime": "2026-06-05T10:00:00.000Z", "temp": 6, "dewp": 2, "wdir": 180, "wspd": 6, "visib": "6+", "altim": 1029, "qcField": 16, "metarType": "METAR", "rawOb": "METAR UHPP 051000Z 18003MPS CAVOK 06/02 Q1029 R34L/CLRD62 NOSIG RMK QFE768/1024", "lat": 53.175, "lon": 158.444, "elev": 33, "name": "Petropavlovsk-Kamchatsky Arpt, KA, RU", "cover": "CAVOK", "clouds": [], "fltCat": "VFR"}, "RJCM": {"icaoId": "RJCM", "receiptTime": "2026-06-05T10:07:00.771Z", "obsTime": 1780653600, "reportTime": "2026-06-05T10:00:00.000Z", "temp": 9, "dewp": 5, "wdir": 180, "wspd": 13, "visib": "6+", "altim": 1020, "qcField": 0, "metarType": "METAR", "rawOb": "METAR RJCM 051000Z 18013KT 9999 FEW010 BKN/// 09/05 Q1020", "lat": 43.881, "lon": 144.164, "elev": 30, "name": "Memambetsu Arpt, 1, JP", "cover": "FEW", "clouds": [{"cover": "FEW", "base": 1000}], "fltCat": "VFR"}, "UACC": {"icaoId": "UACC", "receiptTime": "2026-06-05T10:06:09.650Z", "obsTime": 1780653600, "reportTime": "2026-06-05T10:00:00.000Z", "temp": 29, "dewp": 2, "wdir": 210, "wspd": 17, "visib": "6+", "altim": 1009, "qcField": 16, "metarType": "METAR", "rawOb": "METAR UACC 051000Z 21009MPS 9999 BKN040 29/02 Q1009 NOSIG RMK QFE726/0968", "lat": 51.024, "lon": 71.468, "elev": 354, "name": "Astana Intl, AK, KZ", "cover": "BKN", "clouds": [{"cover": "BKN", "base": 4000}], "fltCat": "VFR"}, "UERR": {"icaoId": "UERR", "receiptTime": "2026-06-05T10:06:09.039Z", "obsTime": 1780653600, "reportTime": "2026-06-05T10:00:00.000Z", "temp": 23, "dewp": 5, "wdir": 40, "wspd": 10, "visib": "6+", "altim": 1018, "qcField": 16, "metarType": "METAR", "rawOb": "METAR UERR 051000Z 04005MPS 9999 SCT030CB 23/05 Q1018 R07/CLRD60 NOSIG RMK QFE733/0977", "lat": 62.538, "lon": 114.056, "elev": 352, "name": "Mirny Arpt, SA, RU", "cover": "SCT", "clouds": [{"cover": "SCT", "base": 3000}], "fltCat": "VFR"}, "UASP": {"icaoId": "UASP", "receiptTime": "2026-06-05T10:06:05.782Z", "obsTime": 1780653600, "reportTime": "2026-06-05T10:00:00.000Z", "temp": 33, "dewp": 4, "wdir": 60, "wspd": 4, "wgst": 21, "visib": "6+", "altim": 1009, "qcField": 16, "metarType": "METAR", "rawOb": "METAR UASP 051000Z 06002G11MPS CAVOK 33/04 Q1009 NOSIG RMK QFE746/0994", "lat": 52.202, "lon": 77.078, "elev": 122, "name": "Pavlodar Arpt, PA, KZ", "cover": "CAVOK", "clouds": [], "fltCat": "VFR"}, "UAAT": {"icaoId": "UAAT", "receiptTime": "2026-06-05T10:05:22.915Z", "obsTime": 1780653600, "reportTime": "2026-06-05T10:00:00.000Z", "temp": 26, "dewp": 11, "wdir": 160, "wspd": 10, "visib": "6+", "altim": 1011, "qcField": 16, "wxString": "-SHRA", "metarType": "METAR", "rawOb": "METAR UAAT 051000Z 16005MPS 9999 -SHRA BKN050CB OVC100 26/11 Q1011 NOSIG RMK QFE706/0942", "lat": 45.121, "lon": 78.445, "elev": 588, "name": "Taldykorgan Arpt, AL, KZ", "cover": "OVC", "clouds": [{"cover": "BKN", "base": 5000}, {"cover": "OVC", "base": 10000}], "fltCat": "VFR"}, "ZYTX": {"icaoId": "ZYTX", "receiptTime": "2026-06-05T10:05:22.795Z", "obsTime": 1780653600, "reportTime": "2026-06-05T10:00:00.000Z", "temp": 23, "dewp": 7, "wdir": 270, "wspd": 4, "visib": "6+", "altim": 1007, "qcField": 16, "metarType": "METAR", "rawOb": "METAR ZYTX 051000Z 27002MPS CAVOK 23/07 Q1007 NOSIG", "lat": 41.639, "lon": 123.485, "elev": 56, "name": "Shenyang/Taoxian Intl, LN, CN", "cover": "CAVOK", "clouds": [], "fltCat": "VFR"}, "UASK": {"icaoId": "UASK", "receiptTime": "2026-06-05T10:05:22.981Z", "obsTime": 1780653600, "reportTime": "2026-06-05T10:00:00.000Z", "temp": 32, "dewp": 4, "wdir": 300, "wspd": 8, "visib": "6+", "altim": 1008, "qcField": 16, "metarType": "METAR", "rawOb": "METAR UASK 051000Z 30004MPS 260V330 9999 NSC 32/04 Q1008 NOSIG RMK QFE731/0974", "lat": 50.027, "lon": 82.5, "elev": 285, "name": "Ust-Kamenogorsk Arpt, VO, KZ", "cover": "CLR", "clouds": [], "fltCat": "VFR"}, "UCFM": {"icaoId": "UCFM", "receiptTime": "2026-06-05T10:05:21.683Z", "obsTime": 1780653600, "reportTime": "2026-06-05T10:00:00.000Z", "temp": 24, "dewp": 13, "wdir": 230, "wspd": 6, "visib": "6+", "altim": 1013, "qcField": 16, "metarType": "METAR", "rawOb": "METAR UCFM 051000Z 23003MPS 200V260 9999 SCT066CB 24/13 Q1013 NOSIG", "lat": 43.061, "lon": 74.478, "elev": 632, "name": "Bishkek/Manas Intl, C, KG", "cover": "SCT", "clouds": [{"cover": "SCT", "base": 6600}], "fltCat": "VFR"}, "UAOO": {"icaoId": "UAOO", "receiptTime": "2026-06-05T09:41:05.664Z", "obsTime": 1780652280, "reportTime": "2026-06-05T09:38:00.000Z", "temp": 28, "dewp": 1, "wdir": 310, "wspd": 12, "visib": "6+", "altim": 1012, "qcField": 16, "metarType": "SPECI", "rawOb": "SPECI UAOO 050938Z 31006MPS 270V340 CAVOK 28/01 Q1012 NOSIG RMK QFE747/0997", "lat": 44.707, "lon": 65.593, "elev": 130, "name": "Kzylorda Arpt, KZ, KZ", "cover": "CAVOK", "clouds": [], "fltCat": "VFR"}, "UAAA": {"icaoId": "UAAA", "receiptTime": "2026-06-05T10:05:21.279Z", "obsTime": 1780653600, "reportTime": "2026-06-05T10:00:00.000Z", "temp": 22, "dewp": 12, "wdir": 210, "wspd": 6, "visib": "6+", "altim": 1014, "qcField": 16, "metarType": "METAR", "rawOb": "METAR UAAA 051000Z 21003MPS 9999 BKN050CB OVC100 22/12 Q1014 NOSIG", "lat": 43.35, "lon": 77.027, "elev": 673, "name": "Almaty Intl, AL, KZ", "cover": "OVC", "clouds": [{"cover": "BKN", "base": 5000}, {"cover": "OVC", "base": 10000}], "fltCat": "VFR"}, "UCFO": {"icaoId": "UCFO", "receiptTime": "2026-06-05T10:05:21.706Z", "obsTime": 1780653600, "reportTime": "2026-06-05T10:00:00.000Z", "temp": 27, "dewp": 10, "wdir": 180, "wspd": 12, "visib": "6+", "altim": 1013, "qcField": 16, "metarType": "METAR", "rawOb": "METAR UCFO 051000Z 18006MPS 9999 FEW050CB 27/10 Q1013 NOSIG", "lat": 40.61, "lon": 72.791, "elev": 881, "name": "Osh Intl, O, KG", "cover": "FEW", "clouds": [{"cover": "FEW", "base": 5000}], "fltCat": "VFR"}, "ZYHB": {"icaoId": "ZYHB", "receiptTime": "2026-06-05T10:06:27.686Z", "obsTime": 1780653600, "reportTime": "2026-06-05T10:00:00.000Z", "temp": 18, "dewp": 8, "wdir": 10, "wspd": 6, "visib": "6+", "altim": 1006, "qcField": 16, "metarType": "METAR", "rawOb": "METAR ZYHB 051000Z 01003MPS 340V050 9999 SCT040 18/08 Q1006 NOSIG", "lat": 45.628, "lon": 126.259, "elev": 134, "name": "Harbin/Taiping Arpt, HL, CN", "cover": "SCT", "clouds": [{"cover": "SCT", "base": 4000}], "fltCat": "VFR"}, "ZWWW": {"icaoId": "ZWWW", "receiptTime": "2026-06-05T10:05:22.741Z", "obsTime": 1780653600, "reportTime": "2026-06-05T10:00:00.000Z", "temp": 32, "dewp": 8, "wdir": 20, "wspd": 10, "visib": "6+", "altim": 1008, "qcField": 16, "metarType": "METAR", "rawOb": "METAR ZWWW 051000Z 02005MPS 340V050 CAVOK 32/08 Q1008 NOSIG", "lat": 43.907, "lon": 87.474, "elev": 654, "name": "\u00dcr\u00fcmqi/Diwopu Arpt, XJ, CN", "cover": "CAVOK", "clouds": [], "fltCat": "VFR"}, "RJCC": {"icaoId": "RJCC", "receiptTime": "2026-06-05T10:06:00.962Z", "obsTime": 1780653600, "reportTime": "2026-06-05T10:00:00.000Z", "temp": 10, "dewp": 7, "wdir": 190, "wspd": 13, "visib": "6+", "altim": 1017, "qcField": 0, "metarType": "METAR", "rawOb": "METAR RJCC 051000Z 19013KT 9999 FEW015 10/07 Q1017", "lat": 42.774, "lon": 141.693, "elev": 19, "name": "Sapporo/Chitose Arpt, 1, JP", "cover": "FEW", "clouds": [{"cover": "FEW", "base": 1500}], "fltCat": "VFR"}, "ZBHH": {"icaoId": "ZBHH", "receiptTime": "2026-06-05T10:08:13.096Z", "obsTime": 1780653600, "reportTime": "2026-06-05T10:00:00.000Z", "temp": 20, "dewp": -4, "wdir": 360, "wspd": 10, "visib": "6+", "altim": 1010, "qcField": 0, "metarType": "METAR", "rawOb": "METAR ZBHH 051000Z 36005MPS 320V040 9999 BKN040 20/M04 Q1010 BECMG TL1130 06004MPS", "lat": 40.854, "lon": 111.827, "elev": 1081, "name": "Hohhot/Baita Intl, NM, CN", "cover": "BKN", "clouds": [{"cover": "BKN", "base": 4000}], "fltCat": "VFR"}, "UHMM": {"icaoId": "UHMM", "receiptTime": "2026-06-05T10:04:21.359Z", "obsTime": 1780653600, "reportTime": "2026-06-05T10:00:00.000Z", "temp": 11, "dewp": 3, "wdir": 190, "wspd": 2, "visib": "6+", "altim": 1029, "qcField": 0, "metarType": "METAR", "rawOb": "METAR UHMM 051000Z 19001MPS 9999 NSC 11/03 Q1029 RMK QFE757 R28/30003MPS", "lat": 59.911, "lon": 150.725, "elev": 175, "name": "Magadan/Sokol Arpt, MA, RU", "cover": "CLR", "clouds": [], "fltCat": "VFR"}, "RJSA": {"icaoId": "RJSA", "receiptTime": "2026-06-05T10:07:31.881Z", "obsTime": 1780653600, "reportTime": "2026-06-05T10:00:00.000Z", "temp": 9, "dewp": 7, "wdir": 50, "wspd": 13, "visib": "6+", "altim": 1014, "qcField": 0, "metarType": "METAR", "rawOb": "METAR RJSA 051000Z 05013KT 9999 FEW005 BKN/// 09/07 Q1014", "lat": 40.733, "lon": 140.689, "elev": 196, "name": "Aomori Arpt, 2, JP", "cover": "FEW", "clouds": [{"cover": "FEW", "base": 500}], "fltCat": "VFR"}, "UACP": {"icaoId": "UACP", "receiptTime": "2026-06-05T10:06:05.643Z", "obsTime": 1780653600, "reportTime": "2026-06-05T10:00:00.000Z", "temp": 26, "dewp": 11, "wdir": 160, "wspd": 12, "visib": "6+", "altim": 1007, "qcField": 16, "metarType": "METAR", "rawOb": "METAR UACP 051000Z 16006MPS 130V190 9999 SCT046CB 26/11 Q1007 NOSIG RMK QFE743/0990", "lat": 54.775, "lon": 69.183, "elev": 134, "name": "Petropavlovsk Arpt, SE, KZ", "cover": "SCT", "clouds": [{"cover": "SCT", "base": 4600}], "fltCat": "VFR"}, "ZBAA": {"icaoId": "ZBAA", "receiptTime": "2026-06-05T10:05:22.508Z", "obsTime": 1780653600, "reportTime": "2026-06-05T10:00:00.000Z", "temp": 26, "dewp": 8, "wdir": 160, "wspd": 10, "visib": "6+", "altim": 1008, "qcField": 16, "metarType": "METAR", "rawOb": "METAR ZBAA 051000Z 16005MPS CAVOK 26/08 Q1008 NOSIG", "lat": 40.082, "lon": 116.603, "elev": 31, "name": "Beijing Intl, BJ, CN", "cover": "CAVOK", "clouds": [], "fltCat": "VFR"}, "UADD": {"icaoId": "UADD", "receiptTime": "2026-06-05T10:06:05.663Z", "obsTime": 1780653600, "reportTime": "2026-06-05T10:00:00.000Z", "temp": 28, "dewp": 8, "wdir": 20, "wspd": 8, "visib": "6+", "altim": 1013, "qcField": 16, "metarType": "METAR", "rawOb": "METAR UADD 051000Z 02004MPS 350V070 9999 SCT050 BKN100 28/08 Q1013 NOSIG RMK QFE703/0937", "lat": 42.854, "lon": 71.304, "elev": 663, "name": "Taraz Arpt, ZH, KZ", "cover": "BKN", "clouds": [{"cover": "SCT", "base": 5000}, {"cover": "BKN", "base": 10000}], "fltCat": "VFR"}, "PASY": {"icaoId": "PASY", "receiptTime": "2026-06-05T10:24:07.469Z", "obsTime": 1780653180, "reportTime": "2026-06-05T09:53:00.000Z", "temp": 4, "dewp": 3, "wdir": 30, "wspd": 15, "visib": 9, "altim": 1023.5, "slp": 1023.7, "qcField": 14, "metarType": "SPECI", "rawOb": "SPECI PASY 050953Z AUTO 03015KT 9SM OVC005 04/03 A3022 RMK AO2 WSHFT 46 SLP237 $", "lat": 52.711, "lon": 174.107, "elev": 6, "name": "Shemya/Eareckson Arpt, AK, US", "cover": "OVC", "clouds": [{"cover": "OVC", "base": 500}], "fltCat": "IFR"}}}