{"updated": "2026-06-05T07:50:10.123345Z", "count": 230, "stations": {"LMML": {"icaoId": "LMML", "receiptTime": "2026-06-05T06:45:25.109Z", "obsTime": 1780641900, "reportTime": "2026-06-05T07:00:00.000Z", "temp": 25, "dewp": 20, "wdir": 80, "wspd": 6, "visib": "6+", "altim": 1013, "qcField": 16, "metarType": "METAR", "rawOb": "METAR LMML 050645Z 08006KT 050V110 9999 FEW006 25/20 Q1013 NOSIG", "lat": 35.858, "lon": 14.477, "elev": 78, "name": "Malta Intl, LU, MT", "cover": "FEW", "clouds": [{"cover": "FEW", "base": 600}], "fltCat": "VFR"}, "GMFO": {"icaoId": "GMFO", "receiptTime": "2026-06-05T06:36:27.292Z", "obsTime": 1780641000, "reportTime": "2026-06-05T06:30:00.000Z", "temp": 23, "dewp": 6, "wdir": 260, "wspd": 3, "visib": "6+", "altim": 1015, "qcField": 16, "metarType": "METAR", "rawOb": "METAR GMFO 050630Z 26003KT CAVOK 23/06 Q1015 NOSIG", "lat": 34.787, "lon": -1.924, "elev": 452, "name": "Oujda/Angads Arpt, RA, MA", "cover": "CAVOK", "clouds": [], "fltCat": "VFR"}, "DTTA": {"icaoId": "DTTA", "receiptTime": "2026-06-05T06:37:35.443Z", "obsTime": 1780641000, "reportTime": "2026-06-05T06:30:00.000Z", "temp": 25, "dewp": 19, "wdir": 10, "wspd": 4, "visib": "6+", "altim": 1013, "qcField": 0, "metarType": "METAR", "rawOb": "METAR DTTA 050630Z 01004KT 320V060 9999 FEW030 25/19 Q1013", "lat": 36.851, "lon": 10.227, "elev": 4, "name": "Tunis/Carthage Intl, AR, TN", "cover": "FEW", "clouds": [{"cover": "FEW", "base": 3000}], "fltCat": "VFR"}, "LBSF": {"icaoId": "LBSF", "receiptTime": "2026-06-05T06:36:09.422Z", "obsTime": 1780641000, "reportTime": "2026-06-05T06:30:00.000Z", "temp": 17, "dewp": 14, "wdir": "VRB", "wspd": 1, "visib": 4.97, "altim": 1016, "qcField": 0, "metarType": "METAR", "rawOb": "METAR LBSF 050630Z VRB01KT 8000 FEW005 17/14 Q1016 TEMPO FEW007", "lat": 42.694, "lon": 23.414, "elev": 531, "name": "Sofia Intl, SO, BG", "cover": "FEW", "clouds": [{"cover": "FEW", "base": 500}], "fltCat": "MVFR"}, "LFML": {"icaoId": "LFML", "receiptTime": "2026-06-05T06:36:10.136Z", "obsTime": 1780641000, "reportTime": "2026-06-05T06:30:00.000Z", "temp": 17, "dewp": 12, "wdir": 320, "wspd": 16, "visib": "6+", "altim": 1014, "qcField": 2, "metarType": "METAR", "rawOb": "METAR LFML 050630Z AUTO 32016KT CAVOK 17/12 Q1014 TEMPO 33020G30KT", "lat": 43.438, "lon": 5.216, "elev": 20, "name": "Marseille Arpt, PA, FR", "cover": "CAVOK", "clouds": [], "fltCat": "VFR"}, "LFRB": {"icaoId": "LFRB", "receiptTime": "2026-06-05T06:36:10.229Z", "obsTime": 1780641000, "reportTime": "2026-06-05T06:30:00.000Z", "temp": 13, "dewp": 9, "wdir": 240, "wspd": 6, "visib": "6+", "altim": 1015, "qcField": 2, "metarType": "METAR", "rawOb": "METAR LFRB 050630Z AUTO 24006KT CAVOK 13/09 Q1015 TEMPO 4000 SHRA BKN020TCU", "lat": 48.444, "lon": -4.412, "elev": 91, "name": "Brest/Guipavas Arpt, BR, FR", "cover": "CAVOK", "clouds": [], "fltCat": "VFR"}, "UUOO": {"icaoId": "UUOO", "receiptTime": "2026-06-05T06:36:10.475Z", "obsTime": 1780641000, "reportTime": "2026-06-05T06:30:00.000Z", "temp": 22, "dewp": 11, "wdir": 340, "wspd": 6, "visib": "6+", "altim": 1017, "qcField": 16, "metarType": "METAR", "rawOb": "METAR UUOO 050630Z 34003MPS 300V020 CAVOK 22/11 Q1017 R12/010070 NOSIG RMK QFE749", "lat": 51.814, "lon": 39.228, "elev": 154, "name": "Voronez Intl, VO, RU", "cover": "CAVOK", "clouds": [], "fltCat": "VFR"}, "UUYY": {"icaoId": "UUYY", "receiptTime": "2026-06-05T06:36:10.517Z", "obsTime": 1780641000, "reportTime": "2026-06-05T06:30:00.000Z", "temp": 14, "dewp": 5, "wdir": 20, "wspd": 10, "visib": "6+", "altim": 1020, "qcField": 16, "metarType": "METAR", "rawOb": "METAR UUYY 050630Z 02005MPS 9999 BKN038 14/05 Q1020 R36/CLRD61 NOSIG RMK QFE756/1008", "lat": 61.647, "lon": 50.845, "elev": 107, "name": "Syktyvkar Arpt, KO, RU", "cover": "BKN", "clouds": [{"cover": "BKN", "base": 3800}], "fltCat": "VFR"}, "UWGG": {"icaoId": "UWGG", "receiptTime": "2026-06-05T06:36:10.544Z", "obsTime": 1780641000, "reportTime": "2026-06-05T06:30:00.000Z", "temp": 18, "dewp": 10, "wdir": 60, "wspd": 8, "visib": "6+", "altim": 1017, "qcField": 16, "metarType": "METAR", "rawOb": "METAR UWGG 050630Z 06004MPS 9999 SCT032 18/10 Q1017 R36R/090070 NOSIG", "lat": 56.225, "lon": 43.786, "elev": 73, "name": "Nizhny Novgorod Intl, NI, RU", "cover": "SCT", "clouds": [{"cover": "SCT", "base": 3200}], "fltCat": "VFR"}, "UWKD": {"icaoId": "UWKD", "receiptTime": "2026-06-05T07:06:10.320Z", "obsTime": 1780642800, "reportTime": "2026-06-05T07:00:00.000Z", "temp": 18, "dewp": 12, "wdir": 340, "wspd": 10, "visib": "6+", "altim": 1014, "qcField": 16, "metarType": "METAR", "rawOb": "METAR UWKD 050700Z 34005MPS 300V010 9999 SCT023 18/12 Q1014 R29/CLRD70 NOSIG RMK QFE749/0999", "lat": 55.61, "lon": 49.275, "elev": 114, "name": "Kazan Intl, TA, RU", "cover": "SCT", "clouds": [{"cover": "SCT", "base": 2300}], "fltCat": "VFR"}, "UWKE": {"icaoId": "UWKE", "receiptTime": "2026-06-05T06:36:10.580Z", "obsTime": 1780641000, "reportTime": "2026-06-05T06:30:00.000Z", "temp": 19, "dewp": 13, "wdir": 320, "wspd": 12, "visib": "6+", "altim": 1011, "qcField": 16, "metarType": "METAR", "rawOb": "METAR UWKE 050630Z 32006MPS 9999 FEW046 19/13 Q1011 R21/090070 NOSIG RMK QFE742/0989", "lat": 55.566, "lon": 52.1, "elev": 193, "name": "Begishevo Arpt, TA, RU", "cover": "FEW", "clouds": [{"cover": "FEW", "base": 4600}], "fltCat": "VFR"}, "UWOO": {"icaoId": "UWOO", "receiptTime": "2026-06-05T06:36:10.599Z", "obsTime": 1780641000, "reportTime": "2026-06-05T06:30:00.000Z", "temp": 21, "dewp": 14, "wdir": 320, "wspd": 10, "visib": "6+", "altim": 1009, "qcField": 16, "metarType": "METAR", "rawOb": "METAR UWOO 050630Z 32005MPS 9999 BKN030CB 21/14 Q1009 R26/CLRD60 NOSIG RMK QFE746/0995", "lat": 51.795, "lon": 55.457, "elev": 90, "name": "Orenburg Arpt, OR, RU", "cover": "BKN", "clouds": [{"cover": "BKN", "base": 3000}], "fltCat": "MVFR"}, "USPP": {"icaoId": "USPP", "receiptTime": "2026-06-05T06:36:10.701Z", "obsTime": 1780641000, "reportTime": "2026-06-05T06:30:00.000Z", "temp": 14, "dewp": 14, "wdir": 10, "wspd": 8, "visib": "6+", "altim": 1010, "qcField": 0, "wxString": "-RA", "metarType": "METAR", "rawOb": "METAR USPP 050630Z 01004MPS 9999 -RA SCT007 BKN015 14/14 Q1010 R03/290250 TEMPO 0900 +TSRA BKN005 BKN011CB RMK QFE747", "lat": 57.914, "lon": 56.021, "elev": 120, "name": "Perm/Savino Arpt, PE, RU", "cover": "BKN", "clouds": [{"cover": "SCT", "base": 700}, {"cover": "BKN", "base": 1500}], "fltCat": "MVFR"}, "URKK": {"icaoId": "URKK", "receiptTime": "2026-06-05T06:36:10.791Z", "obsTime": 1780641000, "reportTime": "2026-06-05T06:30:00.000Z", "temp": 24, "dewp": 17, "wdir": 360, "wspd": 4, "visib": "6+", "altim": 1015, "qcField": 16, "metarType": "METAR", "rawOb": "METAR URKK 050630Z 36002MPS 310V040 CAVOK 24/17 Q1015 R05R/CLRD70 NOSIG RMK QFE758", "lat": 45.033, "lon": 39.15, "elev": 29, "name": "Krasnodar Arpt, KD, RU", "cover": "CAVOK", "clouds": [], "fltCat": "VFR"}, "URMM": {"icaoId": "URMM", "receiptTime": "2026-06-05T06:36:10.808Z", "obsTime": 1780641000, "reportTime": "2026-06-05T06:30:00.000Z", "temp": 24, "dewp": 12, "wdir": 120, "wspd": 8, "visib": "6+", "altim": 1015, "qcField": 16, "metarType": "METAR", "rawOb": "METAR URMM 050630Z 12004MPS 9999 NSC 24/12 Q1015 R11/010070 NOSIG RMK QFE733/0977", "lat": 44.225, "lon": 43.082, "elev": 318, "name": "Mineralyne Vody Arpt, ST, RU", "cover": "CLR", "clouds": [], "fltCat": "VFR"}, "URWA": {"icaoId": "URWA", "receiptTime": "2026-06-05T06:36:10.872Z", "obsTime": 1780641000, "reportTime": "2026-06-05T06:30:00.000Z", "temp": 27, "dewp": 8, "wdir": 260, "wspd": 8, "visib": "6+", "altim": 1015, "qcField": 16, "metarType": "METAR", "rawOb": "METAR URWA 050630Z 26004MPS 210V310 CAVOK 27/08 Q1015 R27/CLRD70 NOSIG RMK QFE763/1018", "lat": 46.286, "lon": 47.995, "elev": -19, "name": "Astrakhan Arpt, AS, RU", "cover": "CAVOK", "clouds": [], "fltCat": "VFR"}, "URWI": {"icaoId": "URWI", "receiptTime": "2026-06-05T06:36:10.889Z", "obsTime": 1780641000, "reportTime": "2026-06-05T06:30:00.000Z", "temp": 23, "dewp": 11, "wdir": 30, "wspd": 4, "visib": "6+", "altim": 1015, "qcField": 0, "metarType": "METAR", "rawOb": "METAR URWI 050630Z 03002MPS 350V070 9999 FEW025CB 23/11 Q1015 R09/010065 TEMPO 2000 TSGR BKN003 BKN020CB", "lat": 46.374, "lon": 44.331, "elev": 145, "name": "Elista Arpt, KL, RU", "cover": "FEW", "clouds": [{"cover": "FEW", "base": 2500}], "fltCat": "VFR"}, "URWW": {"icaoId": "URWW", "receiptTime": "2026-06-05T06:36:10.908Z", "obsTime": 1780641000, "reportTime": "2026-06-05T06:30:00.000Z", "temp": 24, "dewp": 7, "wdir": 340, "wspd": 4, "visib": "6+", "altim": 1016, "qcField": 0, "metarType": "METAR", "rawOb": "METAR URWW 050630Z 34002MPS 320V020 CAVOK 24/07 Q1016 R23/010070 TEMPO -TSRAGR BKN030CB", "lat": 48.788, "lon": 44.336, "elev": 131, "name": "Volgograd Intl, VG, RU", "cover": "CAVOK", "clouds": [], "fltCat": "VFR"}, "ULLI": {"icaoId": "ULLI", "receiptTime": "2026-06-05T07:06:09.369Z", "obsTime": 1780642800, "reportTime": "2026-06-05T07:00:00.000Z", "temp": 23, "dewp": 13, "wdir": 130, "wspd": 8, "visib": "6+", "altim": 1015, "qcField": 16, "metarType": "METAR", "rawOb": "METAR ULLI 050700Z 13004MPS 090V150 CAVOK 23/13 Q1015 R88/090065 NOSIG", "lat": 59.798, "lon": 30.267, "elev": 25, "name": "St Petersburg/Pulkovo Arpt, LE, RU", "cover": "CAVOK", "clouds": [], "fltCat": "VFR"}, "ULMM": {"icaoId": "ULMM", "receiptTime": "2026-06-05T07:06:09.395Z", "obsTime": 1780642800, "reportTime": "2026-06-05T07:00:00.000Z", "temp": 21, "dewp": 10, "wdir": 240, "wspd": 6, "visib": "6+", "altim": 1010, "qcField": 16, "metarType": "METAR", "rawOb": "METAR ULMM 050700Z 24003MPS 210V280 CAVOK 21/10 Q1010 R31/090070 NOSIG RMK QFE750", "lat": 68.781, "lon": 32.749, "elev": 79, "name": "Murmansk Arpt, MU, RU", "cover": "CAVOK", "clouds": [], "fltCat": "VFR"}, "UARR": {"icaoId": "UARR", "receiptTime": "2026-06-05T06:36:11.066Z", "obsTime": 1780641000, "reportTime": "2026-06-05T06:30:00.000Z", "temp": 24, "dewp": 11, "wdir": 330, "wspd": 8, "visib": "6+", "altim": 1012, "qcField": 16, "metarType": "METAR", "rawOb": "METAR UARR 050630Z 33004MPS 290V020 CAVOK 24/11 Q1012 NOSIG RMK QFE756/1008", "lat": 51.151, "lon": 51.541, "elev": 33, "name": "Uralsk Arpt, ZA, KZ", "cover": "CAVOK", "clouds": [], "fltCat": "VFR"}, "UATE": {"icaoId": "UATE", "receiptTime": "2026-06-05T06:36:11.082Z", "obsTime": 1780641000, "reportTime": "2026-06-05T06:30:00.000Z", "temp": 23, "dewp": 14, "wdir": 230, "wspd": 10, "visib": "6+", "altim": 1017, "qcField": 16, "metarType": "METAR", "rawOb": "METAR UATE 050630Z 23005MPS CAVOK 23/14 Q1017 NOSIG RMK QFE761/1015", "lat": 43.86, "lon": 51.092, "elev": 21, "name": "Aktau Arpt, MA, KZ", "cover": "CAVOK", "clouds": [], "fltCat": "VFR"}, "UATG": {"icaoId": "UATG", "receiptTime": "2026-06-05T06:36:11.101Z", "obsTime": 1780641000, "reportTime": "2026-06-05T06:30:00.000Z", "temp": 25, "dewp": 7, "wdir": 310, "wspd": 8, "visib": "6+", "altim": 1014, "qcField": 16, "metarType": "METAR", "rawOb": "METAR UATG 050630Z 31004MPS CAVOK 25/07 Q1014 NOSIG RMK QFE762/1017", "lat": 47.122, "lon": 51.829, "elev": -23, "name": "Atyrau Arpt, AT, KZ", "cover": "CAVOK", "clouds": [], "fltCat": "VFR"}, "ULAA": {"icaoId": "ULAA", "receiptTime": "2026-06-05T07:06:08.008Z", "obsTime": 1780642800, "reportTime": "2026-06-05T07:00:00.000Z", "temp": 15, "dewp": 6, "wdir": 200, "wspd": 4, "visib": "6+", "altim": 1020, "qcField": 16, "wxString": "-SHRA", "metarType": "METAR", "rawOb": "METAR ULAA 050700Z 20002MPS 160V240 9999 -SHRA BKN031CB 15/06 Q1020 R26/CLRD70 NOSIG RMK QFE763/1018", "lat": 64.599, "lon": 40.712, "elev": 10, "name": "Arhangelsk/Talagi Arpt, AR, RU", "cover": "BKN", "clouds": [{"cover": "BKN", "base": 3100}], "fltCat": "VFR"}, "UUEE": {"icaoId": "UUEE", "receiptTime": "2026-06-05T06:36:11.306Z", "obsTime": 1780641000, "reportTime": "2026-06-05T06:30:00.000Z", "temp": 21, "dewp": 13, "wdir": 90, "wspd": 4, "visib": "6+", "altim": 1018, "qcField": 16, "metarType": "METAR", "rawOb": "METAR UUEE 050630Z 09002MPS 020V160 CAVOK 21/13 Q1018 R06R/CLRD62 R06C/CLRD62 NOSIG", "lat": 55.973, "lon": 37.415, "elev": 186, "name": "Moscow/Sheremetyevo Intl, MO, RU", "cover": "CAVOK", "clouds": [], "fltCat": "VFR"}, "ULOO": {"icaoId": "ULOO", "receiptTime": "2026-06-05T06:36:15.411Z", "obsTime": 1780641000, "reportTime": "2026-06-05T06:30:00.000Z", "temp": 21, "dewp": 14, "wdir": 160, "wspd": 8, "visib": "6+", "altim": 1015, "qcField": 16, "metarType": "METAR", "rawOb": "METAR ULOO 050630Z 16004MPS 120V190 CAVOK 21/14 Q1015 R19/010062 NOSIG RMK QFE757", "lat": 57.79, "lon": 28.397, "elev": 46, "name": "Pskov Arpt, PS, RU", "cover": "CAVOK", "clouds": [], "fltCat": "VFR"}, "URML": {"icaoId": "URML", "receiptTime": "2026-06-05T06:36:15.549Z", "obsTime": 1780641000, "reportTime": "2026-06-05T06:30:00.000Z", "temp": 19, "dewp": 15, "wdir": 150, "wspd": 10, "visib": "6+", "altim": 1016, "qcField": 16, "metarType": "METAR", "rawOb": "METAR URML 050630Z 15005MPS 9999 SCT008 19/15 Q1016 R14/CLRD// NOSIG RMK MT OBSC QFE762/1016", "lat": 42.817, "lon": 47.652, "elev": 4, "name": "Makhachkala/Uytash Arpt, DA, RU", "cover": "SCT", "clouds": [{"cover": "SCT", "base": 800}], "fltCat": "VFR"}, "UZNN": {"icaoId": "UZNN", "receiptTime": "2026-06-05T06:34:36.020Z", "obsTime": 1780641000, "reportTime": "2026-06-05T06:30:00.000Z", "temp": 27, "dewp": 5, "wdir": 260, "wspd": 4, "visib": "6+", "altim": 1015, "qcField": 16, "metarType": "METAR", "rawOb": "METAR UZNN 050630Z 26004KT CAVOK 27/05 Q1015 NOSIG", "lat": 42.488, "lon": 59.623, "elev": 76, "name": "Nukus Arpt, QR, UZ", "cover": "CAVOK", "clouds": [], "fltCat": "VFR"}, "ULWC": {"icaoId": "ULWC", "receiptTime": "2026-06-05T06:34:35.549Z", "obsTime": 1780641000, "reportTime": "2026-06-05T06:30:00.000Z", "temp": 17, "dewp": 9, "wdir": 90, "wspd": 2, "visib": "6+", "altim": 1020, "qcField": 16, "metarType": "METAR", "rawOb": "METAR ULWC 050630Z 09001MPS 9999 SCT026 17/09 Q1020 R21/010060 NOSIG RMK QFE755/1007", "lat": 59.281, "lon": 38.019, "elev": 113, "name": "Botovo/Cherepovets Arpt, VL, RU", "cover": "SCT", "clouds": [{"cover": "SCT", "base": 2600}], "fltCat": "VFR"}, "LCLK": {"icaoId": "LCLK", "receiptTime": "2026-06-05T06:31:13.385Z", "obsTime": 1780641000, "reportTime": "2026-06-05T06:30:00.000Z", "temp": 26, "dewp": 21, "wdir": 80, "wspd": 4, "visib": "6+", "altim": 1014, "qcField": 16, "metarType": "METAR", "rawOb": "METAR LCLK 050630Z 08004KT 060V120 9999 FEW020 26/21 Q1014 NOSIG", "lat": 34.874, "lon": 33.617, "elev": 2, "name": "Larnaca Intl, LA, CY", "cover": "FEW", "clouds": [{"cover": "FEW", "base": 2000}], "fltCat": "VFR"}, "UGTB": {"icaoId": "UGTB", "receiptTime": "2026-06-05T06:34:47.193Z", "obsTime": 1780641000, "reportTime": "2026-06-05T06:30:00.000Z", "temp": 23, "dewp": 14, "wdir": 160, "wspd": 5, "visib": "6+", "altim": 1017, "qcField": 16, "metarType": "METAR", "rawOb": "METAR UGTB 050630Z 16005KT 090V240 CAVOK 23/14 Q1017 NOSIG", "lat": 41.669, "lon": 44.955, "elev": 468, "name": "Tbilisi Intl, TB, GE", "cover": "CAVOK", "clouds": [], "fltCat": "VFR"}, "DAAG": {"icaoId": "DAAG", "receiptTime": "2026-06-05T06:35:53.241Z", "obsTime": 1780641000, "reportTime": "2026-06-05T06:30:00.000Z", "temp": 23, "dewp": 19, "wdir": "VRB", "wspd": 1, "visib": "6+", "altim": 1013, "qcField": 0, "metarType": "METAR", "rawOb": "METAR DAAG 050630Z VRB01KT CAVOK 23/19 Q1013", "lat": 36.691, "lon": 3.215, "elev": 18, "name": "Algiers Intl, BM, DZ", "cover": "CAVOK", "clouds": [], "fltCat": "VFR"}, "DABC": {"icaoId": "DABC", "receiptTime": "2026-06-05T06:35:53.355Z", "obsTime": 1780641000, "reportTime": "2026-06-05T06:30:00.000Z", "temp": 21, "dewp": 14, "wdir": "VRB", "wspd": 2, "visib": "6+", "altim": 1016, "qcField": 0, "metarType": "METAR", "rawOb": "METAR DABC 050630Z VRB02KT CAVOK 21/14 Q1016", "lat": 36.278, "lon": 6.629, "elev": 686, "name": "Constantine/Boudiaf Arpt, CO, DZ", "cover": "CAVOK", "clouds": [], "fltCat": "VFR"}, "LQSA": {"icaoId": "LQSA", "receiptTime": "2026-06-05T06:33:21.751Z", "obsTime": 1780641000, "reportTime": "2026-06-05T06:30:00.000Z", "temp": 14, "dewp": 10, "wdir": 0, "wspd": 0, "visib": "6+", "altim": 1014, "qcField": 16, "metarType": "METAR", "rawOb": "METAR LQSA 050630Z 00000KT CAVOK 14/10 Q1014 NOSIG", "lat": 43.825, "lon": 18.331, "elev": 505, "name": "Sarajevo Intl, BI, BA", "cover": "CAVOK", "clouds": [], "fltCat": "VFR"}, "BIKF": {"icaoId": "BIKF", "receiptTime": "2026-06-05T06:33:21.047Z", "obsTime": 1780641000, "reportTime": "2026-06-05T06:30:00.000Z", "temp": 10, "dewp": 9, "wdir": 140, "wspd": 9, "visib": "6+", "altim": 984, "qcField": 0, "wxString": "-RA", "metarType": "METAR", "rawOb": "METAR BIKF 050630Z 14009KT 9999 -RA SCT010 OVC047 10/09 Q0984", "lat": 63.987, "lon": -22.614, "elev": 49, "name": "Keflavik Intl, SP, IS", "cover": "OVC", "clouds": [{"cover": "SCT", "base": 1000}, {"cover": "OVC", "base": 4700}], "fltCat": "VFR"}, "EIDW": {"icaoId": "EIDW", "receiptTime": "2026-06-05T06:33:33.172Z", "obsTime": 1780641000, "reportTime": "2026-06-05T06:30:00.000Z", "temp": 11, "dewp": 7, "wdir": 220, "wspd": 8, "visib": "6+", "altim": 1007, "qcField": 16, "metarType": "METAR", "rawOb": "METAR EIDW 050630Z 22008KT 190V280 9999 FEW007 SCT020 11/07 Q1007 NOSIG", "lat": 53.422, "lon": -6.298, "elev": 75, "name": "Dublin Arpt, L, IE", "cover": "SCT", "clouds": [{"cover": "FEW", "base": 700}, {"cover": "SCT", "base": 2000}], "fltCat": "VFR"}, "UBBB": {"icaoId": "UBBB", "receiptTime": "2026-06-05T06:31:35.030Z", "obsTime": 1780641000, "reportTime": "2026-06-05T06:30:00.000Z", "temp": 25, "dewp": 10, "wdir": 150, "wspd": 10, "visib": "6+", "altim": 1015, "qcField": 16, "metarType": "METAR", "rawOb": "METAR UBBB 050630Z 15010KT 110V190 CAVOK 25/10 Q1015 NOSIG", "lat": 40.469, "lon": 50.061, "elev": 94, "name": "Baku/Aliyev Intl, BA, AZ", "cover": "CAVOK", "clouds": [], "fltCat": "VFR"}, "UMMS": {"icaoId": "UMMS", "receiptTime": "2026-06-05T06:33:54.206Z", "obsTime": 1780641000, "reportTime": "2026-06-05T06:30:00.000Z", "temp": 20, "dewp": 14, "wdir": 140, "wspd": 8, "visib": "6+", "altim": 1016, "qcField": 16, "metarType": "METAR", "rawOb": "METAR UMMS 050630Z 14004MPS 9999 SCT048 20/14 Q1016 NOSIG", "lat": 53.883, "lon": 28.031, "elev": 196, "name": "Minsk Arpt, MI, BY", "cover": "SCT", "clouds": [{"cover": "SCT", "base": 4800}], "fltCat": "VFR"}, "GCTS": {"icaoId": "GCTS", "receiptTime": "2026-06-05T06:34:23.043Z", "obsTime": 1780641000, "reportTime": "2026-06-05T06:30:00.000Z", "temp": 20, "dewp": 16, "wdir": 10, "wspd": 3, "visib": "6+", "altim": 1019, "qcField": 16, "metarType": "METAR", "rawOb": "METAR GCTS 050630Z 01003KT 330V080 9999 SCT025 20/16 Q1019 NOSIG", "lat": 28.047, "lon": -16.561, "elev": 59, "name": "Tenerife/South Arpt, CR, ES", "cover": "SCT", "clouds": [{"cover": "SCT", "base": 2500}], "fltCat": "VFR"}, "LRCL": {"icaoId": "LRCL", "receiptTime": "2026-06-05T06:34:19.498Z", "obsTime": 1780641000, "reportTime": "2026-06-05T06:30:00.000Z", "temp": 19, "dewp": 17, "wdir": 50, "wspd": 4, "visib": "6+", "altim": 1014, "qcField": 0, "metarType": "METAR", "rawOb": "METAR LRCL 050630Z 05004KT 360V080 9999 FEW006 SCT011 19/17 Q1014", "lat": 46.783, "lon": 23.676, "elev": 313, "name": "Cluj-Napoca Intl, CJ, RO", "cover": "SCT", "clouds": [{"cover": "FEW", "base": 600}, {"cover": "SCT", "base": 1100}], "fltCat": "VFR"}, "LRSM": {"icaoId": "LRSM", "receiptTime": "2026-06-05T06:34:19.625Z", "obsTime": 1780641000, "reportTime": "2026-06-05T06:30:00.000Z", "temp": 21, "dewp": 15, "wdir": 60, "wspd": 3, "visib": "6+", "altim": 1013, "qcField": 0, "metarType": "METAR", "rawOb": "METAR LRSM 050630Z 06003KT 020V080 9999 FEW043 21/15 Q1013", "lat": 47.703, "lon": 22.886, "elev": 123, "name": "Satu Mare Arpt, SM, RO", "cover": "FEW", "clouds": [{"cover": "FEW", "base": 4300}], "fltCat": "VFR"}, "LEAL": {"icaoId": "LEAL", "receiptTime": "2026-06-05T06:34:20.549Z", "obsTime": 1780641000, "reportTime": "2026-06-05T06:30:00.000Z", "temp": 24, "dewp": 20, "wdir": 70, "wspd": 5, "visib": "6+", "altim": 1013, "qcField": 16, "metarType": "METAR", "rawOb": "METAR LEAL 050630Z 07005KT 040V110 9999 FEW017 BKN028 24/20 Q1013 NOSIG", "lat": 38.282, "lon": -0.558, "elev": 26, "name": "Alicante Arpt, VC, ES", "cover": "BKN", "clouds": [{"cover": "FEW", "base": 1700}, {"cover": "BKN", "base": 2800}], "fltCat": "MVFR"}, "LEBL": {"icaoId": "LEBL", "receiptTime": "2026-06-05T06:34:20.612Z", "obsTime": 1780641000, "reportTime": "2026-06-05T06:30:00.000Z", "temp": 18, "dewp": 16, "wdir": 320, "wspd": 3, "visib": 4.97, "altim": 1016, "qcField": 16, "metarType": "METAR", "rawOb": "METAR LEBL 050630Z 32003KT 260V010 8000 FEW015 BKN035 18/16 Q1016 NOSIG", "lat": 41.293, "lon": 2.07, "elev": 2, "name": "Barcelona/Prat Arpt, CT, ES", "cover": "BKN", "clouds": [{"cover": "FEW", "base": 1500}, {"cover": "BKN", "base": 3500}], "fltCat": "MVFR"}, "LEMD": {"icaoId": "LEMD", "receiptTime": "2026-06-05T06:34:20.735Z", "obsTime": 1780641000, "reportTime": "2026-06-05T06:30:00.000Z", "temp": 14, "dewp": 8, "wdir": 10, "wspd": 6, "visib": "6+", "altim": 1016, "qcField": 16, "metarType": "METAR", "rawOb": "METAR LEMD 050630Z 01006KT 330V060 9999 SCT078 14/08 Q1016 NOSIG", "lat": 40.466, "lon": -3.555, "elev": 589, "name": "Madrid/Barajas Arpt, M, ES", "cover": "SCT", "clouds": [{"cover": "SCT", "base": 7800}], "fltCat": "VFR"}, "LEPA": {"icaoId": "LEPA", "receiptTime": "2026-06-05T06:34:20.848Z", "obsTime": 1780641000, "reportTime": "2026-06-05T06:30:00.000Z", "temp": 19, "dewp": 14, "wdir": 70, "wspd": 16, "visib": "6+", "altim": 1015, "qcField": 16, "metarType": "METAR", "rawOb": "METAR LEPA 050630Z 07016KT 9999 FEW014 SCT027 BKN045 19/14 Q1015 NOSIG", "lat": 39.561, "lon": 2.737, "elev": 8, "name": "Palma De Mallorca Arpr, IB, ES", "cover": "BKN", "clouds": [{"cover": "FEW", "base": 1400}, {"cover": "SCT", "base": 2700}, {"cover": "BKN", "base": 4500}], "fltCat": "VFR"}, "LEBB": {"icaoId": "LEBB", "receiptTime": "2026-06-05T07:04:21.652Z", "obsTime": 1780642800, "reportTime": "2026-06-05T07:00:00.000Z", "temp": 15, "dewp": 12, "wdir": "VRB", "wspd": 2, "visib": "6+", "altim": 1020, "qcField": 16, "metarType": "METAR", "rawOb": "METAR LEBB 050700Z VRB02KT CAVOK 15/12 Q1020 NOSIG", "lat": 43.298, "lon": -2.906, "elev": 38, "name": "Bilbao Arpt, PV, ES", "cover": "CAVOK", "clouds": [], "fltCat": "VFR"}, "LECO": {"icaoId": "LECO", "receiptTime": "2026-06-05T06:36:27.589Z", "obsTime": 1780641000, "reportTime": "2026-06-05T06:30:00.000Z", "temp": 10, "dewp": 8, "wdir": 160, "wspd": 3, "visib": "6+", "altim": 1019, "qcField": 16, "metarType": "METAR", "rawOb": "METAR LECO 050630Z 16003KT 110V190 CAVOK 10/08 Q1019 NOSIG", "lat": 43.307, "lon": -8.372, "elev": 80, "name": "A Coru\u00f1a Arpt, GA, ES", "cover": "CAVOK", "clouds": [], "fltCat": "VFR"}, "LROP": {"icaoId": "LROP", "receiptTime": "2026-06-05T07:04:16.232Z", "obsTime": 1780642800, "reportTime": "2026-06-05T07:00:00.000Z", "temp": 20, "dewp": 17, "wdir": "VRB", "wspd": 3, "visib": "6+", "altim": 1015, "qcField": 16, "metarType": "METAR", "rawOb": "METAR LROP 050700Z VRB03KT 9999 BKN009 20/17 Q1015 NOSIG", "lat": 44.572, "lon": 26.102, "elev": 92, "name": "Bucharest/Coand\u0103 Intl, B, RO", "cover": "BKN", "clouds": [{"cover": "BKN", "base": 900}], "fltCat": "IFR"}, "UWSG": {"icaoId": "UWSG", "receiptTime": "2026-06-05T06:34:27.286Z", "obsTime": 1780641000, "reportTime": "2026-06-05T06:30:00.000Z", "temp": 22, "dewp": 14, "wdir": 290, "wspd": 6, "visib": "6+", "altim": 1014, "qcField": 16, "metarType": "METAR", "rawOb": "METAR UWSG 050630Z 29003MPS 250V320 9999 SCT046 22/14 Q1014 R26/CLRD63 NOSIG RMK QFE758/1010", "lat": 51.713, "lon": 46.171, "elev": 31, "name": "Saratov/Gagarin Arpt, SA, RU", "cover": "SCT", "clouds": [{"cover": "SCT", "base": 4600}], "fltCat": "VFR"}, "LPPR": {"icaoId": "LPPR", "receiptTime": "2026-06-05T06:34:36.662Z", "obsTime": 1780641000, "reportTime": "2026-06-05T06:30:00.000Z", "temp": 12, "dewp": 9, "wdir": 20, "wspd": 3, "visib": "6+", "altim": 1019, "qcField": 0, "metarType": "METAR", "rawOb": "METAR LPPR 050630Z 02003KT 340V070 CAVOK 12/09 Q1019", "lat": 41.235, "lon": -8.684, "elev": 64, "name": "Porto/Cameriro Arpt, PT, PT", "cover": "CAVOK", "clouds": [], "fltCat": "VFR"}, "LPPS": {"icaoId": "LPPS", "receiptTime": "2026-06-05T06:34:36.737Z", "obsTime": 1780641000, "reportTime": "2026-06-05T06:30:00.000Z", "temp": 18, "dewp": 14, "wdir": 10, "wspd": 11, "visib": "6+", "altim": 1022, "qcField": 0, "metarType": "METAR", "rawOb": "METAR LPPS 050630Z 01011KT 9999 SCT015 18/14 Q1022", "lat": 33.073, "lon": -16.35, "elev": 89, "name": "Porto Santo Isl Arpt, MD, PT", "cover": "SCT", "clouds": [{"cover": "SCT", "base": 1500}], "fltCat": "VFR"}, "LPPT": {"icaoId": "LPPT", "receiptTime": "2026-06-05T06:34:36.792Z", "obsTime": 1780641000, "reportTime": "2026-06-05T06:30:00.000Z", "temp": 14, "dewp": 9, "wdir": 360, "wspd": 8, "visib": "6+", "altim": 1019, "qcField": 0, "metarType": "METAR", "rawOb": "METAR LPPT 050630Z 36008KT 310V030 9999 FEW025 14/09 Q1019", "lat": 38.781, "lon": -9.136, "elev": 98, "name": "Lisbon Arpt, LI, PT", "cover": "FEW", "clouds": [{"cover": "FEW", "base": 2500}], "fltCat": "VFR"}, "ULPB": {"icaoId": "ULPB", "receiptTime": "2026-06-05T06:34:26.231Z", "obsTime": 1780641000, "reportTime": "2026-06-05T06:30:00.000Z", "temp": 16, "dewp": 10, "wdir": 110, "wspd": 6, "visib": "6+", "altim": 1018, "qcField": 16, "metarType": "METAR", "rawOb": "METAR ULPB 050630Z 11003MPS 070V150 CAVOK 16/10 Q1018 R01/090065 NOSIG RMK QFE760/1013", "lat": 61.885, "lon": 34.155, "elev": 41, "name": "Petrozavodsk Arpt, KR, RU", "cover": "CAVOK", "clouds": [], "fltCat": "VFR"}, "LPAZ": {"icaoId": "LPAZ", "receiptTime": "2026-06-05T07:04:31.888Z", "obsTime": 1780642800, "reportTime": "2026-06-05T07:00:00.000Z", "temp": 19, "dewp": 18, "wdir": 260, "wspd": 11, "visib": "6+", "altim": 1025, "qcField": 0, "metarType": "METAR", "rawOb": "METAR LPAZ 050700Z 26011KT 9999 BKN007 19/18 Q1025", "lat": 36.971, "lon": -25.171, "elev": 96, "name": "Santa Maria Island Arpt, AZ, PT", "cover": "BKN", "clouds": [{"cover": "BKN", "base": 700}], "fltCat": "IFR"}, "USCM": {"icaoId": "USCM", "receiptTime": "2026-06-05T06:34:38.072Z", "obsTime": 1780641000, "reportTime": "2026-06-05T06:30:00.000Z", "temp": 16, "dewp": 11, "wdir": 320, "wspd": 8, "visib": "6+", "altim": 1006, "qcField": 16, "metarType": "METAR", "rawOb": "METAR USCM 050630Z 32004MPS 9999 BKN040CB 16/11 Q1006 R36/090060 NOSIG RMK QFE716", "lat": 53.393, "lon": 58.756, "elev": 425, "name": "Magnitogorsk Intl, BA, RU", "cover": "BKN", "clouds": [{"cover": "BKN", "base": 4000}], "fltCat": "VFR"}, "LRCV": {"icaoId": "LRCV", "receiptTime": "2026-06-05T06:34:21.821Z", "obsTime": 1780641000, "reportTime": "2026-06-05T06:30:00.000Z", "temp": 17, "dewp": 17, "wdir": 80, "wspd": 4, "visib": 0.93, "altim": 1015, "qcField": 0, "wxString": "BCFG BR", "metarType": "METAR", "rawOb": "METAR LRCV 050630Z 08004KT 040V130 1500 0700E R26/1600D BR BCFG OVC002 17/17 Q1015", "lat": 44.31, "lon": 23.867, "elev": 192, "name": "Craiova Arpt, DO, RO", "cover": "OVC", "clouds": [{"cover": "OVC", "base": 200}], "fltCat": "LIFR"}, "LRSV": {"icaoId": "LRSV", "receiptTime": "2026-06-05T06:34:21.947Z", "obsTime": 1780641000, "reportTime": "2026-06-05T06:30:00.000Z", "temp": 19, "dewp": 17, "wdir": 140, "wspd": 7, "visib": "6+", "altim": 1014, "qcField": 0, "metarType": "METAR", "rawOb": "METAR LRSV 050630Z 14007KT 9999 SCT009 19/17 Q1014", "lat": 47.686, "lon": 26.354, "elev": 406, "name": "Suceava/Salcea Arpt, BV, RO", "cover": "SCT", "clouds": [{"cover": "SCT", "base": 900}], "fltCat": "VFR"}, "LYBE": {"icaoId": "LYBE", "receiptTime": "2026-06-05T06:33:21.110Z", "obsTime": 1780641000, "reportTime": "2026-06-05T06:30:00.000Z", "temp": 21, "dewp": 14, "wdir": 120, "wspd": 6, "visib": "6+", "altim": 1012, "qcField": 16, "metarType": "METAR", "rawOb": "METAR LYBE 050630Z 12006KT 090V150 CAVOK 21/14 Q1012 NOSIG", "lat": 44.824, "lon": 20.291, "elev": 93, "name": "Belgrade/Tesla Arpt, BE, RS", "cover": "CAVOK", "clouds": [], "fltCat": "VFR"}, "LYTV": {"icaoId": "LYTV", "receiptTime": "2026-06-05T06:33:21.414Z", "obsTime": 1780641000, "reportTime": "2026-06-05T06:30:00.000Z", "temp": 21, "dewp": 18, "wdir": 0, "wspd": 0, "visib": "6+", "altim": 1013, "qcField": 16, "metarType": "METAR", "rawOb": "METAR LYTV 050630Z 00000KT 9999 FEW040 21/18 Q1013 NOSIG", "lat": 42.405, "lon": 18.723, "elev": 3, "name": "Tivat Arpt, TI, ME", "cover": "FEW", "clouds": [{"cover": "FEW", "base": 4000}], "fltCat": "VFR"}, "EPWA": {"icaoId": "EPWA", "receiptTime": "2026-06-05T06:32:22.174Z", "obsTime": 1780641000, "reportTime": "2026-06-05T06:30:00.000Z", "temp": 18, "dewp": 17, "wdir": 170, "wspd": 4, "visib": 4.35, "altim": 1010, "qcField": 16, "metarType": "METAR", "rawOb": "METAR EPWA 050630Z 17004KT 140V200 7000 FEW005 18/17 Q1010 NOSIG", "lat": 52.163, "lon": 20.961, "elev": 107, "name": "Warsaw/Chopin Arpt, MZ, PL", "cover": "FEW", "clouds": [{"cover": "FEW", "base": 500}], "fltCat": "MVFR"}, "EPPO": {"icaoId": "EPPO", "receiptTime": "2026-06-05T06:32:22.012Z", "obsTime": 1780641000, "reportTime": "2026-06-05T06:30:00.000Z", "temp": 15, "dewp": 14, "wdir": 260, "wspd": 7, "visib": "6+", "altim": 1011, "qcField": 0, "wxString": "-RA", "metarType": "METAR", "rawOb": "METAR EPPO 050630Z 26007KT 9999 -RA FEW006 15/14 Q1011", "lat": 52.417, "lon": 16.835, "elev": 87, "name": "Pozna\u0144/\u0141awica Arpt, WP, PL", "cover": "FEW", "clouds": [{"cover": "FEW", "base": 600}], "fltCat": "VFR"}, "EPKK": {"icaoId": "EPKK", "receiptTime": "2026-06-05T06:32:21.855Z", "obsTime": 1780641000, "reportTime": "2026-06-05T06:30:00.000Z", "temp": 17, "dewp": 15, "wdir": 80, "wspd": 3, "visib": "6+", "altim": 1010, "qcField": 0, "metarType": "METAR", "rawOb": "METAR EPKK 050630Z 08003KT CAVOK 17/15 Q1010", "lat": 50.078, "lon": 19.797, "elev": 237, "name": "Krak\u00f3w/Paul II Arpt, ML, PL", "cover": "CAVOK", "clouds": [], "fltCat": "VFR"}, "EPGD": {"icaoId": "EPGD", "receiptTime": "2026-06-05T06:32:21.788Z", "obsTime": 1780641000, "reportTime": "2026-06-05T06:30:00.000Z", "temp": 17, "dewp": 13, "wdir": 280, "wspd": 11, "visib": "6+", "altim": 1009, "qcField": 0, "wxString": "-RA", "metarType": "METAR", "rawOb": "METAR EPGD 050630Z 28011KT 9999 -RA FEW015 17/13 Q1009", "lat": 54.379, "lon": 18.466, "elev": 136, "name": "Gda\u0144sk/Wa\u0142\u0119sa Arpt, PM, PL", "cover": "FEW", "clouds": [{"cover": "FEW", "base": 1500}], "fltCat": "VFR"}, "LFLC": {"icaoId": "LFLC", "receiptTime": "2026-06-05T06:32:19.602Z", "obsTime": 1780641000, "reportTime": "2026-06-05T06:30:00.000Z", "temp": 15, "dewp": 8, "wdir": 90, "wspd": 4, "visib": "6+", "altim": 1018, "qcField": 18, "metarType": "METAR", "rawOb": "METAR LFLC 050630Z AUTO 09004KT 050V110 CAVOK 15/08 Q1018 NOSIG", "lat": 45.787, "lon": 3.169, "elev": 325, "name": "Clermont-Ferrand/Auvergne Arpt, AR, FR", "cover": "CAVOK", "clouds": [], "fltCat": "VFR"}, "LFKB": {"icaoId": "LFKB", "receiptTime": "2026-06-05T06:32:17.190Z", "obsTime": 1780641000, "reportTime": "2026-06-05T06:30:00.000Z", "temp": 23, "dewp": 18, "wdir": 340, "wspd": 5, "visib": "6+", "altim": 1010, "qcField": 18, "metarType": "METAR", "rawOb": "METAR LFKB 050630Z AUTO 34005KT 300V050 CAVOK 23/18 Q1010 NOSIG", "lat": 42.553, "lon": 9.484, "elev": 7, "name": "Bastia/Poretta Arpt, OC, FR", "cover": "CAVOK", "clouds": [], "fltCat": "VFR"}, "LDSP": {"icaoId": "LDSP", "receiptTime": "2026-06-05T06:31:20.172Z", "obsTime": 1780641000, "reportTime": "2026-06-05T06:30:00.000Z", "temp": 22, "dewp": 14, "wdir": 120, "wspd": 3, "visib": "6+", "altim": 1012, "qcField": 16, "metarType": "METAR", "rawOb": "METAR LDSP 050630Z 12003KT 090V170 CAVOK 22/14 Q1012 NOSIG", "lat": 43.539, "lon": 16.301, "elev": 16, "name": "Split Arpt, SP, HR", "cover": "CAVOK", "clouds": [], "fltCat": "VFR"}, "LDZA": {"icaoId": "LDZA", "receiptTime": "2026-06-05T06:31:20.290Z", "obsTime": 1780641000, "reportTime": "2026-06-05T06:30:00.000Z", "temp": 19, "dewp": 13, "wdir": "VRB", "wspd": 1, "visib": "6+", "altim": 1011, "qcField": 16, "metarType": "METAR", "rawOb": "METAR LDZA 050630Z VRB01KT CAVOK 19/13 Q1011 NOSIG", "lat": 45.729, "lon": 16.054, "elev": 103, "name": "Zagreb/Tu\u0111man Intl, ZA, HR", "cover": "CAVOK", "clouds": [], "fltCat": "VFR"}, "OIAW": {"icaoId": "OIAW", "receiptTime": "2026-06-05T06:32:20.085Z", "obsTime": 1780641000, "reportTime": "2026-06-05T06:30:00.000Z", "temp": 39, "dewp": 5, "wdir": 320, "wspd": 10, "wgst": 19, "visib": "6+", "altim": 1005, "qcField": 0, "metarType": "METAR", "rawOb": "METAR OIAW 050630Z 32010G19KT CAVOK 39/05 Q1005", "lat": 31.343, "lon": 48.751, "elev": 25, "name": "Ahwaz Arpt, KZ, IR", "cover": "CAVOK", "clouds": [], "fltCat": "VFR"}, "OIFM": {"icaoId": "OIFM", "receiptTime": "2026-06-05T06:32:20.134Z", "obsTime": 1780641000, "reportTime": "2026-06-05T06:30:00.000Z", "temp": 30, "dewp": 1, "wdir": 0, "wspd": 0, "visib": "6+", "altim": 1017, "qcField": 0, "metarType": "METAR", "rawOb": "METAR OIFM 050630Z 00000KT CAVOK 30/01 Q1017 A3005", "lat": 32.752, "lon": 51.866, "elev": 1539, "name": "Esfahan Intl, EF, IR", "cover": "CAVOK", "clouds": [], "fltCat": "VFR"}, "OISS": {"icaoId": "OISS", "receiptTime": "2026-06-05T06:32:20.332Z", "obsTime": 1780641000, "reportTime": "2026-06-05T06:30:00.000Z", "temp": 33, "dewp": 1, "wdir": 330, "wspd": 6, "visib": "6+", "altim": 1016, "qcField": 0, "metarType": "METAR", "rawOb": "METAR OISS 050630Z 33006KT CAVOK 33/01 Q1016 A3001", "lat": 29.539, "lon": 52.59, "elev": 1484, "name": "Shiraz Intl, FA, IR", "cover": "CAVOK", "clouds": [], "fltCat": "VFR"}, "OITT": {"icaoId": "OITT", "receiptTime": "2026-06-05T06:32:20.377Z", "obsTime": 1780641000, "reportTime": "2026-06-05T06:30:00.000Z", "temp": 25, "dewp": 9, "wdir": 120, "wspd": 3, "visib": "6+", "altim": 1019, "qcField": 0, "metarType": "METAR", "rawOb": "METAR OITT 050630Z 12003KT 9999 FEW030TCU 25/09 Q1019 A3009", "lat": 38.13, "lon": 46.24, "elev": 1353, "name": "Tabriz Intl, EA, IR", "cover": "FEW", "clouds": [{"cover": "FEW", "base": 3000}], "fltCat": "VFR"}, "LHBP": {"icaoId": "LHBP", "receiptTime": "2026-06-05T06:31:19.504Z", "obsTime": 1780641000, "reportTime": "2026-06-05T06:30:00.000Z", "temp": 19, "dewp": 13, "wdir": 150, "wspd": 4, "visib": "6+", "altim": 1012, "qcField": 16, "metarType": "METAR", "rawOb": "METAR LHBP 050630Z 15004KT 100V200 CAVOK 19/13 Q1012 NOSIG", "lat": 47.437, "lon": 19.256, "elev": 141, "name": "Budapest/Liszt Intl, BU, HU", "cover": "CAVOK", "clouds": [], "fltCat": "VFR"}, "LKPR": {"icaoId": "LKPR", "receiptTime": "2026-06-05T06:32:22.411Z", "obsTime": 1780641000, "reportTime": "2026-06-05T06:30:00.000Z", "temp": 12, "dewp": 12, "wdir": 230, "wspd": 8, "visib": "6+", "altim": 1013, "qcField": 16, "wxString": "-RA", "metarType": "METAR", "rawOb": "METAR LKPR 050630Z 23008KT 9999 -RA FEW010 12/12 Q1013 NOSIG", "lat": 50.101, "lon": 14.26, "elev": 364, "name": "Prague/Havel Arpt, ST, CZ", "cover": "FEW", "clouds": [{"cover": "FEW", "base": 1000}], "fltCat": "VFR"}, "GMMN": {"icaoId": "GMMN", "receiptTime": "2026-06-05T06:32:18.233Z", "obsTime": 1780641000, "reportTime": "2026-06-05T06:30:00.000Z", "temp": 18, "dewp": 15, "wdir": 360, "wspd": 6, "visib": "6+", "altim": 1016, "qcField": 16, "metarType": "METAR", "rawOb": "METAR GMMN 050630Z 36006KT 330V030 9999 SCT020 18/15 Q1016 NOSIG", "lat": 33.367, "lon": -7.59, "elev": 196, "name": "Casablanca Intl, ME, MA", "cover": "SCT", "clouds": [{"cover": "SCT", "base": 2000}], "fltCat": "VFR"}, "GMMX": {"icaoId": "GMMX", "receiptTime": "2026-06-05T06:32:18.326Z", "obsTime": 1780641000, "reportTime": "2026-06-05T06:30:00.000Z", "temp": 17, "dewp": 14, "wdir": 250, "wspd": 4, "visib": "6+", "altim": 1016, "qcField": 16, "metarType": "METAR", "rawOb": "METAR GMMX 050630Z 25004KT 210V280 9999 FEW040 BKN200 17/14 Q1016 NOSIG", "lat": 31.607, "lon": -8.036, "elev": 465, "name": "Marrakesh/Menara Intl, ME, MA", "cover": "BKN", "clouds": [{"cover": "FEW", "base": 4000}, {"cover": "BKN", "base": 20000}], "fltCat": "VFR"}, "LFRN": {"icaoId": "LFRN", "receiptTime": "2026-06-05T06:34:20.495Z", "obsTime": 1780641000, "reportTime": "2026-06-05T06:30:00.000Z", "temp": 12, "dewp": 9, "wdir": 250, "wspd": 5, "visib": "6+", "altim": 1016, "qcField": 18, "metarType": "METAR", "rawOb": "METAR LFRN 050630Z AUTO 25005KT 210V280 CAVOK 12/09 Q1016 NOSIG", "lat": 48.069, "lon": -1.734, "elev": 35, "name": "Rennes/St Jacques Arpt, BR, FR", "cover": "CAVOK", "clouds": [], "fltCat": "VFR"}, "LFSN": {"icaoId": "LFSN", "receiptTime": "2026-06-05T06:32:23.907Z", "obsTime": 1780641000, "reportTime": "2026-06-05T06:30:00.000Z", "temp": 14, "dewp": 10, "wdir": 270, "wspd": 6, "visib": "6+", "altim": 1015, "qcField": 2, "metarType": "METAR", "rawOb": "METAR LFSN 050630Z AUTO 27006KT 230V330 CAVOK 14/10 Q1015", "lat": 48.692, "lon": 6.231, "elev": 214, "name": "Nancy/Essey Arpt, GE, FR", "cover": "CAVOK", "clouds": [], "fltCat": "VFR"}, "HECA": {"icaoId": "HECA", "receiptTime": "2026-06-05T05:56:44.180Z", "obsTime": 1780641000, "reportTime": "2026-06-05T06:30:00.000Z", "temp": 28, "dewp": 9, "wdir": 70, "wspd": 14, "visib": "6+", "altim": 1014, "qcField": 16, "metarType": "METAR", "rawOb": "METAR HECA 050630Z 07014KT CAVOK 28/09 Q1014 NOSIG", "lat": 30.133, "lon": 31.405, "elev": 142, "name": "Cairo Intl, QH, EG", "cover": "CAVOK", "clouds": [], "fltCat": "VFR"}, "LFBD": {"icaoId": "LFBD", "receiptTime": "2026-06-05T06:36:09.886Z", "obsTime": 1780641000, "reportTime": "2026-06-05T06:30:00.000Z", "temp": 13, "dewp": 11, "wdir": 210, "wspd": 6, "visib": "6+", "altim": 1018, "qcField": 2, "metarType": "METAR", "rawOb": "METAR LFBD 050630Z AUTO 21006KT 9999 FEW039/// SCT049/// OVC080/// ///TCU 13/11 Q1018 TEMPO 4000 -SHRA", "lat": 44.831, "lon": -0.691, "elev": 48, "name": "Bordeaux/M\u00e9rignac Arpt, NA, FR", "cover": "OVC", "clouds": [{"cover": "FEW", "base": 3900}, {"cover": "SCT", "base": 4900}, {"cover": "OVC", "base": 8000}], "fltCat": "VFR"}, "LFPO": {"icaoId": "LFPO", "receiptTime": "2026-06-05T06:32:14.542Z", "obsTime": 1780641000, "reportTime": "2026-06-05T06:30:00.000Z", "temp": 13, "dewp": 9, "wdir": 240, "wspd": 6, "visib": "6+", "altim": 1015, "qcField": 16, "metarType": "METAR", "rawOb": "METAR LFPO 050630Z 24006KT 180V270 9999 FEW014 BKN070 13/09 Q1015 NOSIG", "lat": 48.717, "lon": 2.384, "elev": 88, "name": "Paris/Orly Fld, ID, FR", "cover": "BKN", "clouds": [{"cover": "FEW", "base": 1400}, {"cover": "BKN", "base": 7000}], "fltCat": "VFR"}, "EHAM": {"icaoId": "EHAM", "receiptTime": "2026-06-05T06:57:21.932Z", "obsTime": 1780642500, "reportTime": "2026-06-05T07:00:00.000Z", "temp": 16, "dewp": 11, "wdir": 270, "wspd": 12, "visib": "6+", "altim": 1008, "qcField": 16, "metarType": "METAR", "rawOb": "METAR EHAM 050655Z 27012KT 9999 SCT017 16/11 Q1008 NOSIG", "lat": 52.315, "lon": 4.79, "elev": -2, "name": "Amsterdam/Schiphol Arpt, NH, NL", "cover": "SCT", "clouds": [{"cover": "SCT", "base": 1700}], "fltCat": "VFR"}, "LIMC": {"icaoId": "LIMC", "receiptTime": "2026-06-05T06:55:28.052Z", "obsTime": 1780642200, "reportTime": "2026-06-05T07:00:00.000Z", "temp": 17, "dewp": 13, "wdir": 340, "wspd": 7, "visib": "6+", "altim": 1010, "qcField": 16, "metarType": "METAR", "rawOb": "METAR LIMC 050650Z 34007KT CAVOK 17/13 Q1010 NOSIG", "lat": 45.631, "lon": 8.728, "elev": 221, "name": "Milan/Malpensa Arpt, MI, IT", "cover": "CAVOK", "clouds": [], "fltCat": "VFR"}, "LIRF": {"icaoId": "LIRF", "receiptTime": "2026-06-05T06:55:28.344Z", "obsTime": 1780642200, "reportTime": "2026-06-05T07:00:00.000Z", "temp": 22, "dewp": 18, "wdir": 150, "wspd": 5, "visib": "6+", "altim": 1012, "qcField": 16, "metarType": "METAR", "rawOb": "METAR LIRF 050650Z 15005KT 100V200 9999 SCT015 22/18 Q1012 NOSIG", "lat": 41.8, "lon": 12.239, "elev": 2, "name": "Rome/Fiumicino, RM, IT", "cover": "SCT", "clouds": [{"cover": "SCT", "base": 1500}], "fltCat": "VFR"}, "LIRN": {"icaoId": "LIRN", "receiptTime": "2026-06-05T06:55:28.388Z", "obsTime": 1780642200, "reportTime": "2026-06-05T07:00:00.000Z", "temp": 24, "dewp": 17, "wdir": 170, "wspd": 5, "visib": "6+", "altim": 1013, "qcField": 16, "metarType": "METAR", "rawOb": "METAR LIRN 050650Z 17005KT 110V260 9999 SCT025 24/17 Q1013 NOSIG", "lat": 40.885, "lon": 14.292, "elev": 76, "name": "Naples Intl, NA, IT", "cover": "SCT", "clouds": [{"cover": "SCT", "base": 2500}], "fltCat": "VFR"}, "LIEE": {"icaoId": "LIEE", "receiptTime": "2026-06-05T06:55:27.964Z", "obsTime": 1780642200, "reportTime": "2026-06-05T07:00:00.000Z", "temp": 22, "dewp": 16, "wdir": 330, "wspd": 4, "visib": "6+", "altim": 1013, "qcField": 0, "metarType": "METAR", "rawOb": "METAR LIEE 050650Z 33004KT 280V010 CAVOK 22/16 Q1013", "lat": 39.243, "lon": 9.06, "elev": 1, "name": "Cagliari/Elmas Arpt, CA, IT", "cover": "CAVOK", "clouds": [], "fltCat": "VFR"}, "ESGG": {"icaoId": "ESGG", "receiptTime": "2026-06-05T06:54:27.943Z", "obsTime": 1780642200, "reportTime": "2026-06-05T07:00:00.000Z", "temp": 14, "dewp": 12, "wdir": 210, "wspd": 13, "visib": "6+", "altim": 1003, "qcField": 0, "wxString": "VCSH", "metarType": "METAR", "rawOb": "METAR ESGG 050650Z 21013KT 9999 VCSH BKN013CB 14/12 Q1003 RERA", "lat": 57.667, "lon": 12.285, "elev": 152, "name": "G\u00f6teborg/Landvetter Arpt, O, SE", "cover": "BKN", "clouds": [{"cover": "BKN", "base": 1300}], "fltCat": "MVFR"}, "ESSV": {"icaoId": "ESSV", "receiptTime": "2026-06-05T06:54:27.780Z", "obsTime": 1780642200, "reportTime": "2026-06-05T07:00:00.000Z", "temp": 17, "dewp": 14, "wdir": 200, "wspd": 15, "visib": "6+", "altim": 1006, "qcField": 0, "metarType": "METAR", "rawOb": "METAR ESSV 050650Z 20015KT 9999 SCT012 17/14 Q1006", "lat": 57.662, "lon": 18.348, "elev": 38, "name": "Visby Arpt, I, SE", "cover": "SCT", "clouds": [{"cover": "SCT", "base": 1200}], "fltCat": "VFR"}, "EGHC": {"icaoId": "EGHC", "receiptTime": "2026-06-05T06:54:09.054Z", "obsTime": 1780642200, "reportTime": "2026-06-05T07:00:00.000Z", "temp": 12, "dewp": 9, "wdir": 240, "wspd": 7, "visib": "6+", "altim": 1012, "qcField": 0, "wxString": "VCSH", "metarType": "METAR", "rawOb": "METAR EGHC 050650Z 24007KT 210V270 9999 VCSH FEW010 SCT020 12/09 Q1012", "lat": 50.103, "lon": -5.671, "elev": 117, "name": "Penzance/Lands End Arpt, EN, GB", "cover": "SCT", "clouds": [{"cover": "FEW", "base": 1000}, {"cover": "SCT", "base": 2000}], "fltCat": "VFR"}, "LGAV": {"icaoId": "LGAV", "receiptTime": "2026-06-05T06:54:37.016Z", "obsTime": 1780642200, "reportTime": "2026-06-05T07:00:00.000Z", "temp": 24, "dewp": 15, "wdir": "VRB", "wspd": 3, "visib": "6+", "altim": 1013, "qcField": 16, "metarType": "METAR", "rawOb": "METAR LGAV 050650Z VRB03KT 9999 FEW030 24/15 Q1013 NOSIG", "lat": 37.936, "lon": 23.945, "elev": 83, "name": "Athens/Venizelos Intl, I, GR", "cover": "FEW", "clouds": [{"cover": "FEW", "base": 3000}], "fltCat": "VFR"}, "LGIR": {"icaoId": "LGIR", "receiptTime": "2026-06-05T06:54:37.055Z", "obsTime": 1780642200, "reportTime": "2026-06-05T07:00:00.000Z", "temp": 26, "dewp": 13, "wdir": 30, "wspd": 5, "visib": "6+", "altim": 1013, "qcField": 16, "metarType": "METAR", "rawOb": "METAR LGIR 050650Z 03005KT CAVOK 26/13 Q1013 NOSIG", "lat": 35.337, "lon": 25.173, "elev": 37, "name": "Iraklion Intl, M, GR", "cover": "CAVOK", "clouds": [], "fltCat": "VFR"}, "LGKR": {"icaoId": "LGKR", "receiptTime": "2026-06-05T06:54:37.096Z", "obsTime": 1780642200, "reportTime": "2026-06-05T07:00:00.000Z", "temp": 22, "dewp": 18, "wdir": 40, "wspd": 5, "visib": "6+", "altim": 1013, "qcField": 16, "metarType": "METAR", "rawOb": "METAR LGKR 050650Z 04005KT 9999 FEW018 22/18 Q1013 NOSIG", "lat": 39.61, "lon": 19.913, "elev": 2, "name": "Corfu/Kapodistinas Arpt, L, GR", "cover": "FEW", "clouds": [{"cover": "FEW", "base": 1800}], "fltCat": "VFR"}, "LGRP": {"icaoId": "LGRP", "receiptTime": "2026-06-05T06:54:37.137Z", "obsTime": 1780642200, "reportTime": "2026-06-05T07:00:00.000Z", "temp": 24, "dewp": 15, "wdir": 280, "wspd": 4, "visib": "6+", "altim": 1012, "qcField": 16, "metarType": "METAR", "rawOb": "METAR LGRP 050650Z 28004KT 9999 FEW018 24/15 Q1012 NOSIG", "lat": 36.405, "lon": 28.086, "elev": 3, "name": "Rhodes/Diagoras Arpt, K, GR", "cover": "FEW", "clouds": [{"cover": "FEW", "base": 1800}], "fltCat": "VFR"}, "EBBR": {"icaoId": "EBBR", "receiptTime": "2026-06-05T06:55:10.310Z", "obsTime": 1780642200, "reportTime": "2026-06-05T07:00:00.000Z", "temp": 15, "dewp": 11, "wdir": 250, "wspd": 11, "visib": "6+", "altim": 1011, "qcField": 17, "metarType": "METAR", "rawOb": "METAR EBBR 050650Z COR 25011KT 9999 FEW015 BKN020 15/11 Q1011 NOSIG", "lat": 50.896, "lon": 4.526, "elev": 49, "name": "Brussels Intl, VL, BE", "cover": "BKN", "clouds": [{"cover": "FEW", "base": 1500}, {"cover": "BKN", "base": 2000}], "fltCat": "MVFR"}, "LGTS": {"icaoId": "LGTS", "receiptTime": "2026-06-05T06:55:19.417Z", "obsTime": 1780642200, "reportTime": "2026-06-05T07:00:00.000Z", "temp": 22, "dewp": 17, "wdir": "VRB", "wspd": 2, "visib": "6+", "altim": 1013, "qcField": 16, "metarType": "METAR", "rawOb": "METAR LGTS 050650Z VRB02KT 9999 FEW025 22/17 Q1013 NOSIG", "lat": 40.52, "lon": 22.971, "elev": 4, "name": "Thessaloniki Intl, A, GR", "cover": "FEW", "clouds": [{"cover": "FEW", "base": 2500}], "fltCat": "VFR"}, "LTDB": {"icaoId": "LTDB", "receiptTime": "2026-06-05T06:55:22.519Z", "obsTime": 1780642200, "reportTime": "2026-06-05T07:00:00.000Z", "temp": 26, "dewp": 19, "wdir": "VRB", "wspd": 3, "visib": "6+", "altim": 1013, "qcField": 16, "metarType": "METAR", "rawOb": "METAR LTDB 050650Z VRB03KT 9999 SCT030 26/19 Q1013 NOSIG", "lat": 36.8939, "lon": 35.07, "elev": 6, "name": "Tarsus/\u00c7ukurova Intl, ME, TR", "cover": "SCT", "clouds": [{"cover": "SCT", "base": 3000}], "fltCat": "VFR"}, "ENNE": {"icaoId": "ENNE", "receiptTime": "2026-06-05T06:55:47.533Z", "obsTime": 1780642200, "reportTime": "2026-06-05T07:00:00.000Z", "temp": 10, "dewp": 9, "wdir": 160, "wspd": 13, "visib": "6+", "altim": 995, "qcField": 0, "metarType": "METAR", "rawOb": "METAR ENNE 050650Z 16013KT CAVOK 10/09 Q0995 W///S3", "lat": 66.03, "lon": 8.08, "elev": 10, "name": "Norne, , NO", "cover": "CAVOK", "clouds": [], "fltCat": "VFR"}, "ESND": {"icaoId": "ESND", "receiptTime": "2026-06-05T06:55:10.174Z", "obsTime": 1780642200, "reportTime": "2026-06-05T07:00:00.000Z", "temp": 13, "dewp": 13, "wdir": 90, "wspd": 7, "visib": "6+", "altim": 1000, "qcField": 2, "wxString": "-RA", "metarType": "METAR", "rawOb": "METAR ESND 050650Z AUTO 09007KT 9999 -RA FEW004/// SCT007/// OVC012/// 13/13 Q1000", "lat": 62.047, "lon": 14.416, "elev": 352, "name": "Sveg Arpt, Z, SE", "cover": "OVC", "clouds": [{"cover": "FEW", "base": 400}, {"cover": "SCT", "base": 700}, {"cover": "OVC", "base": 1200}], "fltCat": "MVFR"}, "LIBR": {"icaoId": "LIBR", "receiptTime": "2026-06-05T06:55:33.750Z", "obsTime": 1780642200, "reportTime": "2026-06-05T07:00:00.000Z", "temp": 22, "dewp": 17, "wdir": 120, "wspd": 5, "visib": "6+", "altim": 1013, "qcField": 0, "metarType": "METAR", "rawOb": "METAR LIBR 050650Z 12005KT 090V160 CAVOK 22/17 Q1013", "lat": 40.658, "lon": 17.951, "elev": 5, "name": "Brindisi/Casale Arpt, PU, IT", "cover": "CAVOK", "clouds": [], "fltCat": "VFR"}, "LICJ": {"icaoId": "LICJ", "receiptTime": "2026-06-05T06:55:33.847Z", "obsTime": 1780642200, "reportTime": "2026-06-05T07:00:00.000Z", "temp": 23, "dewp": 18, "wdir": 240, "wspd": 3, "visib": "6+", "altim": 1013, "qcField": 0, "metarType": "METAR", "rawOb": "METAR LICJ 050650Z 24003KT CAVOK 23/18 Q1013", "lat": 38.176, "lon": 13.091, "elev": 20, "name": "Palermo Arpt, PA, IT", "cover": "CAVOK", "clouds": [], "fltCat": "VFR"}, "LIPZ": {"icaoId": "LIPZ", "receiptTime": "2026-06-05T06:55:34.196Z", "obsTime": 1780642200, "reportTime": "2026-06-05T07:00:00.000Z", "temp": 18, "dewp": 15, "wdir": 20, "wspd": 9, "visib": "6+", "altim": 1010, "qcField": 16, "metarType": "METAR", "rawOb": "METAR LIPZ 050650Z 02009KT 9999 FEW020 BKN070 18/15 Q1010 NOSIG", "lat": 45.505, "lon": 12.352, "elev": 3, "name": "Venice/Polo Arpt, VE, IT", "cover": "BKN", "clouds": [{"cover": "FEW", "base": 2000}, {"cover": "BKN", "base": 7000}], "fltCat": "VFR"}, "LICA": {"icaoId": "LICA", "receiptTime": "2026-06-05T06:55:34.457Z", "obsTime": 1780642200, "reportTime": "2026-06-05T07:00:00.000Z", "temp": 25, "dewp": 15, "wdir": "VRB", "wspd": 1, "visib": "6+", "altim": 1013, "qcField": 2, "metarType": "METAR", "rawOb": "METAR LICA 050650Z AUTO VRB01KT 9999 NCD 25/15 Q1013", "lat": 38.908, "lon": 16.242, "elev": 7, "name": "Lamezia Terme Arpt, CA, IT", "cover": "CLR", "clouds": [], "fltCat": "VFR"}, "ESPA": {"icaoId": "ESPA", "receiptTime": "2026-06-05T06:54:26.356Z", "obsTime": 1780642200, "reportTime": "2026-06-05T07:00:00.000Z", "temp": 16, "dewp": 12, "wdir": 90, "wspd": 3, "visib": "6+", "altim": 1009, "qcField": 0, "metarType": "METAR", "rawOb": "METAR ESPA 050650Z 09003KT CAVOK 16/12 Q1009", "lat": 65.541, "lon": 22.126, "elev": 12, "name": "Lule\u00e5 Arpt, BD, SE", "cover": "CAVOK", "clouds": [], "fltCat": "VFR"}, "EVRA": {"icaoId": "EVRA", "receiptTime": "2026-06-05T06:56:21.197Z", "obsTime": 1780642200, "reportTime": "2026-06-05T07:00:00.000Z", "temp": 17, "dewp": 16, "wdir": 160, "wspd": 8, "visib": 4.35, "altim": 1011, "qcField": 0, "wxString": "-DZ", "metarType": "METAR", "rawOb": "METAR EVRA 050650Z 16008KT 7000 -DZ BKN005 OVC010 17/16 Q1011 BECMG SCT005 OVC010", "lat": 56.924, "lon": 23.968, "elev": 7, "name": "Riga Intl, RG, LV", "cover": "OVC", "clouds": [{"cover": "BKN", "base": 500}, {"cover": "OVC", "base": 1000}], "fltCat": "IFR"}, "EKVG": {"icaoId": "EKVG", "receiptTime": "2026-06-05T06:56:21.390Z", "obsTime": 1780642200, "reportTime": "2026-06-05T07:00:00.000Z", "temp": 9, "dewp": 8, "wdir": 280, "wspd": 8, "visib": "6+", "altim": 990, "qcField": 2, "metarType": "METAR", "rawOb": "METAR EKVG 050650Z AUTO 28008KT 9999 SCT019/// OVC051/// 09/08 Q0990 RMK BKN015/// OVC045/// WIND SKEID 30011KT", "lat": 62.065, "lon": -7.282, "elev": 89, "name": "S\u00f8rv\u00e1gur/V\u00e1gar Arpt, VG, FO", "cover": "OVC", "clouds": [{"cover": "SCT", "base": 1900}, {"cover": "OVC", "base": 5100}], "fltCat": "VFR"}, "EYVI": {"icaoId": "EYVI", "receiptTime": "2026-06-05T06:50:07.377Z", "obsTime": 1780642200, "reportTime": "2026-06-05T07:00:00.000Z", "temp": 19, "dewp": 16, "wdir": 160, "wspd": 8, "visib": "6+", "altim": 1013, "qcField": 16, "metarType": "METAR", "rawOb": "METAR EYVI 050650Z 16008KT 130V190 CAVOK 19/16 Q1013 NOSIG", "lat": 54.634, "lon": 25.286, "elev": 180, "name": "Vilnius Intl, VL, LT", "cover": "CAVOK", "clouds": [], "fltCat": "VFR"}, "EKCH": {"icaoId": "EKCH", "receiptTime": "2026-06-05T06:53:07.712Z", "obsTime": 1780642200, "reportTime": "2026-06-05T07:00:00.000Z", "temp": 16, "dewp": 12, "wdir": 210, "wspd": 10, "visib": "6+", "altim": 1006, "qcField": 18, "metarType": "METAR", "rawOb": "METAR EKCH 050650Z AUTO 21010KT 9999 FEW014/// 16/12 Q1006 NOSIG", "lat": 55.618, "lon": 12.656, "elev": 4, "name": "Kobenhavn Intl, HO, DK", "cover": "FEW", "clouds": [{"cover": "FEW", "base": 1400}], "fltCat": "VFR"}, "EKBI": {"icaoId": "EKBI", "receiptTime": "2026-06-05T06:53:07.840Z", "obsTime": 1780642200, "reportTime": "2026-06-05T07:00:00.000Z", "temp": 15, "dewp": 13, "wdir": 200, "wspd": 10, "visib": "6+", "altim": 1004, "qcField": 0, "metarType": "METAR", "rawOb": "METAR EKBI 050650Z 20010KT 9999 SCT011 BKN070 15/13 Q1004", "lat": 55.74, "lon": 9.152, "elev": 67, "name": "Billund Arpt, SY, DK", "cover": "BKN", "clouds": [{"cover": "SCT", "base": 1100}, {"cover": "BKN", "base": 7000}], "fltCat": "VFR"}, "EFKU": {"icaoId": "EFKU", "receiptTime": "2026-06-05T06:53:25.448Z", "obsTime": 1780642200, "reportTime": "2026-06-05T07:00:00.000Z", "temp": 21, "dewp": 13, "wdir": 140, "wspd": 8, "visib": "6+", "altim": 1014, "qcField": 2, "metarType": "METAR", "rawOb": "METAR EFKU 050650Z AUTO 14008KT CAVOK 21/13 Q1014", "lat": 63.008, "lon": 27.799, "elev": 92, "name": "Kuopio Arpt, PS, FI", "cover": "CAVOK", "clouds": [], "fltCat": "VFR"}, "EFET": {"icaoId": "EFET", "receiptTime": "2026-06-05T06:53:26.564Z", "obsTime": 1780642200, "reportTime": "2026-06-05T07:00:00.000Z", "temp": 19, "dewp": 9, "wdir": 170, "wspd": 6, "visib": "6+", "altim": 1009, "qcField": 2, "metarType": "METAR", "rawOb": "METAR EFET 050650Z AUTO 17006KT 120V220 CAVOK 19/09 Q1009", "lat": 68.363, "lon": 23.424, "elev": 300, "name": "Enontekio Arpt, LL, FI", "cover": "CAVOK", "clouds": [], "fltCat": "VFR"}, "EFKS": {"icaoId": "EFKS", "receiptTime": "2026-06-05T06:53:26.893Z", "obsTime": 1780642200, "reportTime": "2026-06-05T07:00:00.000Z", "temp": 20, "dewp": 12, "wdir": 160, "wspd": 7, "visib": "6+", "altim": 1013, "qcField": 2, "metarType": "METAR", "rawOb": "METAR EFKS 050650Z AUTO 16007KT CAVOK 20/12 Q1013", "lat": 65.992, "lon": 29.236, "elev": 270, "name": "Kuusamo Arpt, PP, FI", "cover": "CAVOK", "clouds": [], "fltCat": "VFR"}, "EDDF": {"icaoId": "EDDF", "receiptTime": "2026-06-05T06:53:27.547Z", "obsTime": 1780642200, "reportTime": "2026-06-05T07:00:00.000Z", "temp": 14, "dewp": 11, "wdir": 230, "wspd": 9, "visib": "6+", "altim": 1014, "qcField": 18, "metarType": "METAR", "rawOb": "METAR EDDF 050650Z AUTO 23009KT 180V260 9999 SCT016 14/11 Q1014 NOSIG", "lat": 50.045, "lon": 8.598, "elev": 113, "name": "Frankfurt/Main Arpt, HE, DE", "cover": "SCT", "clouds": [{"cover": "SCT", "base": 1600}], "fltCat": "VFR"}, "EDDH": {"icaoId": "EDDH", "receiptTime": "2026-06-05T06:53:27.676Z", "obsTime": 1780642200, "reportTime": "2026-06-05T07:00:00.000Z", "temp": 15, "dewp": 11, "wdir": 220, "wspd": 12, "visib": "6+", "altim": 1008, "qcField": 18, "metarType": "METAR", "rawOb": "METAR EDDH 050650Z AUTO 22012KT 190V250 9999 BKN017 15/11 Q1008 NOSIG", "lat": 53.633, "lon": 9.988, "elev": 8, "name": "Hamburg Arpt, HH, DE", "cover": "BKN", "clouds": [{"cover": "BKN", "base": 1700}], "fltCat": "MVFR"}, "EDDM": {"icaoId": "EDDM", "receiptTime": "2026-06-05T06:53:28.026Z", "obsTime": 1780642200, "reportTime": "2026-06-05T07:00:00.000Z", "temp": 12, "dewp": 10, "wdir": 220, "wspd": 9, "visib": "6+", "altim": 1016, "qcField": 18, "wxString": "-RA", "metarType": "METAR", "rawOb": "METAR EDDM 050650Z AUTO 22009KT 9999 -RA FEW029 SCT043 12/10 Q1016 NOSIG", "lat": 48.348, "lon": 11.813, "elev": 445, "name": "Munich Intl, BY, DE", "cover": "SCT", "clouds": [{"cover": "FEW", "base": 2900}, {"cover": "SCT", "base": 4300}], "fltCat": "VFR"}, "EFHK": {"icaoId": "EFHK", "receiptTime": "2026-06-05T06:51:27.587Z", "obsTime": 1780642200, "reportTime": "2026-06-05T07:00:00.000Z", "temp": 19, "dewp": 11, "wdir": 150, "wspd": 11, "visib": "6+", "altim": 1012, "qcField": 16, "metarType": "METAR", "rawOb": "METAR EFHK 050650Z 15011KT CAVOK 19/11 Q1012 NOSIG", "lat": 60.327, "lon": 24.957, "elev": 56, "name": "Helsinki/Vantaa Arpt, UU, FI", "cover": "CAVOK", "clouds": [], "fltCat": "VFR"}, "EFVA": {"icaoId": "EFVA", "receiptTime": "2026-06-05T06:51:28.069Z", "obsTime": 1780642200, "reportTime": "2026-06-05T07:00:00.000Z", "temp": 18, "dewp": 13, "wdir": 160, "wspd": 9, "visib": "6+", "altim": 1008, "qcField": 2, "metarType": "METAR", "rawOb": "METAR EFVA 050650Z AUTO 16009KT 9999 BKN034 18/13 Q1008", "lat": 63.051, "lon": 21.762, "elev": 4, "name": "Vaasa Arpt, PO, FI", "cover": "BKN", "clouds": [{"cover": "BKN", "base": 3400}], "fltCat": "VFR"}, "EDDB": {"icaoId": "EDDB", "receiptTime": "2026-06-05T06:53:40.805Z", "obsTime": 1780642200, "reportTime": "2026-06-05T07:00:00.000Z", "temp": 15, "dewp": 11, "wdir": 250, "wspd": 7, "visib": "6+", "altim": 1010, "qcField": 18, "metarType": "METAR", "rawOb": "METAR EDDB 050650Z AUTO 25007KT CAVOK 15/11 Q1010 NOSIG", "lat": 52.3807, "lon": 13.5306, "elev": 48, "name": "Berlin/Brandenburg Intl, BR, DE", "cover": "CAVOK", "clouds": [], "fltCat": "VFR"}, "LLBG": {"icaoId": "LLBG", "receiptTime": "2026-06-05T06:51:41.735Z", "obsTime": 1780642200, "reportTime": "2026-06-05T07:00:00.000Z", "temp": 27, "dewp": 13, "wdir": "VRB", "wspd": 3, "visib": "6+", "altim": 1014, "qcField": 16, "metarType": "METAR", "rawOb": "METAR LLBG 050650Z VRB03KT CAVOK 27/13 Q1014 NOSIG", "lat": 32.011, "lon": 34.887, "elev": 35, "name": "Tel Aviv/Ben Gurion Arpt, C, IL", "cover": "CAVOK", "clouds": [], "fltCat": "VFR"}, "EDDE": {"icaoId": "EDDE", "receiptTime": "2026-06-05T06:53:40.969Z", "obsTime": 1780642200, "reportTime": "2026-06-05T07:00:00.000Z", "temp": 14, "dewp": 10, "wdir": 260, "wspd": 9, "visib": "6+", "altim": 1012, "qcField": 18, "metarType": "METAR", "rawOb": "METAR EDDE 050650Z AUTO 26009KT 230V300 9999 SCT036 BKN043 14/10 Q1012 NOSIG", "lat": 50.983, "lon": 10.961, "elev": 314, "name": "Erfurt Arpt, TH, DE", "cover": "BKN", "clouds": [{"cover": "SCT", "base": 3600}, {"cover": "BKN", "base": 4300}], "fltCat": "VFR"}, "EDDG": {"icaoId": "EDDG", "receiptTime": "2026-06-05T06:53:41.048Z", "obsTime": 1780642200, "reportTime": "2026-06-05T07:00:00.000Z", "temp": 15, "dewp": 11, "wdir": 220, "wspd": 12, "visib": "6+", "altim": 1010, "qcField": 18, "metarType": "METAR", "rawOb": "METAR EDDG 050650Z AUTO 22012KT 180V250 9999 BKN019 OVC046 15/11 Q1010 NOSIG", "lat": 52.135, "lon": 7.697, "elev": 46, "name": "M\u00fcnster/Osnabr\u00fcck Arpt, NT, DE", "cover": "OVC", "clouds": [{"cover": "BKN", "base": 1900}, {"cover": "OVC", "base": 4600}], "fltCat": "MVFR"}, "EGCC": {"icaoId": "EGCC", "receiptTime": "2026-06-05T06:54:21.006Z", "obsTime": 1780642200, "reportTime": "2026-06-05T07:00:00.000Z", "temp": 12, "dewp": 7, "wdir": 230, "wspd": 7, "visib": "6+", "altim": 1008, "qcField": 0, "metarType": "METAR", "rawOb": "METAR EGCC 050650Z 23007KT 9999 BKN022 12/07 Q1008", "lat": 53.354, "lon": -2.275, "elev": 78, "name": "Manchester Intl, EN, GB", "cover": "BKN", "clouds": [{"cover": "BKN", "base": 2200}], "fltCat": "MVFR"}, "EGLL": {"icaoId": "EGLL", "receiptTime": "2026-06-05T06:54:21.128Z", "obsTime": 1780642200, "reportTime": "2026-06-05T07:00:00.000Z", "temp": 14, "dewp": 10, "wdir": 260, "wspd": 12, "visib": "6+", "altim": 1011, "qcField": 2, "metarType": "METAR", "rawOb": "METAR EGLL 050650Z AUTO 26012KT 9999 NCD 14/10 Q1011", "lat": 51.477, "lon": -0.461, "elev": 26, "name": "London/Heathrow Intl, EN, GB", "cover": "CLR", "clouds": [], "fltCat": "VFR"}, "EGPF": {"icaoId": "EGPF", "receiptTime": "2026-06-05T06:54:21.191Z", "obsTime": 1780642200, "reportTime": "2026-06-05T07:00:00.000Z", "temp": 12, "dewp": 8, "wdir": 250, "wspd": 12, "visib": "6+", "altim": 1003, "qcField": 2, "metarType": "METAR", "rawOb": "METAR EGPF 050650Z AUTO 25012KT 9999 SCT023 12/08 Q1003", "lat": 55.867, "lon": -4.433, "elev": 8, "name": "Glasgow Arpt, SC, GB", "cover": "SCT", "clouds": [{"cover": "SCT", "base": 2300}], "fltCat": "VFR"}, "EGPO": {"icaoId": "EGPO", "receiptTime": "2026-06-05T06:57:07.798Z", "obsTime": 1780642200, "reportTime": "2026-06-05T07:00:00.000Z", "temp": 11, "dewp": 7, "wdir": 250, "wspd": 14, "visib": "6+", "altim": 998, "qcField": 1, "wxString": "SHRA", "metarType": "METAR", "rawOb": "METAR EGPO 050650Z COR 25014KT 9999 SHRA FEW019CB BKN027 11/07 Q0998", "lat": 58.215, "lon": -6.329, "elev": 10, "name": "Stornoway Arpt, SC, GB", "cover": "BKN", "clouds": [{"cover": "FEW", "base": 1900}, {"cover": "BKN", "base": 2700}], "fltCat": "MVFR"}, "ESNN": {"icaoId": "ESNN", "receiptTime": "2026-06-05T06:54:26.934Z", "obsTime": 1780642200, "reportTime": "2026-06-05T07:00:00.000Z", "temp": 11, "dewp": 10, "wdir": 120, "wspd": 12, "visib": "6+", "altim": 1004, "qcField": 0, "metarType": "METAR", "rawOb": "METAR ESNN 050650Z 12012KT 9999 OVC003 11/10 Q1004", "lat": 62.532, "lon": 17.436, "elev": 4, "name": "Sundsvall-Timra Arpt, Y, SE", "cover": "OVC", "clouds": [{"cover": "OVC", "base": 300}], "fltCat": "LIFR"}, "LSGG": {"icaoId": "LSGG", "receiptTime": "2026-06-05T06:52:20.154Z", "obsTime": 1780642200, "reportTime": "2026-06-05T07:00:00.000Z", "temp": 12, "dewp": 11, "wdir": "VRB", "wspd": 3, "visib": "6+", "altim": 1017, "qcField": 18, "metarType": "METAR", "rawOb": "METAR LSGG 050650Z AUTO VRB03KT 9999 FEW007 SCT066 12/11 Q1017 NOSIG", "lat": 46.248, "lon": 6.128, "elev": 411, "name": "Geneva/Cointrin Arpt, GE, CH", "cover": "SCT", "clouds": [{"cover": "FEW", "base": 700}, {"cover": "SCT", "base": 6600}], "fltCat": "VFR"}, "LTCG": {"icaoId": "LTCG", "receiptTime": "2026-06-05T06:58:10.125Z", "obsTime": 1780642200, "reportTime": "2026-06-05T07:00:00.000Z", "temp": 22, "dewp": 16, "wdir": "VRB", "wspd": 3, "visib": "6+", "altim": 1014, "qcField": 16, "metarType": "METAR", "rawOb": "METAR LTCG 050650Z VRB03KT CAVOK 22/16 Q1014 NOSIG RMK RWY29 36003KT 310V050", "lat": 40.995, "lon": 39.782, "elev": 28, "name": "Trabzon Arpt, TR, TR", "cover": "CAVOK", "clouds": [], "fltCat": "VFR"}, "LTFM": {"icaoId": "LTFM", "receiptTime": "2026-06-05T06:57:59.309Z", "obsTime": 1780642200, "reportTime": "2026-06-05T07:00:00.000Z", "temp": 21, "dewp": 18, "wdir": 40, "wspd": 11, "visib": "6+", "altim": 1014, "qcField": 16, "metarType": "METAR", "rawOb": "METAR LTFM 050650Z 04011KT 9999 SCT007 BKN100 21/18 Q1014 NOSIG RMK RWY17L 04009KT RWY34L 04010KT RWY16R 03009KT RWY36 03011KT RWY18 04010KT", "lat": 41.262, "lon": 28.74, "elev": 99, "name": "Istanbul Arpt, IS, TR", "cover": "BKN", "clouds": [{"cover": "SCT", "base": 700}, {"cover": "BKN", "base": 10000}], "fltCat": "VFR"}, "LTAI": {"icaoId": "LTAI", "receiptTime": "2026-06-05T06:58:17.859Z", "obsTime": 1780642200, "reportTime": "2026-06-05T07:00:00.000Z", "temp": 24, "dewp": 18, "wdir": 60, "wspd": 6, "visib": "6+", "altim": 1014, "qcField": 16, "metarType": "METAR", "rawOb": "METAR LTAI 050650Z 06006KT 030V090 9999 BKN025 24/18 Q1014 NOSIG RMK RWY18C 07006KT 030V110 RWY36R 07005KT 010V120 RWY18L 08005KT 020V120", "lat": 36.9, "lon": 30.798, "elev": 50, "name": "Antalya Arpt, AN, TR", "cover": "BKN", "clouds": [{"cover": "BKN", "base": 2500}], "fltCat": "MVFR"}, "LTBJ": {"icaoId": "LTBJ", "receiptTime": "2026-06-05T06:58:17.908Z", "obsTime": 1780642200, "reportTime": "2026-06-05T07:00:00.000Z", "temp": 25, "dewp": 13, "wdir": "VRB", "wspd": 2, "visib": "6+", "altim": 1013, "qcField": 16, "metarType": "METAR", "rawOb": "METAR LTBJ 050650Z VRB02KT 9999 FEW030 SCT180 25/13 Q1013 NOSIG RMK RWY16 17004KT 120V250", "lat": 38.285, "lon": 27.155, "elev": 123, "name": "Izmir/Menderes Arpt, IZ, TR", "cover": "SCT", "clouds": [{"cover": "FEW", "base": 3000}, {"cover": "SCT", "base": 18000}], "fltCat": "VFR"}, "LTAT": {"icaoId": "LTAT", "receiptTime": "2026-06-05T06:58:10.042Z", "obsTime": 1780642200, "reportTime": "2026-06-05T07:00:00.000Z", "temp": 25, "dewp": 10, "wdir": 190, "wspd": 2, "visib": "6+", "altim": 1016, "qcField": 16, "metarType": "METAR", "rawOb": "METAR LTAT 050650Z 19002KT CAVOK 25/10 Q1016 NOSIG RMK RWY03 VRB01KT", "lat": 38.435, "lon": 38.092, "elev": 850, "name": "Malatya Arpt, MA, TR", "cover": "CAVOK", "clouds": [], "fltCat": "VFR"}, "LTAC": {"icaoId": "LTAC", "receiptTime": "2026-06-05T07:06:09.913Z", "obsTime": 1780642200, "reportTime": "2026-06-05T07:00:00.000Z", "temp": 22, "dewp": 12, "wdir": 10, "wspd": 4, "visib": "6+", "altim": 1017, "qcField": 16, "metarType": "METAR", "rawOb": "METAR LTAC 050650Z 01004KT 9999 FEW040 SCT100 22/12 Q1017 NOSIG RMK RWY21C VRB05KT RWY03L 05003KT 330V100 RWY21R 02005KT 340V060 RWY03R 12002KT RWY21L VRB03KT", "lat": 40.128, "lon": 32.995, "elev": 952, "name": "Ankara/Esenbo\u011fa Intl, AN, TR", "cover": "SCT", "clouds": [{"cover": "FEW", "base": 4000}, {"cover": "SCT", "base": 10000}], "fltCat": "VFR"}, "LXGB": {"icaoId": "LXGB", "receiptTime": "2026-06-05T07:02:27.050Z", "obsTime": 1780642200, "reportTime": "2026-06-05T07:00:00.000Z", "temp": 21, "dewp": 14, "wdir": 240, "wspd": 8, "visib": "6+", "altim": 1013, "qcField": 16, "metarType": "METAR", "rawOb": "METAR LXGB 050650Z 24008KT CAVOK 21/14 Q1013 NOSIG", "lat": 36.151, "lon": -5.35, "elev": 5, "name": "Gibraltar Arpt, , GI", "cover": "CAVOK", "clouds": [], "fltCat": "VFR"}, "ENBO": {"icaoId": "ENBO", "receiptTime": "2026-06-05T06:56:20.966Z", "obsTime": 1780642200, "reportTime": "2026-06-05T07:00:00.000Z", "temp": 18, "dewp": 10, "wdir": 120, "wspd": 17, "visib": "6+", "altim": 1001, "qcField": 0, "metarType": "METAR", "rawOb": "METAR ENBO 050650Z 12017KT CAVOK 18/10 Q1001 TEMPO 18015KT", "lat": 67.267, "lon": 14.359, "elev": 13, "name": "Bod\u00f8 Arpt, NO, NO", "cover": "CAVOK", "clouds": [], "fltCat": "VFR"}, "ENBR": {"icaoId": "ENBR", "receiptTime": "2026-06-05T06:56:20.987Z", "obsTime": 1780642200, "reportTime": "2026-06-05T07:00:00.000Z", "temp": 13, "dewp": 10, "wdir": 140, "wspd": 10, "visib": "6+", "altim": 995, "qcField": 0, "metarType": "METAR", "rawOb": "METAR ENBR 050650Z 14010KT 9999 FEW025 SCT042 13/10 Q0995 TEMPO SHRA BKN006 BKN020CB RMK WIND 1200FT 14015KT", "lat": 60.29, "lon": 5.222, "elev": 49, "name": "Bergen/Flesland Arpt, HO, NO", "cover": "SCT", "clouds": [{"cover": "FEW", "base": 2500}, {"cover": "SCT", "base": 4200}], "fltCat": "VFR"}, "ENGM": {"icaoId": "ENGM", "receiptTime": "2026-06-05T06:56:21.033Z", "obsTime": 1780642200, "reportTime": "2026-06-05T07:00:00.000Z", "temp": 12, "dewp": 11, "wdir": 180, "wspd": 9, "visib": "6+", "altim": 999, "qcField": 0, "wxString": "-SHRA", "metarType": "METAR", "rawOb": "METAR ENGM 050650Z 18009KT 9999 -SHRA SCT004 BKN010 12/11 Q0999 TEMPO BKN004 FEW020CB", "lat": 60.201, "lon": 11.08, "elev": 204, "name": "Oslo/Gardermoen Arpt, AK, NO", "cover": "BKN", "clouds": [{"cover": "SCT", "base": 400}, {"cover": "BKN", "base": 1000}], "fltCat": "MVFR"}, "ENKR": {"icaoId": "ENKR", "receiptTime": "2026-06-05T06:56:21.056Z", "obsTime": 1780642200, "reportTime": "2026-06-05T07:00:00.000Z", "temp": 20, "dewp": 13, "wdir": 250, "wspd": 9, "visib": "6+", "altim": 1009, "qcField": 0, "metarType": "METAR", "rawOb": "METAR ENKR 050650Z 25009KT CAVOK 20/13 Q1009 RMK WIND 731FT 26015KT", "lat": 69.725, "lon": 29.898, "elev": 86, "name": "Kirkenes/H\u00f8ybuktmoen Arpt, FI, NO", "cover": "CAVOK", "clouds": [], "fltCat": "VFR"}, "ENTC": {"icaoId": "ENTC", "receiptTime": "2026-06-05T06:56:21.092Z", "obsTime": 1780642200, "reportTime": "2026-06-05T07:00:00.000Z", "temp": 19, "dewp": 9, "wdir": 360, "wspd": 8, "visib": "6+", "altim": 1004, "qcField": 0, "metarType": "METAR", "rawOb": "METAR ENTC 050650Z 36008KT CAVOK 19/09 Q1004 BECMG 18012KT RMK WIND 2600FT 16016KT", "lat": 69.675, "lon": 18.916, "elev": 9, "name": "Troms\u00f8 Arpt, TR, NO", "cover": "CAVOK", "clouds": [], "fltCat": "VFR"}, "ENVA": {"icaoId": "ENVA", "receiptTime": "2026-06-05T06:56:21.118Z", "obsTime": 1780642200, "reportTime": "2026-06-05T07:00:00.000Z", "temp": 18, "dewp": 9, "wdir": 120, "wspd": 9, "visib": "6+", "altim": 997, "qcField": 16, "metarType": "METAR", "rawOb": "METAR ENVA 050650Z 12009KT CAVOK 18/09 Q0997 NOSIG RMK WIND 670FT 14017G28KT", "lat": 63.46, "lon": 10.931, "elev": 12, "name": "Trondheim Arpt, TR, NO", "cover": "CAVOK", "clouds": [], "fltCat": "VFR"}, "LOWW": {"icaoId": "LOWW", "receiptTime": "2026-06-05T06:56:21.303Z", "obsTime": 1780642200, "reportTime": "2026-06-05T07:00:00.000Z", "temp": 16, "dewp": 10, "wdir": 310, "wspd": 16, "visib": "6+", "altim": 1013, "qcField": 0, "metarType": "METAR", "rawOb": "METAR LOWW 050650Z 31016KT 9999 FEW044 BKN048 16/10 Q1013 TEMPO FM0800 RA", "lat": 48.117, "lon": 16.582, "elev": 179, "name": "Vienna Intl, NE, AT", "cover": "BKN", "clouds": [{"cover": "FEW", "base": 4400}, {"cover": "BKN", "base": 4800}], "fltCat": "VFR"}, "ESSA": {"icaoId": "ESSA", "receiptTime": "2026-06-05T06:56:22.204Z", "obsTime": 1780642200, "reportTime": "2026-06-05T07:00:00.000Z", "temp": 15, "dewp": 13, "wdir": 170, "wspd": 11, "visib": "6+", "altim": 1004, "qcField": 0, "wxString": "-RA", "metarType": "METAR", "rawOb": "METAR ESSA 050650Z 17011KT 9999 -RA BKN012 15/13 Q1004 TEMPO 4000 SHRA BKN007 BKN035CB", "lat": 59.664, "lon": 17.92, "elev": 36, "name": "Stockholm/Arlanda Arpt, AB, SE", "cover": "BKN", "clouds": [{"cover": "BKN", "base": 1200}], "fltCat": "MVFR"}, "ENHE": {"icaoId": "ENHE", "receiptTime": "2026-06-05T07:06:11.244Z", "obsTime": 1780642200, "reportTime": "2026-06-05T07:00:00.000Z", "temp": 13, "dewp": 11, "wdir": 230, "wspd": 3, "visib": "6+", "altim": 996, "qcField": 0, "metarType": "METAR", "rawOb": "METAR ENHE 050650Z 23003KT CAVOK 13/11 Q0996 W08/S3", "lat": 65.325, "lon": 2.327, "elev": 10, "name": "Heidrun, , NO", "cover": "CAVOK", "clouds": [], "fltCat": "VFR"}, "LHPP": {"icaoId": "LHPP", "receiptTime": "2026-06-05T07:02:26.037Z", "obsTime": 1780641900, "reportTime": "2026-06-05T07:00:00.000Z", "temp": 20, "dewp": 14, "wdir": "VRB", "wspd": 2, "visib": "6+", "altim": 1012, "qcField": 2, "metarType": "METAR", "rawOb": "METAR LHPP 050645Z AUTO VRB02KT CAVOK 20/14 Q1012", "lat": 45.991, "lon": 18.241, "elev": 193, "name": "P\u00e9cs/Pog\u00e1ny Intl, BA, HU", "cover": "CAVOK", "clouds": [], "fltCat": "VFR"}, "OKKK": {"icaoId": "OKKK", "receiptTime": "2026-06-05T07:10:10.974Z", "obsTime": 1780642800, "reportTime": "2026-06-05T07:00:00.000Z", "temp": 41, "dewp": 8, "wdir": 20, "wspd": 15, "visib": "6+", "altim": 1007, "qcField": 16, "metarType": "METAR", "rawOb": "METAR OKKK 050700Z 02015KT CAVOK 41/08 Q1007 NOSIG", "lat": 29.227, "lon": 47.969, "elev": 55, "name": "Kuwait Intl, KU, KW", "cover": "CAVOK", "clouds": [], "fltCat": "VFR"}, "OSDI": {"icaoId": "OSDI", "receiptTime": "2026-06-05T06:56:48.183Z", "obsTime": 1780642800, "reportTime": "2026-06-05T07:00:00.000Z", "temp": 25, "dewp": 2, "wdir": 160, "wspd": 4, "visib": "6+", "altim": 1016, "qcField": 0, "metarType": "METAR", "rawOb": "METAR OSDI 050700Z 16004KT CAVOK 25/02 Q1016", "lat": 33.411, "lon": 36.516, "elev": 614, "name": "Damascus Intl, DI, SY", "cover": "CAVOK", "clouds": [], "fltCat": "VFR"}, "DAUA": {"icaoId": "DAUA", "receiptTime": "2026-06-05T07:06:04.671Z", "obsTime": 1780642800, "reportTime": "2026-06-05T07:00:00.000Z", "wdir": 280, "wspd": 7, "visib": "6+", "altim": 1009, "qcField": 0, "metarType": "METAR", "rawOb": "METAR DAUA 050700Z 28007KT CAVOK 33/// Q1009", "lat": 27.839, "lon": -0.186, "elev": 278, "name": "Adrar/Belkebir Arpt, AD, DZ", "cover": "CAVOK", "clouds": [], "fltCat": "VFR"}, "DAUZ": {"icaoId": "DAUZ", "receiptTime": "2026-06-05T07:06:00.363Z", "obsTime": 1780642800, "reportTime": "2026-06-05T07:00:00.000Z", "temp": 30, "dewp": -5, "wdir": 60, "wspd": 4, "visib": "6+", "altim": 1015, "qcField": 0, "metarType": "METAR", "rawOb": "METAR DAUZ 050700Z 06004KT CAVOK 30/M05 Q1015", "lat": 28.052, "lon": 9.643, "elev": 567, "name": "In Am\u00e9nas Arpt, IL, DZ", "cover": "CAVOK", "clouds": [], "fltCat": "VFR"}, "GMML": {"icaoId": "GMML", "receiptTime": "2026-06-05T07:05:23.974Z", "obsTime": 1780642800, "reportTime": "2026-06-05T07:00:00.000Z", "temp": 18, "dewp": 13, "wdir": 10, "wspd": 16, "visib": 4.35, "altim": 1017, "qcField": 16, "metarType": "METAR", "rawOb": "METAR GMML 050700Z 01016KT 7000 OVC014 18/13 Q1017 NOSIG", "lat": 27.141, "lon": -13.23, "elev": 63, "name": "La\u00e2youne/Hassan Arpt, LA, EH", "cover": "OVC", "clouds": [{"cover": "OVC", "base": 1400}], "fltCat": "MVFR"}, "DAOB": {"icaoId": "DAOB", "receiptTime": "2026-06-05T07:05:52.372Z", "obsTime": 1780642800, "reportTime": "2026-06-05T07:00:00.000Z", "temp": 23, "dewp": 8, "wdir": 250, "wspd": 5, "visib": "6+", "altim": 1018, "qcField": 0, "metarType": "METAR", "rawOb": "METAR DAOB 050700Z 25005KT CAVOK 23/08 Q1018", "lat": 35.345, "lon": 1.476, "elev": 976, "name": "Tiaret/Bou Arpt, TI, DZ", "cover": "CAVOK", "clouds": [], "fltCat": "VFR"}, "DAUG": {"icaoId": "DAUG", "receiptTime": "2026-06-05T07:05:52.462Z", "obsTime": 1780642800, "reportTime": "2026-06-05T07:00:00.000Z", "temp": 29, "dewp": 3, "wdir": 70, "wspd": 4, "visib": 4.97, "altim": 1013, "qcField": 0, "metarType": "METAR", "rawOb": "METAR DAUG 050700Z 07004KT 050V110 8000 NSC 29/03 Q1013", "lat": 32.384, "lon": 3.794, "elev": 444, "name": "Gharda\u00efa/Noum\u00e9rat Arpt, GH, DZ", "cover": "CLR", "clouds": [], "fltCat": "MVFR"}, "DAAY": {"icaoId": "DAAY", "receiptTime": "2026-06-05T07:05:54.057Z", "obsTime": 1780642800, "reportTime": "2026-06-05T07:00:00.000Z", "temp": 22, "dewp": 12, "wdir": 40, "wspd": 9, "visib": "6+", "altim": 1020, "qcField": 0, "metarType": "METAR", "rawOb": "METAR DAAY 050700Z 04009KT CAVOK 22/12 Q1020", "lat": 33.532, "lon": -0.248, "elev": 1116, "name": "Mecheria/Bouamama Arpt, SB, DZ", "cover": "CAVOK", "clouds": [], "fltCat": "VFR"}, "DAOF": {"icaoId": "DAOF", "receiptTime": "2026-06-05T07:05:54.100Z", "obsTime": 1780642800, "reportTime": "2026-06-05T07:00:00.000Z", "temp": 19, "dewp": 14, "wdir": 260, "wspd": 13, "visib": "6+", "altim": 1011, "qcField": 0, "metarType": "METAR", "rawOb": "METAR DAOF 050700Z 26013KT CAVOK 19/14 Q1011", "lat": 27.7, "lon": -8.167, "elev": 441, "name": "Tindouf Arpt, TI, DZ", "cover": "CAVOK", "clouds": [], "fltCat": "VFR"}, "DAOR": {"icaoId": "DAOR", "receiptTime": "2026-06-05T07:05:54.145Z", "obsTime": 1780642800, "reportTime": "2026-06-05T07:00:00.000Z", "temp": 26, "dewp": -4, "wdir": 360, "wspd": 3, "visib": "6+", "altim": 1013, "qcField": 0, "metarType": "METAR", "rawOb": "METAR DAOR 050700Z 36003KT CAVOK 26/M04 Q1013", "lat": 31.65, "lon": -2.261, "elev": 809, "name": "B\u00e9cha/Ali Lolfi Arpt, BE, DZ", "cover": "CAVOK", "clouds": [], "fltCat": "VFR"}, "DTTG": {"icaoId": "DTTG", "receiptTime": "2026-06-05T07:05:21.360Z", "obsTime": 1780642800, "reportTime": "2026-06-05T07:00:00.000Z", "temp": 25, "dewp": 20, "wdir": 70, "wspd": 10, "visib": "6+", "altim": 1012, "qcField": 0, "metarType": "METAR", "rawOb": "METAR DTTG 050700Z 07010KT 9999 FEW030 25/20 Q1012", "lat": 33.733, "lon": 9.918, "elev": 120, "name": "Gabes/Matmata Intl, GB, TN", "cover": "FEW", "clouds": [{"cover": "FEW", "base": 3000}], "fltCat": "VFR"}, "LPLA": {"icaoId": "LPLA", "receiptTime": "2026-06-05T07:04:39.692Z", "obsTime": 1780642800, "reportTime": "2026-06-05T07:00:00.000Z", "temp": 20, "dewp": 16, "wdir": 290, "wspd": 21, "visib": "6+", "altim": 1021, "qcField": 0, "metarType": "METAR", "rawOb": "METAR LPLA 050700Z 29021KT 9999 FEW022 20/16 Q1021", "lat": 38.762, "lon": -27.091, "elev": 60, "name": "Lajes Acores Arpt, AZ, PT", "cover": "FEW", "clouds": [{"cover": "FEW", "base": 2200}], "fltCat": "VFR"}, "ORBI": {"icaoId": "ORBI", "receiptTime": "2026-06-05T06:58:37.232Z", "obsTime": 1780642800, "reportTime": "2026-06-05T07:00:00.000Z", "temp": 36, "dewp": 7, "wdir": 270, "wspd": 6, "visib": "6+", "altim": 1009, "qcField": 16, "metarType": "METAR", "rawOb": "METAR ORBI 050700Z 27006KT 180V320 CAVOK 36/07 Q1009 NOSIG", "lat": 33.263, "lon": 44.235, "elev": 37, "name": "Baghdad Intl, BG, IQ", "cover": "CAVOK", "clouds": [], "fltCat": "VFR"}, "OEPA": {"icaoId": "OEPA", "receiptTime": "2026-06-05T07:01:22.779Z", "obsTime": 1780642800, "reportTime": "2026-06-05T07:00:00.000Z", "temp": 39, "dewp": -6, "wdir": 20, "wspd": 9, "visib": "6+", "altim": 1011, "qcField": 16, "metarType": "METAR", "rawOb": "METAR OEPA 050700Z 02009KT CAVOK 39/M06 Q1011 NOSIG", "lat": 28.335, "lon": 46.125, "elev": 361, "name": "Al Qaisumah/Hafr Al-Batin Arpt, AS, SA", "cover": "CAVOK", "clouds": [], "fltCat": "VFR"}, "OESK": {"icaoId": "OESK", "receiptTime": "2026-06-05T07:01:22.895Z", "obsTime": 1780642800, "reportTime": "2026-06-05T07:00:00.000Z", "temp": 31, "dewp": -3, "wdir": 40, "wspd": 9, "visib": "6+", "altim": 1017, "qcField": 16, "metarType": "METAR", "rawOb": "METAR OESK 050700Z 04009KT CAVOK 31/M03 Q1017 NOSIG", "lat": 29.785, "lon": 40.1, "elev": 671, "name": "Al-Jouf Arpt, AJ, SA", "cover": "CAVOK", "clouds": [], "fltCat": "VFR"}, "OETB": {"icaoId": "OETB", "receiptTime": "2026-06-05T07:01:22.919Z", "obsTime": 1780642800, "reportTime": "2026-06-05T07:00:00.000Z", "temp": 29, "dewp": 3, "wdir": 0, "wspd": 0, "visib": "6+", "altim": 1016, "qcField": 16, "metarType": "METAR", "rawOb": "METAR OETB 050700Z 00000KT CAVOK 29/03 Q1016 NOSIG", "lat": 28.366, "lon": 36.619, "elev": 770, "name": "Tabuk Arpt, TB, SA", "cover": "CAVOK", "clouds": [], "fltCat": "VFR"}, "HESW": {"icaoId": "HESW", "receiptTime": "2026-06-05T07:01:23.112Z", "obsTime": 1780642800, "reportTime": "2026-06-05T07:00:00.000Z", "temp": 28, "dewp": 10, "wdir": 150, "wspd": 11, "visib": "6+", "altim": 1015, "qcField": 0, "metarType": "METAR", "rawOb": "METAR HESW 050700Z 15011KT CAVOK 28/10 Q1015", "lat": 29.346, "lon": 25.507, "elev": 101, "name": "Siwa Oasis Arpt, , EG", "cover": "CAVOK", "clouds": [], "fltCat": "VFR"}, "EIKN": {"icaoId": "EIKN", "receiptTime": "2026-06-05T06:33:33.371Z", "obsTime": 1780641000, "reportTime": "2026-06-05T06:30:00.000Z", "temp": 8, "dewp": 7, "wdir": 150, "wspd": 4, "visib": "6+", "altim": 1004, "qcField": 16, "metarType": "METAR", "rawOb": "METAR EIKN 050630Z 15004KT 9999 FEW030 SCT041 08/07 Q1004 NOSIG", "lat": 53.913, "lon": -8.811, "elev": 201, "name": "Knock/Ireland West Arpt, C, IE", "cover": "SCT", "clouds": [{"cover": "FEW", "base": 3000}, {"cover": "SCT", "base": 4100}], "fltCat": "VFR"}, "BIEG": {"icaoId": "BIEG", "receiptTime": "2026-06-05T07:03:30.191Z", "obsTime": 1780642800, "reportTime": "2026-06-05T07:00:00.000Z", "temp": 5, "dewp": 4, "wdir": 360, "wspd": 5, "visib": "6+", "altim": 988, "qcField": 0, "wxString": "-DZ", "metarType": "METAR", "rawOb": "METAR BIEG 050700Z 36005KT 9999 -DZ SCT010 OVC017 05/04 Q0988", "lat": 65.275, "lon": -14.409, "elev": 20, "name": "Egilssta\u00f0ir Arpt, E, IS", "cover": "OVC", "clouds": [{"cover": "SCT", "base": 1000}, {"cover": "OVC", "base": 1700}], "fltCat": "MVFR"}, "OIKK": {"icaoId": "OIKK", "receiptTime": "2026-06-05T07:03:18.821Z", "obsTime": 1780642800, "reportTime": "2026-06-05T07:00:00.000Z", "temp": 32, "dewp": -1, "wdir": 90, "wspd": 4, "visib": "6+", "altim": 1018, "qcField": 0, "metarType": "METAR", "rawOb": "METAR OIKK 050700Z 09004KT CAVOK 32/M01 Q1018 A3007", "lat": 30.251, "lon": 56.964, "elev": 1749, "name": "Kerman Arpt, KR, IR", "cover": "CAVOK", "clouds": [], "fltCat": "VFR"}, "OIII": {"icaoId": "OIII", "receiptTime": "2026-06-05T07:03:18.799Z", "obsTime": 1780642800, "reportTime": "2026-06-05T07:00:00.000Z", "temp": 28, "dewp": 5, "wdir": 250, "wspd": 6, "visib": "6+", "altim": 1015, "qcField": 16, "metarType": "METAR", "rawOb": "METAR OIII 050700Z 25006KT 9999 FEW035 28/05 Q1015 A3000 NOSIG", "lat": 35.686, "lon": 51.304, "elev": 1182, "name": "Tehran/Mehrabad Intl, TH, IR", "cover": "FEW", "clouds": [{"cover": "FEW", "base": 3500}], "fltCat": "VFR"}, "OIMB": {"icaoId": "OIMB", "receiptTime": "2026-06-05T07:03:18.362Z", "obsTime": 1780642800, "reportTime": "2026-06-05T07:00:00.000Z", "temp": 31, "dewp": 1, "wdir": 280, "wspd": 9, "wgst": 16, "visib": "6+", "altim": 1015, "qcField": 0, "metarType": "METAR", "rawOb": "METAR OIMB 050700Z 28009G16KT 220V330 CAVOK 31/01 Q1015 A3000", "lat": 32.894, "lon": 59.29, "elev": 1512, "name": "Birjand Intl, KR, IR", "cover": "CAVOK", "clouds": [], "fltCat": "VFR"}, "OING": {"icaoId": "OING", "receiptTime": "2026-06-05T07:03:18.268Z", "obsTime": 1780642800, "reportTime": "2026-06-05T07:00:00.000Z", "temp": 27, "dewp": 17, "wdir": 280, "wspd": 10, "visib": "6+", "altim": 1015, "qcField": 16, "metarType": "METAR", "rawOb": "METAR OING 050700Z 28010KT 9999 FEW035 SCT190 27/17 Q1015 A3000 NOSIG", "lat": 36.908, "lon": 54.404, "elev": 0, "name": "Gorgan Arpt, MZ, IR", "cover": "SCT", "clouds": [{"cover": "FEW", "base": 3500}, {"cover": "SCT", "base": 19000}], "fltCat": "VFR"}, "OICS": {"icaoId": "OICS", "receiptTime": "2026-06-05T07:03:12.891Z", "obsTime": 1780642800, "reportTime": "2026-06-05T07:00:00.000Z", "temp": 26, "dewp": 0, "wdir": 0, "wspd": 0, "visib": "6+", "altim": 1017, "qcField": 16, "metarType": "METAR", "rawOb": "METAR OICS 050700Z 00000KT CAVOK 26/00 Q1017 A3005 NOSIG", "lat": 35.245, "lon": 47.009, "elev": 1369, "name": "Sanandaj Arpt, KR, IR", "cover": "CAVOK", "clouds": [], "fltCat": "VFR"}, "OEDR": {"icaoId": "OEDR", "receiptTime": "2026-06-05T07:01:00.608Z", "obsTime": 1780642800, "reportTime": "2026-06-05T07:00:00.000Z", "temp": 40, "dewp": 9, "wdir": 350, "wspd": 21, "visib": 4.97, "altim": 1004, "qcField": 0, "metarType": "METAR", "rawOb": "METAR OEDR 050700Z 35021KT 8000 NSC 40/09 Q1004", "lat": 26.265, "lon": 50.152, "elev": 17, "name": "Dhahran, AS, SA", "cover": "CLR", "clouds": [], "fltCat": "MVFR"}, "OEHL": {"icaoId": "OEHL", "receiptTime": "2026-06-05T07:01:00.747Z", "obsTime": 1780642800, "reportTime": "2026-06-05T07:00:00.000Z", "temp": 34, "dewp": -4, "wdir": 150, "wspd": 4, "visib": "6+", "altim": 1017, "qcField": 16, "metarType": "METAR", "rawOb": "METAR OEHL 050700Z 15004KT CAVOK 34/M04 Q1017 NOSIG", "lat": 27.438, "lon": 41.686, "elev": 1002, "name": "Hail Arpt, HL, SA", "cover": "CAVOK", "clouds": [], "fltCat": "VFR"}, "OJAQ": {"icaoId": "OJAQ", "receiptTime": "2026-06-05T07:08:02.623Z", "obsTime": 1780642800, "reportTime": "2026-06-05T07:00:00.000Z", "temp": 31, "dewp": 4, "wdir": 40, "wspd": 14, "visib": 3.73, "altim": 1014, "qcField": 16, "metarType": "METAR", "rawOb": "METAR OJAQ 050700Z 04014KT 6000 NSC 31/04 Q1014 NOSIG", "lat": 29.612, "lon": 35.018, "elev": 45, "name": "Aqaba/Hussein Intl, MN, JO", "cover": "CLR", "clouds": [], "fltCat": "MVFR"}, "DAUE": {"icaoId": "DAUE", "receiptTime": "2026-06-05T07:06:34.476Z", "obsTime": 1780642800, "reportTime": "2026-06-05T07:00:00.000Z", "temp": 29, "dewp": 3, "wdir": 350, "wspd": 5, "visib": "6+", "altim": 1011, "qcField": 0, "metarType": "METAR", "rawOb": "METAR DAUE 050700Z 35005KT CAVOK 29/03 Q1011", "lat": 30.571, "lon": 2.86, "elev": 396, "name": "El Golea Intl, GH, DZ", "cover": "CAVOK", "clouds": [], "fltCat": "VFR"}, "DAUO": {"icaoId": "DAUO", "receiptTime": "2026-06-05T07:06:34.561Z", "obsTime": 1780642800, "reportTime": "2026-06-05T07:00:00.000Z", "temp": 26, "dewp": 18, "wdir": 120, "wspd": 7, "visib": "6+", "altim": 1010, "qcField": 0, "metarType": "METAR", "rawOb": "METAR DAUO 050700Z 12007KT 080V160 CAVOK 26/18 Q1010", "lat": 33.513, "lon": 6.782, "elev": 55, "name": "El Oued/Guemar Arpt, EO, DZ", "cover": "CAVOK", "clouds": [], "fltCat": "VFR"}, "ORER": {"icaoId": "ORER", "receiptTime": "2026-06-05T06:52:41.773Z", "obsTime": 1780642800, "reportTime": "2026-06-05T07:00:00.000Z", "temp": 33, "dewp": 6, "wdir": 170, "wspd": 4, "visib": "6+", "altim": 1010, "qcField": 0, "metarType": "METAR", "rawOb": "METAR ORER 050700Z 17004KT 100V220 CAVOK 33/06 Q1010", "lat": 36.232, "lon": 43.951, "elev": 399, "name": "Erbil Intl, AR, IQ", "cover": "CAVOK", "clouds": [], "fltCat": "VFR"}, "UWOR": {"icaoId": "UWOR", "receiptTime": "2026-06-05T07:06:11.872Z", "obsTime": 1780642800, "reportTime": "2026-06-05T07:00:00.000Z", "temp": 18, "dewp": 12, "wdir": 290, "wspd": 14, "visib": "6+", "altim": 1007, "qcField": 16, "metarType": "METAR", "rawOb": "METAR UWOR 050700Z 29007MPS 9999 BKN040CB 18/12 Q1007 R25/090060 NOSIG RMK QFE731/0975", "lat": 51.07, "lon": 58.597, "elev": 270, "name": "Orsk Arpt, OR, RU", "cover": "BKN", "clouds": [{"cover": "BKN", "base": 4000}], "fltCat": "VFR"}, "HEMM": {"icaoId": "HEMM", "receiptTime": "2026-06-05T07:14:21.223Z", "obsTime": 1780642800, "reportTime": "2026-06-05T07:00:00.000Z", "temp": 30, "dewp": 10, "wdir": 170, "wspd": 13, "visib": "6+", "altim": 1014, "qcField": 16, "metarType": "METAR", "rawOb": "METAR HEMM 050700Z 17013KT CAVOK 30/10 Q1014 NOSIG", "lat": 31.325, "lon": 27.222, "elev": 26, "name": "Mersa Matruh Intl, MA, EG", "cover": "CAVOK", "clouds": [], "fltCat": "VFR"}, "HEAT": {"icaoId": "HEAT", "receiptTime": "2026-06-05T07:14:21.473Z", "obsTime": 1780642800, "reportTime": "2026-06-05T07:00:00.000Z", "temp": 30, "dewp": 9, "wdir": 300, "wspd": 8, "visib": "6+", "altim": 1017, "qcField": 16, "metarType": "METAR", "rawOb": "METAR HEAT 050700Z 30008KT CAVOK 30/09 Q1017 NOSIG", "lat": 27.049, "lon": 31.014, "elev": 229, "name": "Assiut Arpt, WJ, EG", "cover": "CAVOK", "clouds": [], "fltCat": "VFR"}, "UTAA": {"icaoId": "UTAA", "receiptTime": "2026-06-05T07:06:08.119Z", "obsTime": 1780642800, "reportTime": "2026-06-05T07:00:00.000Z", "temp": 29, "dewp": 5, "wdir": 120, "wspd": 8, "visib": "6+", "altim": 1014, "qcField": 16, "metarType": "METAR", "rawOb": "METAR UTAA 050700Z 12008KT 080V180 9999 FEW100 29/05 Q1014 R88/CLRD70 NOSIG", "lat": 37.975, "lon": 58.371, "elev": 207, "name": "Ashgabat Intl, S, TM", "cover": "FEW", "clouds": [{"cover": "FEW", "base": 10000}], "fltCat": "VFR"}, "UTAK": {"icaoId": "UTAK", "receiptTime": "2026-06-05T07:06:08.142Z", "obsTime": 1780642800, "reportTime": "2026-06-05T07:00:00.000Z", "temp": 27, "dewp": 7, "wdir": 340, "wspd": 8, "visib": "6+", "altim": 1015, "qcField": 16, "metarType": "METAR", "rawOb": "METAR UTAK 050700Z 34008KT CAVOK 27/07 Q1015 R34L/CLRD70 NOSIG", "lat": 40.054, "lon": 53.007, "elev": 83, "name": "Turkmenbashi Arpt, B, TM", "cover": "CAVOK", "clouds": [], "fltCat": "VFR"}, "LTAL": {"icaoId": "LTAL", "receiptTime": "2026-06-05T06:55:19.447Z", "obsTime": 1780642200, "reportTime": "2026-06-05T07:00:00.000Z", "temp": 21, "dewp": 13, "wdir": 30, "wspd": 4, "visib": "6+", "altim": 1017, "qcField": 0, "metarType": "METAR", "rawOb": "METAR LTAL 050650Z 03004KT 330V070 9999 FEW040 21/13 Q1017", "lat": 41.305, "lon": 33.792, "elev": 1074, "name": "Kastamonu Arpt, KA, TR", "cover": "FEW", "clouds": [{"cover": "FEW", "base": 4000}], "fltCat": "VFR"}, "LTCI": {"icaoId": "LTCI", "receiptTime": "2026-06-05T06:55:27.548Z", "obsTime": 1780642200, "reportTime": "2026-06-05T07:00:00.000Z", "temp": 19, "dewp": 10, "wdir": 280, "wspd": 7, "visib": "6+", "altim": 1020, "qcField": 16, "metarType": "METAR", "rawOb": "METAR LTCI 050650Z 28007KT 240V330 9999 FEW040 19/10 Q1020 NOSIG", "lat": 38.469, "lon": 43.337, "elev": 1654, "name": "Van Arpt, VA, TR", "cover": "FEW", "clouds": [{"cover": "FEW", "base": 4000}], "fltCat": "VFR"}, "LTFH": {"icaoId": "LTFH", "receiptTime": "2026-06-05T06:55:27.829Z", "obsTime": 1780642200, "reportTime": "2026-06-05T07:00:00.000Z", "temp": 26, "dewp": 16, "wdir": 90, "wspd": 3, "visib": "6+", "altim": 1013, "qcField": 16, "metarType": "METAR", "rawOb": "METAR LTFH 050650Z 09003KT 020V180 CAVOK 26/16 Q1013 NOSIG", "lat": 41.255, "lon": 36.567, "elev": 7, "name": "Samsun-\u00c7ar\u015famba Arpt, SA, TR", "cover": "CAVOK", "clouds": [], "fltCat": "VFR"}, "UNKL": {"icaoId": "UNKL", "receiptTime": "2026-06-05T06:06:11.976Z", "obsTime": 1780639200, "reportTime": "2026-06-05T06:00:00.000Z", "temp": 23, "dewp": 6, "wdir": 100, "wspd": 12, "wgst": 23, "visib": "6+", "altim": 1019, "qcField": 16, "metarType": "METAR", "rawOb": "METAR UNKL 050600Z 10006G12MPS CAVOK 23/06 Q1019 R11/CLRD// NOSIG RMK QFE739", "lat": 56.173, "lon": 92.493, "elev": 278, "name": "Krasnoyarsk Arpt, KY, RU", "cover": "CAVOK", "clouds": [], "fltCat": "VFR"}, "UASP": {"icaoId": "UASP", "receiptTime": "2026-06-05T06:06:05.312Z", "obsTime": 1780639200, "reportTime": "2026-06-05T06:00:00.000Z", "temp": 32, "dewp": 4, "wdir": 120, "wspd": 12, "visib": "6+", "altim": 1010, "qcField": 16, "metarType": "METAR", "rawOb": "METAR UASP 050600Z 12006MPS 090V200 CAVOK 32/04 Q1010 NOSIG RMK QFE746/0995", "lat": 52.202, "lon": 77.078, "elev": 122, "name": "Pavlodar Arpt, PA, KZ", "cover": "CAVOK", "clouds": [], "fltCat": "VFR"}, "UAAH": {"icaoId": "UAAH", "receiptTime": "2026-06-05T06:06:05.148Z", "obsTime": 1780639200, "reportTime": "2026-06-05T06:00:00.000Z", "temp": 33, "dewp": 5, "wdir": 180, "wspd": 4, "visib": "6+", "altim": 1010, "qcField": 16, "metarType": "METAR", "rawOb": "METAR UAAH 050600Z 18002MPS 120V250 9999 FEW049 33/05 Q1010 NOSIG RMK QFE719/0959", "lat": 46.893, "lon": 75.005, "elev": 427, "name": "Balkhash Arpt, KA, KZ", "cover": "FEW", "clouds": [{"cover": "FEW", "base": 4900}], "fltCat": "VFR"}, "UNOO": {"icaoId": "UNOO", "receiptTime": "2026-06-05T06:06:11.994Z", "obsTime": 1780639200, "reportTime": "2026-06-05T06:00:00.000Z", "temp": 28, "dewp": 14, "wdir": 110, "wspd": 12, "visib": "6+", "altim": 1010, "qcField": 16, "metarType": "METAR", "rawOb": "METAR UNOO 050600Z 11006MPS 9999 SCT033CB 28/14 Q1010 R07/CLRD63 NOSIG RMK QFE749", "lat": 54.964, "lon": 73.32, "elev": 85, "name": "Omsk Arpt, OM, RU", "cover": "SCT", "clouds": [{"cover": "SCT", "base": 3300}], "fltCat": "VFR"}, "PASY": {"icaoId": "PASY", "receiptTime": "2026-06-05T06:06:04.720Z", "obsTime": 1780638840, "reportTime": "2026-06-05T05:54:00.000Z", "temp": 6, "dewp": 4, "wdir": 40, "wspd": 13, "wgst": 19, "visib": 7, "altim": 1024.1, "slp": 1024.4, "qcField": 14, "metarType": "SPECI", "rawOb": "SPECI PASY 050554Z AUTO 04013G19KT 7SM OVC006 06/04 A3024 RMK AO2 WSHFT 53 PLB0455E09GRB09E13 SLP244 $", "lat": 52.711, "lon": 174.107, "elev": 6, "name": "Shemya/Eareckson Arpt, AK, US", "cover": "OVC", "clouds": [{"cover": "OVC", "base": 600}], "fltCat": "IFR"}, "USDA": {"icaoId": "USDA", "receiptTime": "2026-06-05T06:04:25.681Z", "obsTime": 1780639200, "reportTime": "2026-06-05T06:00:00.000Z", "temp": 2, "dewp": 1, "wdir": 100, "wspd": 16, "visib": "6+", "altim": 1022, "qcField": 16, "wxString": "-RA", "metarType": "METAR", "rawOb": "METAR USDA 050600Z 10008MPS 9999 -RA BKN027 02/01 Q1022 R04/290551 NOSIG RMK QFE765/1021", "lat": 71.216, "lon": 72.05, "elev": 5, "name": "Sabette Arpt, YA, RU", "cover": "BKN", "clouds": [{"cover": "BKN", "base": 2700}], "fltCat": "MVFR"}, "UZTT": {"icaoId": "UZTT", "receiptTime": "2026-06-05T06:05:28.778Z", "obsTime": 1780639200, "reportTime": "2026-06-05T06:00:00.000Z", "temp": 29, "dewp": 10, "wdir": 310, "wspd": 6, "visib": "6+", "altim": 1012, "qcField": 16, "metarType": "METAR", "rawOb": "METAR UZTT 050600Z 31006KT 270V060 CAVOK 29/10 Q1012 NOSIG", "lat": 41.258, "lon": 69.281, "elev": 429, "name": "Taskent Intl, TK, UZ", "cover": "CAVOK", "clouds": [], "fltCat": "VFR"}, "USSS": {"icaoId": "USSS", "receiptTime": "2026-06-05T06:06:09.440Z", "obsTime": 1780639200, "reportTime": "2026-06-05T06:00:00.000Z", "temp": 17, "dewp": 16, "wdir": 130, "wspd": 6, "visib": "6+", "altim": 1009, "qcField": 16, "metarType": "METAR", "rawOb": "METAR USSS 050600Z 13003MPS 9999 SCT018CB 17/16 Q1009 R08L/290035 R08R/290050 NOSIG RMK QFE737/0982", "lat": 56.745, "lon": 60.792, "elev": 222, "name": "Yekaterinburg/Koltsovo Arpt, SV, RU", "cover": "SCT", "clouds": [{"cover": "SCT", "base": 1800}], "fltCat": "VFR"}, "ZBAA": {"icaoId": "ZBAA", "receiptTime": "2026-06-05T06:05:28.980Z", "obsTime": 1780639200, "reportTime": "2026-06-05T06:00:00.000Z", "temp": 27, "dewp": 5, "wdir": 160, "wspd": 8, "visib": "6+", "altim": 1009, "qcField": 16, "metarType": "METAR", "rawOb": "METAR ZBAA 050600Z 16004MPS 110V230 CAVOK 27/05 Q1009 NOSIG", "lat": 40.082, "lon": 116.603, "elev": 31, "name": "Beijing Intl, BJ, CN", "cover": "CAVOK", "clouds": [], "fltCat": "VFR"}, "USDD": {"icaoId": "USDD", "receiptTime": "2026-06-05T06:06:09.334Z", "obsTime": 1780639200, "reportTime": "2026-06-05T06:00:00.000Z", "temp": 9, "dewp": 8, "wdir": 50, "wspd": 10, "visib": "6+", "altim": 1023, "qcField": 16, "metarType": "METAR", "rawOb": "METAR USDD 050600Z 05005MPS 9999 BKN007 BKN020CB 09/08 Q1023 R04/290060 NOSIG RMK QFE761/1015", "lat": 66.591, "lon": 66.611, "elev": 53, "name": "Salekhard Arpt, YA, RU", "cover": "BKN", "clouds": [{"cover": "BKN", "base": 700}, {"cover": "BKN", "base": 2000}], "fltCat": "IFR"}, "UADD": {"icaoId": "UADD", "receiptTime": "2026-06-05T06:06:05.206Z", "obsTime": 1780639200, "reportTime": "2026-06-05T06:00:00.000Z", "temp": 25, "dewp": 5, "wdir": 300, "wspd": 8, "visib": "6+", "altim": 1013, "qcField": 16, "metarType": "METAR", "rawOb": "METAR UADD 050600Z 30004MPS 270V340 9999 SCT034 BKN100 25/05 Q1013 NOSIG RMK QFE703/0937", "lat": 42.854, "lon": 71.304, "elev": 663, "name": "Taraz Arpt, ZH, KZ", "cover": "BKN", "clouds": [{"cover": "SCT", "base": 3400}, {"cover": "BKN", "base": 10000}], "fltCat": "VFR"}, "UACP": {"icaoId": "UACP", "receiptTime": "2026-06-05T06:06:05.187Z", "obsTime": 1780639200, "reportTime": "2026-06-05T06:00:00.000Z", "temp": 23, "dewp": 16, "wdir": 80, "wspd": 14, "visib": "6+", "altim": 1008, "qcField": 16, "metarType": "METAR", "rawOb": "METAR UACP 050600Z 08007MPS 9999 BKN040CB 23/16 Q1008 NOSIG RMK QFE744/0992", "lat": 54.775, "lon": 69.183, "elev": 134, "name": "Petropavlovsk Arpt, SE, KZ", "cover": "BKN", "clouds": [{"cover": "BKN", "base": 4000}], "fltCat": "VFR"}, "USHH": {"icaoId": "USHH", "receiptTime": "2026-06-05T06:04:21.044Z", "obsTime": 1780639200, "reportTime": "2026-06-05T06:00:00.000Z", "temp": 21, "dewp": 14, "wdir": 120, "wspd": 8, "visib": "6+", "altim": 1013, "qcField": 16, "metarType": "METAR", "rawOb": "METAR USHH 050600Z 12004MPS 9999 FEW029 SCT040CB 21/14 Q1013 R06/190060 NOSIG", "lat": 61.029, "lon": 69.086, "elev": 46, "name": "Khanty-Mansijsk Arpt, KH, RU", "cover": "SCT", "clouds": [{"cover": "FEW", "base": 2900}, {"cover": "SCT", "base": 4000}], "fltCat": "VFR"}, "UHBB": {"icaoId": "UHBB", "receiptTime": "2026-06-05T05:54:39.874Z", "obsTime": 1780638840, "reportTime": "2026-06-05T05:54:00.000Z", "temp": 9, "dewp": 9, "wdir": 360, "wspd": 10, "visib": 4.35, "altim": 1007, "qcField": 16, "wxString": "-SHRA", "metarType": "SPECI", "rawOb": "SPECI UHBB 050554Z 36005MPS 7000 2800SE -SHRA BKN004 BKN026CB 09/09 Q1007 R36/290161 NOSIG RMK QBB120 QFE738/0984", "lat": 50.425, "lon": 127.412, "elev": 185, "name": "Blagoveshchensk Arpt, AM, RU", "cover": "BKN", "clouds": [{"cover": "BKN", "base": 400}, {"cover": "BKN", "base": 2600}], "fltCat": "LIFR"}, "UIUU": {"icaoId": "UIUU", "receiptTime": "2026-06-05T06:06:08.560Z", "obsTime": 1780639200, "reportTime": "2026-06-05T06:00:00.000Z", "temp": 18, "dewp": 4, "wdir": 350, "wspd": 10, "visib": "6+", "altim": 1017, "qcField": 16, "metarType": "METAR", "rawOb": "METAR UIUU 050600Z 35005MPS 310V080 9999 SCT050CB 18/04 Q1017 R26/CLRD60 NOSIG RMK QFE718/0958", "lat": 51.808, "lon": 107.443, "elev": 508, "name": "Ulan-Ude Arpt, BU, RU", "cover": "SCT", "clouds": [{"cover": "SCT", "base": 5000}], "fltCat": "VFR"}, "UNEE": {"icaoId": "UNEE", "receiptTime": "2026-06-05T06:06:11.959Z", "obsTime": 1780639200, "reportTime": "2026-06-05T06:00:00.000Z", "temp": 25, "dewp": 6, "wdir": 50, "wspd": 12, "wgst": 21, "visib": "6+", "altim": 1015, "qcField": 16, "metarType": "METAR", "rawOb": "METAR UNEE 050600Z 05006G11MPS CAVOK 25/06 Q1015 R05/CLRD63 NOSIG RMK QFE738", "lat": 55.27, "lon": 86.107, "elev": 261, "name": "Kemerovo Intl, KE, RU", "cover": "CAVOK", "clouds": [], "fltCat": "VFR"}, "UERR": {"icaoId": "UERR", "receiptTime": "2026-06-05T06:06:11.887Z", "obsTime": 1780639200, "reportTime": "2026-06-05T06:00:00.000Z", "temp": 24, "dewp": 4, "wdir": "VRB", "wspd": 2, "visib": "6+", "altim": 1019, "qcField": 16, "metarType": "METAR", "rawOb": "METAR UERR 050600Z VRB01MPS 9999 SCT040 24/04 Q1019 R07/CLRD60 NOSIG RMK QFE734/0979", "lat": 62.538, "lon": 114.056, "elev": 352, "name": "Mirny Arpt, SA, RU", "cover": "SCT", "clouds": [{"cover": "SCT", "base": 4000}], "fltCat": "VFR"}, "UIII": {"icaoId": "UIII", "receiptTime": "2026-06-05T06:06:08.537Z", "obsTime": 1780639200, "reportTime": "2026-06-05T06:00:00.000Z", "temp": 19, "dewp": 7, "wdir": 300, "wspd": 8, "visib": "6+", "altim": 1020, "qcField": 16, "metarType": "METAR", "rawOb": "METAR UIII 050600Z 30004MPS 270V330 9999 SCT020 19/07 Q1020 R30/250160 NOSIG RMK QFE720/0960", "lat": 52.273, "lon": 104.38, "elev": 480, "name": "Irkutsk Intl, IR, RU", "cover": "SCT", "clouds": [{"cover": "SCT", "base": 2000}], "fltCat": "VFR"}, "UNBB": {"icaoId": "UNBB", "receiptTime": "2026-06-05T06:06:11.941Z", "obsTime": 1780639200, "reportTime": "2026-06-05T06:00:00.000Z", "temp": 26, "dewp": 6, "wdir": 80, "wspd": 10, "visib": "6+", "altim": 1013, "qcField": 16, "metarType": "METAR", "rawOb": "METAR UNBB 050600Z 08005MPS 050V130 CAVOK 26/06 Q1013 R06/CLRD66 NOSIG RMK QFE737", "lat": 53.362, "lon": 83.54, "elev": 249, "name": "Barnaul Arpt, AL, RU", "cover": "CAVOK", "clouds": [], "fltCat": "VFR"}, "UAAA": {"icaoId": "UAAA", "receiptTime": "2026-06-05T06:06:08.265Z", "obsTime": 1780639200, "reportTime": "2026-06-05T06:00:00.000Z", "temp": 22, "dewp": 11, "wdir": 230, "wspd": 12, "visib": "6+", "altim": 1013, "qcField": 16, "metarType": "METAR", "rawOb": "METAR UAAA 050600Z 23006MPS 9999 BKN050CB OVC100 22/11 Q1013 WS R23L NOSIG", "lat": 43.35, "lon": 77.027, "elev": 673, "name": "Almaty Intl, AL, KZ", "cover": "OVC", "clouds": [{"cover": "BKN", "base": 5000}, {"cover": "OVC", "base": 10000}], "fltCat": "VFR"}, "UIBB": {"icaoId": "UIBB", "receiptTime": "2026-06-05T06:06:08.515Z", "obsTime": 1780639200, "reportTime": "2026-06-05T06:00:00.000Z", "temp": 23, "dewp": 5, "wdir": 90, "wspd": 6, "visib": "6+", "altim": 1020, "qcField": 16, "metarType": "METAR", "rawOb": "METAR UIBB 050600Z 09003MPS 030V130 9999 SCT046 23/05 Q1020 R30/CLRD62 NOSIG RMK QFE722/0962", "lat": 56.365, "lon": 101.716, "elev": 485, "name": "Bratsk Arpt, IR, RU", "cover": "SCT", "clouds": [{"cover": "SCT", "base": 4600}], "fltCat": "VFR"}, "UHPP": {"icaoId": "UHPP", "receiptTime": "2026-06-05T06:04:29.986Z", "obsTime": 1780639200, "reportTime": "2026-06-05T06:00:00.000Z", "temp": 10, "dewp": 2, "wdir": 160, "wspd": 12, "visib": "6+", "altim": 1029, "qcField": 16, "metarType": "METAR", "rawOb": "METAR UHPP 050600Z 16006MPS 9999 FEW130 10/02 Q1029 R16R/CLRD62 NOSIG RMK QFE769/1025", "lat": 53.175, "lon": 158.444, "elev": 33, "name": "Petropavlovsk-Kamchatsky Arpt, KA, RU", "cover": "FEW", "clouds": [{"cover": "FEW", "base": 13000}], "fltCat": "VFR"}, "USTR": {"icaoId": "USTR", "receiptTime": "2026-06-05T06:06:09.462Z", "obsTime": 1780639200, "reportTime": "2026-06-05T06:00:00.000Z", "temp": 19, "dewp": 13, "wdir": 200, "wspd": 6, "visib": "6+", "altim": 1010, "qcField": 0, "metarType": "METAR", "rawOb": "METAR USTR 050600Z 20003MPS 170V230 9999 SCT033CB 19/13 Q1010 R12/190060 R03/090065 TEMPO VRB16MPS 2100 -TSRAGR SQ FEW005 BKN016CB", "lat": 57.19, "lon": 65.324, "elev": 93, "name": "Tyumen/Roschino Intl, TY, RU", "cover": "SCT", "clouds": [{"cover": "SCT", "base": 3300}], "fltCat": "VFR"}, "UAAT": {"icaoId": "UAAT", "receiptTime": "2026-06-05T06:05:32.377Z", "obsTime": 1780639200, "reportTime": "2026-06-05T06:00:00.000Z", "temp": 29, "dewp": 12, "wdir": 160, "wspd": 4, "visib": "6+", "altim": 1010, "qcField": 16, "metarType": "METAR", "rawOb": "METAR UAAT 050600Z 16002MPS 9999 SCT050CB BKN100 29/12 Q1010 NOSIG RMK QFE706/0942", "lat": 45.121, "lon": 78.445, "elev": 588, "name": "Taldykorgan Arpt, AL, KZ", "cover": "BKN", "clouds": [{"cover": "SCT", "base": 5000}, {"cover": "BKN", "base": 10000}], "fltCat": "VFR"}, "UHWW": {"icaoId": "UHWW", "receiptTime": "2026-06-05T06:04:30.009Z", "obsTime": 1780639200, "reportTime": "2026-06-05T06:00:00.000Z", "temp": 14, "dewp": 14, "wdir": 80, "wspd": 6, "visib": 2.61, "altim": 1005, "qcField": 16, "wxString": "-SHRA", "metarType": "METAR", "rawOb": "METAR UHWW 050600Z 08003MPS 4200 -SHRA SCT015 OVC033CB 14/14 Q1005 R25L/290163 NOSIG RMK QFE752", "lat": 43.399, "lon": 132.146, "elev": 11, "name": "Vladivostok Intl, PR, RU", "cover": "OVC", "clouds": [{"cover": "SCT", "base": 1500}, {"cover": "OVC", "base": 3300}], "fltCat": "IFR"}, "UNAA": {"icaoId": "UNAA", "receiptTime": "2026-06-05T06:06:08.615Z", "obsTime": 1780639200, "reportTime": "2026-06-05T06:00:00.000Z", "temp": 26, "dewp": 5, "wdir": 320, "wspd": 8, "visib": "6+", "altim": 1015, "qcField": 16, "metarType": "METAR", "rawOb": "METAR UNAA 050600Z 32004MPS 260V350 CAVOK 26/05 Q1015 R02/CLRD63 NOSIG RMK QFE739", "lat": 53.74, "lon": 91.385, "elev": 249, "name": "Abakan Intl, KK, RU", "cover": "CAVOK", "clouds": [], "fltCat": "VFR"}, "UHSS": {"icaoId": "UHSS", "receiptTime": "2026-06-05T06:04:30.056Z", "obsTime": 1780639200, "reportTime": "2026-06-05T06:00:00.000Z", "temp": 12, "dewp": 4, "wdir": 140, "wspd": 10, "visib": "6+", "altim": 1023, "qcField": 16, "metarType": "METAR", "rawOb": "METAR UHSS 050600Z 14005MPS 9999 NSC 12/04 Q1023 R19/CLRD70 NOSIG RMK QFE766/1021", "lat": 46.887, "lon": 142.719, "elev": 14, "name": "Yuzhno-Sakhalinsk Arpt, SA, RU", "cover": "CLR", "clouds": [], "fltCat": "VFR"}, "ZWWW": {"icaoId": "ZWWW", "receiptTime": "2026-06-05T06:05:29.215Z", "obsTime": 1780639200, "reportTime": "2026-06-05T06:00:00.000Z", "temp": 31, "dewp": 9, "wdir": 340, "wspd": 10, "visib": "6+", "altim": 1009, "qcField": 16, "metarType": "METAR", "rawOb": "METAR ZWWW 050600Z 34005MPS 300V010 CAVOK 31/09 Q1009 NOSIG", "lat": 43.907, "lon": 87.474, "elev": 654, "name": "\u00dcr\u00fcmqi/Diwopu Arpt, XJ, CN", "cover": "CAVOK", "clouds": [], "fltCat": "VFR"}, "UHMM": {"icaoId": "UHMM", "receiptTime": "2026-06-05T06:04:30.031Z", "obsTime": 1780639200, "reportTime": "2026-06-05T06:00:00.000Z", "temp": 17, "dewp": 2, "wdir": 260, "wspd": 14, "visib": "6+", "altim": 1028, "qcField": 16, "metarType": "METAR", "rawOb": "METAR UHMM 050600Z 26007MPS 9999 NSC 17/02 Q1028 R28/CLRD// NOSIG RMK QFE755 R10/23006MPS", "lat": 59.911, "lon": 150.725, "elev": 175, "name": "Magadan/Sokol Arpt, MA, RU", "cover": "CLR", "clouds": [], "fltCat": "VFR"}, "UHMA": {"icaoId": "UHMA", "receiptTime": "2026-06-05T06:04:32.693Z", "obsTime": 1780639200, "reportTime": "2026-06-05T06:00:00.000Z", "temp": 17, "dewp": 9, "wdir": 200, "wspd": 8, "visib": "6+", "altim": 1022, "qcField": 16, "minT": 0.4, "metarType": "METAR", "rawOb": "METAR UHMA 050600Z 20004MPS CAVOK 17/09 Q1022 R20/CLRD60 NOSIG RMK MID 20004MPS END R20/18003MPS QFE761/1015", "lat": 64.733, "lon": 177.739, "elev": 53, "name": "Anadyr Arpt, CH, RU", "cover": "CAVOK", "clouds": [], "fltCat": "VFR"}, "UCFM": {"icaoId": "UCFM", "receiptTime": "2026-06-05T06:05:28.803Z", "obsTime": 1780639200, "reportTime": "2026-06-05T06:00:00.000Z", "temp": 24, "dewp": 12, "wdir": 190, "wspd": 4, "visib": "6+", "altim": 1013, "qcField": 16, "metarType": "METAR", "rawOb": "METAR UCFM 050600Z 19002MPS 170V240 9999 BKN066CB 24/12 Q1013 NOSIG", "lat": 43.061, "lon": 74.478, "elev": 632, "name": "Bishkek/Manas Intl, C, KG", "cover": "BKN", "clouds": [{"cover": "BKN", "base": 6600}], "fltCat": "VFR"}, "ZYTX": {"icaoId": "ZYTX", "receiptTime": "2026-06-05T06:05:29.270Z", "obsTime": 1780639200, "reportTime": "2026-06-05T06:00:00.000Z", "temp": 25, "dewp": 8, "wdir": 260, "wspd": 10, "visib": "6+", "altim": 1007, "qcField": 16, "metarType": "METAR", "rawOb": "METAR ZYTX 050600Z 26005MPS 200V310 CAVOK 25/08 Q1007 NOSIG", "lat": 41.639, "lon": 123.485, "elev": 56, "name": "Shenyang/Taoxian Intl, LN, CN", "cover": "CAVOK", "clouds": [], "fltCat": "VFR"}, "UIAA": {"icaoId": "UIAA", "receiptTime": "2026-06-05T06:06:08.493Z", "obsTime": 1780639200, "reportTime": "2026-06-05T06:00:00.000Z", "temp": 15, "dewp": 7, "wdir": 350, "wspd": 10, "visib": "6+", "altim": 1013, "qcField": 16, "metarType": "METAR", "rawOb": "METAR UIAA 050600Z 35005MPS 9999 SCT050CB 15/07 Q1013 R29/290155 NOSIG RMK QFE701/0935", "lat": 52.026, "lon": 113.31, "elev": 650, "name": "Chita/Kadala Arpt, CH, RU", "cover": "SCT", "clouds": [{"cover": "SCT", "base": 5000}], "fltCat": "VFR"}, "UACC": {"icaoId": "UACC", "receiptTime": "2026-06-05T06:06:08.298Z", "obsTime": 1780639200, "reportTime": "2026-06-05T06:00:00.000Z", "temp": 27, "dewp": 3, "wdir": 170, "wspd": 12, "visib": "6+", "altim": 1010, "qcField": 16, "metarType": "METAR", "rawOb": "METAR UACC 050600Z 17006MPS 150V210 9999 SCT030 27/03 Q1010 NOSIG RMK QFE726/0969", "lat": 51.024, "lon": 71.468, "elev": 354, "name": "Astana Intl, AK, KZ", "cover": "SCT", "clouds": [{"cover": "SCT", "base": 3000}], "fltCat": "VFR"}, "USRR": {"icaoId": "USRR", "receiptTime": "2026-06-05T06:06:09.415Z", "obsTime": 1780639200, "reportTime": "2026-06-05T06:00:00.000Z", "temp": 26, "dewp": 14, "wdir": 130, "wspd": 10, "visib": "6+", "altim": 1015, "qcField": 0, "metarType": "METAR", "rawOb": "METAR USRR 050600Z 13005MPS 110V170 CAVOK 26/14 Q1015 R07/CLRD// RMK QFE756", "lat": 61.342, "lon": 73.422, "elev": 52, "name": "Surgut Intl, KH, RU", "cover": "CAVOK", "clouds": [], "fltCat": "VFR"}, "UASK": {"icaoId": "UASK", "receiptTime": "2026-06-05T06:05:32.453Z", "obsTime": 1780639200, "reportTime": "2026-06-05T06:00:00.000Z", "temp": 27, "dewp": 8, "wdir": 360, "wspd": 4, "visib": "6+", "altim": 1009, "qcField": 16, "metarType": "METAR", "rawOb": "METAR UASK 050600Z 36002MPS 9999 NSC 27/08 Q1009 NOSIG RMK QFE732/0976", "lat": 50.027, "lon": 82.5, "elev": 285, "name": "Ust-Kamenogorsk Arpt, VO, KZ", "cover": "CLR", "clouds": [], "fltCat": "VFR"}, "UAOO": {"icaoId": "UAOO", "receiptTime": "2026-06-05T06:06:08.340Z", "obsTime": 1780639200, "reportTime": "2026-06-05T06:00:00.000Z", "temp": 27, "dewp": 6, "wdir": 300, "wspd": 10, "visib": "6+", "altim": 1013, "qcField": 16, "metarType": "METAR", "rawOb": "METAR UAOO 050600Z 30005MPS 260V340 CAVOK 27/06 Q1013 NOSIG RMK QFE748/0997", "lat": 44.707, "lon": 65.593, "elev": 130, "name": "Kzylorda Arpt, KZ, KZ", "cover": "CAVOK", "clouds": [], "fltCat": "VFR"}, "UAKD": {"icaoId": "UAKD", "receiptTime": "2026-06-05T06:06:05.245Z", "obsTime": 1780639200, "reportTime": "2026-06-05T06:00:00.000Z", "temp": 25, "dewp": 4, "wdir": 210, "wspd": 21, "wgst": 31, "visib": "6+", "altim": 1011, "qcField": 0, "metarType": "METAR", "rawOb": "METAR UAKD 050600Z 21011G16MPS 9999 SCT050CB 25/04 Q1011 TEMPO 23014G19MPS 3100 BLDU RMK QFE725/0967", "lat": 47.711, "lon": 67.739, "elev": 379, "name": "Zhezkazgan Arpt, KA, KZ", "cover": "SCT", "clouds": [{"cover": "SCT", "base": 5000}], "fltCat": "VFR"}, "UEEE": {"icaoId": "UEEE", "receiptTime": "2026-06-05T06:04:25.656Z", "obsTime": 1780639200, "reportTime": "2026-06-05T06:00:00.000Z", "temp": 19, "dewp": 4, "wdir": 140, "wspd": 4, "visib": "6+", "altim": 1024, "qcField": 16, "metarType": "METAR", "rawOb": "METAR UEEE 050600Z 14002MPS CAVOK 19/04 Q1024 R23/09//68 NOSIG RMK QFE759", "lat": 62.093, "lon": 129.774, "elev": 106, "name": "Yakutsk Arpt, SA, RU", "cover": "CAVOK", "clouds": [], "fltCat": "VFR"}, "UOOO": {"icaoId": "UOOO", "receiptTime": "2026-06-05T06:06:09.754Z", "obsTime": 1780639200, "reportTime": "2026-06-05T06:00:00.000Z", "temp": 1, "dewp": 1, "wdir": 20, "wspd": 10, "visib": "6+", "altim": 1025, "qcField": 16, "metarType": "METAR", "rawOb": "METAR UOOO 050600Z 02005MPS 9999 OVC005 01/01 Q1025 R01/12//61 NOSIG RMK QFE754/1006", "lat": 69.308, "lon": 87.322, "elev": 177, "name": "Norilsk/Alykel Arpt, TA, RU", "cover": "OVC", "clouds": [{"cover": "OVC", "base": 500}], "fltCat": "IFR"}, "UAUU": {"icaoId": "UAUU", "receiptTime": "2026-06-05T06:06:05.407Z", "obsTime": 1780639200, "reportTime": "2026-06-05T06:00:00.000Z", "temp": 18, "dewp": 12, "wdir": 110, "wspd": 12, "visib": "6+", "altim": 1004, "qcField": 16, "metarType": "METAR", "rawOb": "METAR UAUU 050600Z 11006MPS 070V140 9999 BKN025CB 18/12 Q1004 NOSIG RMK QFE737/0983", "lat": 53.215, "lon": 63.553, "elev": 177, "name": "Kostanay Arpt, KU, KZ", "cover": "BKN", "clouds": [{"cover": "BKN", "base": 2500}], "fltCat": "MVFR"}, "UHHH": {"icaoId": "UHHH", "receiptTime": "2026-06-05T06:04:29.963Z", "obsTime": 1780639200, "reportTime": "2026-06-05T06:00:00.000Z", "temp": 12, "dewp": 11, "wdir": 40, "wspd": 12, "visib": "6+", "altim": 1014, "qcField": 16, "wxString": "-SHRA", "metarType": "METAR", "rawOb": "METAR UHHH 050600Z 04006MPS 9999 -SHRA FEW010 SCT030CB 12/11 Q1014 R88/290045 NOSIG RMK QFE754/1006", "lat": 48.527, "lon": 135.184, "elev": 74, "name": "Khabarovsk/Novy Arpt, KH, RU", "cover": "SCT", "clouds": [{"cover": "FEW", "base": 1000}, {"cover": "SCT", "base": 3000}], "fltCat": "VFR"}, "UCFO": {"icaoId": "UCFO", "receiptTime": "2026-06-05T06:05:28.828Z", "obsTime": 1780639200, "reportTime": "2026-06-05T06:00:00.000Z", "temp": 26, "dewp": 12, "wdir": 50, "wspd": 4, "visib": "6+", "altim": 1013, "qcField": 16, "metarType": "METAR", "rawOb": "METAR UCFO 050600Z 05002MPS 9999 FEW050CB 26/12 Q1013 NOSIG", "lat": 40.61, "lon": 72.791, "elev": 881, "name": "Osh Intl, O, KG", "cover": "FEW", "clouds": [{"cover": "FEW", "base": 5000}], "fltCat": "VFR"}, "RJCC": {"icaoId": "RJCC", "receiptTime": "2026-06-05T06:06:51.708Z", "obsTime": 1780639200, "reportTime": "2026-06-05T06:00:00.000Z", "temp": 16, "dewp": 8, "wdir": 190, "wspd": 15, "visib": "6+", "altim": 1016, "qcField": 0, "metarType": "METAR", "rawOb": "METAR RJCC 050600Z 19015KT 9999 FEW015 BKN/// 16/08 Q1016", "lat": 42.774, "lon": 141.693, "elev": 19, "name": "Sapporo/Chitose Arpt, 1, JP", "cover": "FEW", "clouds": [{"cover": "FEW", "base": 1500}], "fltCat": "VFR"}, "ZBHH": {"icaoId": "ZBHH", "receiptTime": "2026-06-05T06:05:31.901Z", "obsTime": 1780639200, "reportTime": "2026-06-05T06:00:00.000Z", "temp": 21, "dewp": -3, "wdir": 270, "wspd": 6, "visib": "6+", "altim": 1011, "qcField": 16, "metarType": "METAR", "rawOb": "METAR ZBHH 050600Z 27003MPS 190V300 CAVOK 21/M03 Q1011 NOSIG", "lat": 40.854, "lon": 111.827, "elev": 1081, "name": "Hohhot/Baita Intl, NM, CN", "cover": "CAVOK", "clouds": [], "fltCat": "VFR"}, "ZMUB": {"icaoId": "ZMUB", "receiptTime": "2026-06-05T06:06:06.074Z", "obsTime": 1780639200, "reportTime": "2026-06-05T06:00:00.000Z", "temp": 15, "dewp": -2, "wdir": 330, "wspd": 14, "visib": "6+", "altim": 1017, "qcField": 16, "metarType": "METAR", "rawOb": "METAR ZMUB 050600Z 33007MPS 300V360 9999 FEW030CB SCT033 15/M02 Q1017 NOSIG RMK QFE655.5 30 MOP", "lat": 47.843, "lon": 106.766, "elev": 1300, "name": "Ulan-Bator/Khaan Arpt, 1, MN", "cover": "SCT", "clouds": [{"cover": "FEW", "base": 3000}, {"cover": "SCT", "base": 3300}], "fltCat": "VFR"}, "RJSA": {"icaoId": "RJSA", "receiptTime": "2026-06-05T06:05:42.387Z", "obsTime": 1780639200, "reportTime": "2026-06-05T06:00:00.000Z", "temp": 14, "dewp": 9, "wdir": 60, "wspd": 18, "wgst": 29, "visib": "6+", "altim": 1013, "qcField": 0, "metarType": "METAR", "rawOb": "METAR RJSA 050600Z 06018G29KT 9999 FEW005 14/09 Q1013", "lat": 40.733, "lon": 140.689, "elev": 196, "name": "Aomori Arpt, 2, JP", "cover": "FEW", "clouds": [{"cover": "FEW", "base": 500}], "fltCat": "VFR"}, "RJCM": {"icaoId": "RJCM", "receiptTime": "2026-06-05T06:07:03.448Z", "obsTime": 1780639200, "reportTime": "2026-06-05T06:00:00.000Z", "temp": 15, "dewp": 6, "wdir": 180, "wspd": 16, "visib": "6+", "altim": 1019, "qcField": 0, "metarType": "METAR", "rawOb": "METAR RJCM 050600Z 18016KT 9999 FEW015 BKN/// 15/06 Q1019", "lat": 43.881, "lon": 144.164, "elev": 30, "name": "Memambetsu Arpt, 1, JP", "cover": "FEW", "clouds": [{"cover": "FEW", "base": 1500}], "fltCat": "VFR"}, "UERP": {"icaoId": "UERP", "receiptTime": "2026-06-05T06:06:11.873Z", "obsTime": 1780639200, "reportTime": "2026-06-05T06:00:00.000Z", "temp": 25, "dewp": -3, "wdir": "VRB", "wspd": 2, "visib": "6+", "altim": 1018, "qcField": 16, "metarType": "METAR", "rawOb": "METAR UERP 050600Z VRB01MPS 9999 SCT040 25/M03 Q1018 R36/090070 NOSIG RMK QFE720", "lat": 66.4, "lon": 112.03, "elev": 514, "name": "Polyarny Arpt, SA, RU", "cover": "SCT", "clouds": [{"cover": "SCT", "base": 4000}], "fltCat": "VFR"}, "ZYHB": {"icaoId": "ZYHB", "receiptTime": "2026-06-05T06:05:32.128Z", "obsTime": 1780639200, "reportTime": "2026-06-05T06:00:00.000Z", "temp": 19, "dewp": 9, "wdir": 360, "wspd": 8, "visib": "6+", "altim": 1005, "qcField": 16, "metarType": "METAR", "rawOb": "METAR ZYHB 050600Z 36004MPS 320V040 9999 SCT040 19/09 Q1005 NOSIG", "lat": 45.628, "lon": 126.259, "elev": 134, "name": "Harbin/Taiping Arpt, HL, CN", "cover": "SCT", "clouds": [{"cover": "SCT", "base": 4000}], "fltCat": "VFR"}}}